{"type":"FeatureCollection","features":[{"type":"Feature","geometry":{"type":"Point","coordinates":[-117.345,47.654]},"properties":{"road":"I-90 @ SPRAGUE AVE ON RAMP","aadt":126000,"year":2024}},{"type":"Feature","geometry":{"type":"Point","coordinates":[-117.37,47.654]},"properties":{"road":"I-90 @ ALTAMONT ST OFF RAMP","aadt":124000,"year":2024}},{"type":"Feature","geometry":{"type":"Point","coordinates":[-117.384,47.654]},"properties":{"road":"I-90 @ 2ND AVE E OFF RAMP","aadt":123000,"year":2024}},{"type":"Feature","geometry":{"type":"Point","coordinates":[-117.419,47.653]},"properties":{"road":"I-90 @ LINCOLN ST OFF RAMP","aadt":117000,"year":2024}},{"type":"Feature","geometry":{"type":"Point","coordinates":[-117.404,47.652]},"properties":{"road":"I-90 @ SR 2*DIVISION ST OFF RAMP","aadt":117000,"year":2024}},{"type":"Feature","geometry":{"type":"Point","coordinates":[-117.375,47.654]},"properties":{"road":"I-90 @ ALTAMONT ST BRIDGE","aadt":117000,"year":2024}},{"type":"Feature","geometry":{"type":"Point","coordinates":[-117.306,47.667]},"properties":{"road":"I-90 @ BROADWAY AVE OFF RAMP (286)","aadt":112000,"year":2024}},{"type":"Feature","geometry":{"type":"Point","coordinates":[-117.358,47.654]},"properties":{"road":"I-90 @ FREYA ST UNDERCROSSING","aadt":110000,"year":2024}},{"type":"Feature","geometry":{"type":"Point","coordinates":[-117.324,47.655]},"properties":{"road":"I-90 @ BROADWAY AVE OFF RAMP","aadt":106000,"year":2024}},{"type":"Feature","geometry":{"type":"Point","coordinates":[-117.448,47.648]},"properties":{"road":"I-90 @ SR 195 OFF RAMP","aadt":104000,"year":2024}},{"type":"Feature","geometry":{"type":"Point","coordinates":[-117.394,47.652]},"properties":{"road":"I-90 @ SR 290 BRIDGE","aadt":104000,"year":2024}},{"type":"Feature","geometry":{"type":"Point","coordinates":[-117.461,47.642]},"properties":{"road":"I-90 @ PERMANENT RECORDER R118","aadt":94000,"year":2024}},{"type":"Feature","geometry":{"type":"Point","coordinates":[-117.496,47.624]},"properties":{"road":"I-90 @ GROVE RD*GEIGER BLVD OFF RAMP","aadt":54000,"year":2024}},{"type":"Feature","geometry":{"type":"Point","coordinates":[-117.411,47.664]},"properties":{"road":"US-2/Division @ NORTH RIVER DR","aadt":49000,"year":2024}},{"type":"Feature","geometry":{"type":"Point","coordinates":[-117.411,47.686]},"properties":{"road":"US-2/Division @ EUCLID AVE, SR 2 CODIVISN (COUPLET)","aadt":44000,"year":2024}},{"type":"Feature","geometry":{"type":"Point","coordinates":[-117.411,47.715]},"properties":{"road":"US-2/Division @ FRANCIS AVE, SR 291","aadt":41000,"year":2024}},{"type":"Feature","geometry":{"type":"Point","coordinates":[-117.411,47.695]},"properties":{"road":"US-2/Division @ PERMANENT RECORDER R021","aadt":41000,"year":2024}},{"type":"Feature","geometry":{"type":"Point","coordinates":[-117.411,47.739]},"properties":{"road":"US-2/Division @ SR 395 INTERSECTION (292 S)","aadt":37000,"year":2024}},{"type":"Feature","geometry":{"type":"Point","coordinates":[-117.411,47.742]},"properties":{"road":"US-395 @ BUSINESS ENTRANCE/EXIT (164)","aadt":30000,"year":2024}},{"type":"Feature","geometry":{"type":"Point","coordinates":[-117.458,47.715]},"properties":{"road":"SR-291/Francis @ INDIAN TRAIL RD WYE CONNECTION","aadt":29000,"year":2024}},{"type":"Feature","geometry":{"type":"Point","coordinates":[-117.437,47.715]},"properties":{"road":"SR-291/Francis @ ASH ST INTERSECTION","aadt":29000,"year":2024}},{"type":"Feature","geometry":{"type":"Point","coordinates":[-117.411,47.653]},"properties":{"road":"US-2/Division @ THIRD AVE INTERSECTION","aadt":28000,"year":2024}},{"type":"Feature","geometry":{"type":"Point","coordinates":[-117.436,47.715]},"properties":{"road":"SR-291/Francis @ ASH ST INTERSECTION (E)","aadt":28000,"year":2024}},{"type":"Feature","geometry":{"type":"Point","coordinates":[-117.407,47.744]},"properties":{"road":"US-2/Division @ HOLLAND AVE WYE CONNECTION","aadt":25000,"year":2024}},{"type":"Feature","geometry":{"type":"Point","coordinates":[-117.411,47.661]},"properties":{"road":"US-2 (BROWNE) @ BEGIN ROUTE","aadt":25000,"year":2024}},{"type":"Feature","geometry":{"type":"Point","coordinates":[-117.412,47.715]},"properties":{"road":"SR-291/Francis @ SR 2 INTERSECTION; BEGIN ROUTE","aadt":24000,"year":2024}},{"type":"Feature","geometry":{"type":"Point","coordinates":[-117.411,47.66]},"properties":{"road":"US-2/Division @ SPOKANE FALLS BLVD WYE","aadt":24000,"year":2024}},{"type":"Feature","geometry":{"type":"Point","coordinates":[-117.411,47.665]},"properties":{"road":"US-2 (DIVISN) @ NORTH RIVER DR","aadt":24000,"year":2024}},{"type":"Feature","geometry":{"type":"Point","coordinates":[-117.344,47.672]},"properties":{"road":"SR-290 @ HOUGH ST INTERSECTION","aadt":24000,"year":2024}},{"type":"Feature","geometry":{"type":"Point","coordinates":[-117.473,47.637]},"properties":{"road":"I-90 Ramp @ R1 RAMP (SR 90 WB TO SR 2 WB)","aadt":23000,"year":2024}},{"type":"Feature","geometry":{"type":"Point","coordinates":[-117.41,47.741]},"properties":{"road":"US-2/Division @ BUSINESS ENTRANCE/EXIT (293)","aadt":23000,"year":2024}},{"type":"Feature","geometry":{"type":"Point","coordinates":[-117.326,47.675]},"properties":{"road":"SR-290 @ FANCHER WAY WYE CONNECTION (W)","aadt":23000,"year":2024}},{"type":"Feature","geometry":{"type":"Point","coordinates":[-117.449,47.643]},"properties":{"road":"US-195 @ SR 90 OFF RAMP","aadt":22000,"year":2024}},{"type":"Feature","geometry":{"type":"Point","coordinates":[-117.325,47.675]},"properties":{"road":"SR-290 @ FANCHER WAY WYE CONNECTION","aadt":22000,"year":2024}},{"type":"Feature","geometry":{"type":"Point","coordinates":[-117.439,47.624]},"properties":{"road":"US-195 @ CHENEY-SPOKANE RD ON RAMP","aadt":21000,"year":2024}},{"type":"Feature","geometry":{"type":"Point","coordinates":[-117.478,47.716]},"properties":{"road":"SR-291/Francis @ NINE MILE RD WYE CONNECTION","aadt":21000,"year":2024}},{"type":"Feature","geometry":{"type":"Point","coordinates":[-117.481,47.634]},"properties":{"road":"US-2/Division @ SR 90 BRIDGE","aadt":20000,"year":2024}},{"type":"Feature","geometry":{"type":"Point","coordinates":[-117.413,47.66]},"properties":{"road":"US-2 (BROWNE) @ SPOKANE FALLS BLVD","aadt":20000,"year":2024}},{"type":"Feature","geometry":{"type":"Point","coordinates":[-117.477,47.633]},"properties":{"road":"I-90 Ramp @ Q1 RAMP (SR 2 EB TO SR 90 EB)","aadt":19000,"year":2024}},{"type":"Feature","geometry":{"type":"Point","coordinates":[-117.411,47.74]},"properties":{"road":"US-2/Division @ SR 395 INTERSECTION (292)","aadt":19000,"year":2024}},{"type":"Feature","geometry":{"type":"Point","coordinates":[-117.412,47.602]},"properties":{"road":"US-195 @ MEADOWLANE RD, MEDIAN","aadt":17000,"year":2024}},{"type":"Feature","geometry":{"type":"Point","coordinates":[-117.459,47.715]},"properties":{"road":"SR-291/Francis @ INDIAN TRAIL RD INTERSECTION","aadt":16000,"year":2024}},{"type":"Feature","geometry":{"type":"Point","coordinates":[-117.392,47.654]},"properties":{"road":"SR-290 @ 2ND AVE BRIDGE","aadt":15000,"year":2024}},{"type":"Feature","geometry":{"type":"Point","coordinates":[-117.412,47.652]},"properties":{"road":"I-90 Ramp @ Q1 RAMP (SR 2 COUPLET TO SR 90 EB)","aadt":15000,"year":2024}},{"type":"Feature","geometry":{"type":"Point","coordinates":[-117.36,47.745]},"properties":{"road":"US-395 @ PARKSMITH DR ON RAMP","aadt":15000,"year":2024}},{"type":"Feature","geometry":{"type":"Point","coordinates":[-117.496,47.726]},"properties":{"road":"SR-291/Francis @ WIND RIVER DR (SE)","aadt":14000,"year":2024}},{"type":"Feature","geometry":{"type":"Point","coordinates":[-117.333,47.654]},"properties":{"road":"I-90 Ramp @ S1 RAMP (SPRAGUE AVE TO SR 90 WB) 0.54","aadt":14000,"year":2024}},{"type":"Feature","geometry":{"type":"Point","coordinates":[-117.477,47.715]},"properties":{"road":"SR-291/Francis @ NINE MILE RD WYE CONNECTION (E)","aadt":13000,"year":2024}},{"type":"Feature","geometry":{"type":"Point","coordinates":[-117.362,47.708]},"properties":{"road":"US-395 @ WELLESLEY AVE ON RAMP","aadt":13000,"year":2024}},{"type":"Feature","geometry":{"type":"Point","coordinates":[-117.358,47.721]},"properties":{"road":"US-395 @ FREYA ST BRIDGE","aadt":12000,"year":2024}},{"type":"Feature","geometry":{"type":"Point","coordinates":[-117.433,47.652]},"properties":{"road":"I-90 Ramp @ Q1 RAMP (WALNUT ST TO SR 90 EB)","aadt":11000,"year":2024}},{"type":"Feature","geometry":{"type":"Point","coordinates":[-117.364,47.654]},"properties":{"road":"I-90 Ramp @ P1 RAMP (SR 90 EB TO 3RD AVE)","aadt":11000,"year":2024}},{"type":"Feature","geometry":{"type":"Point","coordinates":[-117.32,47.656]},"properties":{"road":"I-90 Ramp @ P1 RAMP (SR 90 EB TO 1ST AVE)","aadt":11000,"year":2024}},{"type":"Feature","geometry":{"type":"Point","coordinates":[-117.366,47.654]},"properties":{"road":"I-90 Ramp @ S1 RAMP (2ND AVE TO SR 90 WB)","aadt":11000,"year":2024}},{"type":"Feature","geometry":{"type":"Point","coordinates":[-117.437,47.651]},"properties":{"road":"I-90 Ramp @ P1 RAMP (SR 90 EB TO WALNUT ST)","aadt":10000,"year":2024}},{"type":"Feature","geometry":{"type":"Point","coordinates":[-117.413,47.652]},"properties":{"road":"I-90 Ramp @ P1 RAMP (SR 90 EB TO SR 2)","aadt":10000,"year":2024}},{"type":"Feature","geometry":{"type":"Point","coordinates":[-117.324,47.657]},"properties":{"road":"I-90 Ramp @ S1 RAMP (SPRAGUE AVE TO SR 90 WB)","aadt":9900,"year":2024}},{"type":"Feature","geometry":{"type":"Point","coordinates":[-117.413,47.653]},"properties":{"road":"US-2 (BROWNE) @ SR 90 UNDERCROSSING; END ROUTE","aadt":9600,"year":2024}},{"type":"Feature","geometry":{"type":"Point","coordinates":[-117.354,47.654]},"properties":{"road":"I-90 Ramp @ Q1 RAMP (3RD AVE TO SR 90 EB)","aadt":9300,"year":2024}},{"type":"Feature","geometry":{"type":"Point","coordinates":[-117.414,47.653]},"properties":{"road":"I-90 Ramp @ S1 RAMP (SR 2 COUPLET TO SR 90 WB)","aadt":9200,"year":2024}},{"type":"Feature","geometry":{"type":"Point","coordinates":[-117.353,47.654]},"properties":{"road":"I-90 Ramp @ R1 RAMP (SR 90 WB TO 2ND*FREYA)","aadt":9000,"year":2024}},{"type":"Feature","geometry":{"type":"Point","coordinates":[-117.362,47.667]},"properties":{"road":"SR-290 @ RALPH ST INTERSECTION","aadt":8400,"year":2024}},{"type":"Feature","geometry":{"type":"Point","coordinates":[-117.393,47.655]},"properties":{"road":"I-90 Ramp @ R1 RAMP (SR 90 WB TO SR 290)","aadt":8200,"year":2024}},{"type":"Feature","geometry":{"type":"Point","coordinates":[-117.356,47.724]},"properties":{"road":"US-395 @ R1 RAMP (SR 395 NSC S)","aadt":8200,"year":2024}},{"type":"Feature","geometry":{"type":"Point","coordinates":[-117.452,47.648]},"properties":{"road":"I-90 Ramp @ R1 RAMP (SR 90 WB TO SR 195 SB)","aadt":8200,"year":2024}},{"type":"Feature","geometry":{"type":"Point","coordinates":[-117.359,47.669]},"properties":{"road":"SR-290 @ FREYA WAY INTERSECTION","aadt":8100,"year":2024}},{"type":"Feature","geometry":{"type":"Point","coordinates":[-117.41,47.653]},"properties":{"road":"I-90 Ramp @ R1 RAMP (SR 90 WB TO SR 2)","aadt":7800,"year":2024}},{"type":"Feature","geometry":{"type":"Point","coordinates":[-117.345,47.672]},"properties":{"road":"SR-290 @ MISSION AVE INTERSECTION","aadt":7800,"year":2024}},{"type":"Feature","geometry":{"type":"Point","coordinates":[-117.347,47.671]},"properties":{"road":"SR-290 @ HAVANA ST INTERSECTION","aadt":7700,"year":2024}},{"type":"Feature","geometry":{"type":"Point","coordinates":[-117.392,47.653]},"properties":{"road":"I-90 Ramp @ P1 RAMP (SR 90 EB TO SR 290)","aadt":7600,"year":2024}},{"type":"Feature","geometry":{"type":"Point","coordinates":[-117.427,47.652]},"properties":{"road":"I-90 Ramp @ Q5 RAMP (4TH AVE TO SR 90 EB)","aadt":7600,"year":2024}},{"type":"Feature","geometry":{"type":"Point","coordinates":[-117.396,47.662]},"properties":{"road":"SR-290 @ HAMILTON ST, SPOKANE FALLS BLVD","aadt":7400,"year":2024}},{"type":"Feature","geometry":{"type":"Point","coordinates":[-117.379,47.662]},"properties":{"road":"SR-290 @ CRESTLINE ST INTERSECTION","aadt":7300,"year":2024}},{"type":"Feature","geometry":{"type":"Point","coordinates":[-117.437,47.652]},"properties":{"road":"I-90 Ramp @ S1 RAMP (MAPLE ST TO SR 90 WB)","aadt":7200,"year":2024}},{"type":"Feature","geometry":{"type":"Point","coordinates":[-117.424,47.653]},"properties":{"road":"I-90 Ramp @ R1 RAMP (SR 90 WB TO 3RD AVE E)","aadt":7200,"year":2024}},{"type":"Feature","geometry":{"type":"Point","coordinates":[-117.308,47.666]},"properties":{"road":"I-90 Ramp @ Q1 RAMP (BROADWAY AVE TO SR 90 EB) 0.16","aadt":7100,"year":2024}},{"type":"Feature","geometry":{"type":"Point","coordinates":[-117.391,47.653]},"properties":{"road":"I-90 Ramp @ Q1 RAMP (SR 290 TO SR 90 EB)","aadt":7100,"year":2024}},{"type":"Feature","geometry":{"type":"Point","coordinates":[-117.361,47.668]},"properties":{"road":"SR-290 @ DESMET ST INTERSECTION","aadt":6900,"year":2024}},{"type":"Feature","geometry":{"type":"Point","coordinates":[-117.363,47.702]},"properties":{"road":"US-395 @ R1 RAMP (SR 395 NSC S)","aadt":6600,"year":2024}},{"type":"Feature","geometry":{"type":"Point","coordinates":[-117.36,47.702]},"properties":{"road":"US-395 @ Q1 RAMP (NSC N)","aadt":5700,"year":2024}},{"type":"Feature","geometry":{"type":"Point","coordinates":[-117.313,47.664]},"properties":{"road":"I-90 Ramp @ R1 RAMP (SR 90 WB TO BROADWAY AVE)","aadt":5400,"year":2024}},{"type":"Feature","geometry":{"type":"Point","coordinates":[-117.312,47.663]},"properties":{"road":"I-90 Ramp @ Q5 RAMP (BROADWAY AVE)","aadt":4600,"year":2024}},{"type":"Feature","geometry":{"type":"Point","coordinates":[-117.371,47.654]},"properties":{"road":"I-90 Ramp @ Q1 RAMP (3RD AVE TO SR 90 EB)","aadt":4600,"year":2024}},{"type":"Feature","geometry":{"type":"Point","coordinates":[-117.394,47.655]},"properties":{"road":"SR-290 Ramp @ R1 RAMP (SR 290 TO 2ND AVE)","aadt":4500,"year":2024}},{"type":"Feature","geometry":{"type":"Point","coordinates":[-117.431,47.653]},"properties":{"road":"I-90 Ramp @ S1 RAMP (JEFFERSON ST TO SR 90 WB)","aadt":4400,"year":2024}},{"type":"Feature","geometry":{"type":"Point","coordinates":[-117.314,47.663]},"properties":{"road":"I-90 Ramp @ P1 RAMP (SR 90 EB TO BROADWAY AVE)","aadt":4300,"year":2024}},{"type":"Feature","geometry":{"type":"Point","coordinates":[-117.386,47.654]},"properties":{"road":"I-90 Ramp @ R1 RAMP (SR 90 WB TO 2ND AVE)","aadt":4100,"year":2024}},{"type":"Feature","geometry":{"type":"Point","coordinates":[-117.436,47.622]},"properties":{"road":"US-195 Ramp @ Q1 RAMP (CHEN-SPO RD TO SR 195 NB)","aadt":4000,"year":2024}},{"type":"Feature","geometry":{"type":"Point","coordinates":[-117.328,47.654]},"properties":{"road":"I-90 Ramp @ S2 RAMP (3RD AVE TO S128446)","aadt":3900,"year":2024}},{"type":"Feature","geometry":{"type":"Point","coordinates":[-117.344,47.654]},"properties":{"road":"I-90 Ramp @ Q1 RAMP (4TH AVE TO SR 90 EB)","aadt":3400,"year":2024}},{"type":"Feature","geometry":{"type":"Point","coordinates":[-117.452,47.647]},"properties":{"road":"I-90 Ramp @ S5 RAMP (SR 195 NB TO SR 90 WB)","aadt":3300,"year":2024}},{"type":"Feature","geometry":{"type":"Point","coordinates":[-117.45,47.645]},"properties":{"road":"I-90 Ramp @ P1 RAMP (SR 90 EB TO SR 195 SB)","aadt":3100,"year":2024}},{"type":"Feature","geometry":{"type":"Point","coordinates":[-117.326,47.656]},"properties":{"road":"I-90 Ramp @ R5 RAMP (SR 90 WB TO SPRAGUE AVE)","aadt":3100,"year":2024}}]}