{
  "type": "FeatureCollection",
  "features": [
    {
      "type": "Feature",
      "properties": {
        "year": 2020,
        "fatalities": 1,
        "drunk": false,
        "pedestrian": true,
        "case_number": "270022",
        "date": "2020-02-05",
        "road": "CR-1 W Old Shakopee Rd & Grand Ave",
        "county": "HENNEPIN (53)",
        "light_condition": "Dark - Not Lighted",
        "weather": "Clear"
      },
      "geometry": {
        "type": "Point",
        "coordinates": [
          -93.285028,
          44.826233
        ]
      }
    },
    {
      "type": "Feature",
      "properties": {
        "year": 2020,
        "fatalities": 1,
        "drunk": true,
        "pedestrian": false,
        "case_number": "270028",
        "date": "2020-02-17",
        "road": "i-494",
        "county": "HENNEPIN (53)",
        "light_condition": "Daylight",
        "weather": "Cloudy"
      },
      "geometry": {
        "type": "Point",
        "coordinates": [
          -93.338356,
          44.857853
        ]
      }
    },
    {
      "type": "Feature",
      "properties": {
        "year": 2020,
        "fatalities": 1,
        "drunk": false,
        "pedestrian": false,
        "case_number": "270235",
        "date": "2020-09-11",
        "road": "I-35",
        "county": "HENNEPIN (53)",
        "light_condition": "Daylight",
        "weather": "Clear"
      },
      "geometry": {
        "type": "Point",
        "coordinates": [
          -93.298675,
          44.862544
        ]
      }
    },
    {
      "type": "Feature",
      "properties": {
        "year": 2020,
        "fatalities": 1,
        "drunk": false,
        "pedestrian": true,
        "case_number": "270245",
        "date": "2020-09-15",
        "road": "AMERICAN BLVD W & XERXES AVE S",
        "county": "HENNEPIN (53)",
        "light_condition": "Dark - Lighted",
        "weather": "Cloudy"
      },
      "geometry": {
        "type": "Point",
        "coordinates": [
          -93.318769,
          44.858928
        ]
      }
    },
    {
      "type": "Feature",
      "properties": {
        "year": 2020,
        "fatalities": 1,
        "drunk": false,
        "pedestrian": false,
        "case_number": "270327",
        "date": "2020-11-12",
        "road": "CR-1 W OLD SHAKOPEE RD",
        "county": "HENNEPIN (53)",
        "light_condition": "Dark - Lighted",
        "weather": "Cloudy"
      },
      "geometry": {
        "type": "Point",
        "coordinates": [
          -93.305306,
          44.821211
        ]
      }
    },
    {
      "type": "Feature",
      "properties": {
        "year": 2020,
        "fatalities": 1,
        "drunk": false,
        "pedestrian": true,
        "case_number": "270355",
        "date": "2020-12-13",
        "road": "I-35W",
        "county": "HENNEPIN (53)",
        "light_condition": "Daylight",
        "weather": "Snow"
      },
      "geometry": {
        "type": "Point",
        "coordinates": [
          -93.29825,
          44.840925
        ]
      }
    },
    {
      "type": "Feature",
      "properties": {
        "year": 2020,
        "fatalities": 1,
        "drunk": true,
        "pedestrian": false,
        "case_number": "270365",
        "date": "2020-12-22",
        "road": "SLATER RD",
        "county": "DAKOTA (37)",
        "light_condition": "Dark - Lighted",
        "weather": "Clear"
      },
      "geometry": {
        "type": "Point",
        "coordinates": [
          -93.224831,
          44.796619
        ]
      }
    },
    {
      "type": "Feature",
      "properties": {
        "year": 2021,
        "fatalities": 1,
        "drunk": false,
        "pedestrian": true,
        "case_number": "270133",
        "date": "2021-05-29",
        "road": "US-169",
        "county": "HENNEPIN (53)",
        "light_condition": "Dark - Lighted",
        "weather": "Clear"
      },
      "geometry": {
        "type": "Point",
        "coordinates": [
          -93.398544,
          44.841025
        ]
      }
    },
    {
      "type": "Feature",
      "properties": {
        "year": 2021,
        "fatalities": 1,
        "drunk": false,
        "pedestrian": false,
        "case_number": "270174",
        "date": "2021-06-27",
        "road": "I-494",
        "county": "HENNEPIN (53)",
        "light_condition": "Dark - Lighted",
        "weather": "Cloudy"
      },
      "geometry": {
        "type": "Point",
        "coordinates": [
          -93.298425,
          44.861869
        ]
      }
    },
    {
      "type": "Feature",
      "properties": {
        "year": 2022,
        "fatalities": 1,
        "drunk": false,
        "pedestrian": false,
        "case_number": "270019",
        "date": "2022-02-10",
        "road": "SR-77",
        "county": "DAKOTA (37)",
        "light_condition": "Dark - Lighted",
        "weather": "Cloudy"
      },
      "geometry": {
        "type": "Point",
        "coordinates": [
          -93.224183,
          44.820006
        ]
      }
    },
    {
      "type": "Feature",
      "properties": {
        "year": 2022,
        "fatalities": 1,
        "drunk": false,
        "pedestrian": false,
        "case_number": "270043",
        "date": "2022-02-10",
        "road": "12TH AVE S & E AMERICAN BLVD",
        "county": "HENNEPIN (53)",
        "light_condition": "Dusk",
        "weather": "Snow"
      },
      "geometry": {
        "type": "Point",
        "coordinates": [
          -93.258014,
          44.859875
        ]
      }
    },
    {
      "type": "Feature",
      "properties": {
        "year": 2022,
        "fatalities": 1,
        "drunk": false,
        "pedestrian": true,
        "case_number": "270060",
        "date": "2022-04-02",
        "road": "CR-1",
        "county": "HENNEPIN (53)",
        "light_condition": "Dark - Lighted",
        "weather": "Cloudy"
      },
      "geometry": {
        "type": "Point",
        "coordinates": [
          -93.274636,
          44.826314
        ]
      }
    },
    {
      "type": "Feature",
      "properties": {
        "year": 2022,
        "fatalities": 1,
        "drunk": false,
        "pedestrian": false,
        "case_number": "270073",
        "date": "2022-04-04",
        "road": "78TH ST W",
        "county": "HENNEPIN (53)",
        "light_condition": "Dark - Lighted",
        "weather": "Cloudy"
      },
      "geometry": {
        "type": "Point",
        "coordinates": [
          -93.348106,
          44.859772
        ]
      }
    },
    {
      "type": "Feature",
      "properties": {
        "year": 2022,
        "fatalities": 1,
        "drunk": false,
        "pedestrian": false,
        "case_number": "270076",
        "date": "2022-04-24",
        "road": "SR-77",
        "county": "DAKOTA (37)",
        "light_condition": "Dark - Not Lighted",
        "weather": "Cloudy"
      },
      "geometry": {
        "type": "Point",
        "coordinates": [
          -93.222378,
          44.796142
        ]
      }
    },
    {
      "type": "Feature",
      "properties": {
        "year": 2022,
        "fatalities": 1,
        "drunk": false,
        "pedestrian": false,
        "case_number": "270156",
        "date": "2022-06-29",
        "road": "I-494",
        "county": "HENNEPIN (53)",
        "light_condition": "Daylight",
        "weather": "Clear"
      },
      "geometry": {
        "type": "Point",
        "coordinates": [
          -93.251736,
          44.862175
        ]
      }
    },
    {
      "type": "Feature",
      "properties": {
        "year": 2022,
        "fatalities": 1,
        "drunk": false,
        "pedestrian": false,
        "case_number": "270248",
        "date": "2022-08-16",
        "road": "I-35W",
        "county": "DAKOTA (37)",
        "light_condition": "Dark - Lighted",
        "weather": "Clear"
      },
      "geometry": {
        "type": "Point",
        "coordinates": [
          -93.2886,
          44.786592
        ]
      }
    },
    {
      "type": "Feature",
      "properties": {
        "year": 2022,
        "fatalities": 1,
        "drunk": false,
        "pedestrian": false,
        "case_number": "270250",
        "date": "2022-08-27",
        "road": "CR-1 OLD SHAKOPEE RD & SR-77 RAMP",
        "county": "HENNEPIN (53)",
        "light_condition": "Daylight",
        "weather": "Clear"
      },
      "geometry": {
        "type": "Point",
        "coordinates": [
          -93.245294,
          44.840036
        ]
      }
    },
    {
      "type": "Feature",
      "properties": {
        "year": 2022,
        "fatalities": 1,
        "drunk": true,
        "pedestrian": false,
        "case_number": "270352",
        "date": "2022-11-08",
        "road": "I-494 RAMP",
        "county": "HENNEPIN (53)",
        "light_condition": "Daylight",
        "weather": "Cloudy"
      },
      "geometry": {
        "type": "Point",
        "coordinates": [
          -93.246378,
          44.860458
        ]
      }
    }
  ]
}