{"type":"FeatureCollection","features":[{"type":"Feature","geometry":{"type":"Point","coordinates":[-117.39655,47.66183]},"properties":{"year":2020,"fatalities":1,"drunk":false,"pedestrian":true,"date":"2020-01-06","road":"SR-290 @ E SPOKANE FALLS BLVD"}},{"type":"Feature","geometry":{"type":"Point","coordinates":[-117.39652,47.67707]},"properties":{"year":2020,"fatalities":1,"drunk":true,"pedestrian":false,"date":"2020-03-03","road":"N HAMILTON ST"}},{"type":"Feature","geometry":{"type":"Point","coordinates":[-117.33257,47.65351]},"properties":{"year":2020,"fatalities":1,"drunk":true,"pedestrian":false,"date":"2020-04-28","road":"E 4TH AVE @ S McKinnon Rd"}},{"type":"Feature","geometry":{"type":"Point","coordinates":[-117.37382,47.67812]},"properties":{"year":2020,"fatalities":1,"drunk":true,"pedestrian":false,"date":"2020-05-04","road":"E SOUTH RIVERTON AVE @ N Cook St"}},{"type":"Feature","geometry":{"type":"Point","coordinates":[-117.31507,47.65699]},"properties":{"year":2020,"fatalities":1,"drunk":true,"pedestrian":false,"date":"2020-06-02","road":"E SPRAGUE AVE @ S THIERMAN RD"}},{"type":"Feature","geometry":{"type":"Point","coordinates":[-117.30411,47.65686]},"properties":{"year":2020,"fatalities":1,"drunk":true,"pedestrian":false,"date":"2020-06-06","road":"E SPRAGUE AVE @ N PARK RD"}},{"type":"Feature","geometry":{"type":"Point","coordinates":[-117.32446,47.65615]},"properties":{"year":2020,"fatalities":1,"drunk":true,"pedestrian":false,"date":"2020-07-04","road":"I-90 RAMP"}},{"type":"Feature","geometry":{"type":"Point","coordinates":[-117.37538,47.63109]},"properties":{"year":2020,"fatalities":1,"drunk":false,"pedestrian":true,"date":"2020-07-17","road":"S SOUTHEAST BLVD"}},{"type":"Feature","geometry":{"type":"Point","coordinates":[-117.39036,47.67473]},"properties":{"year":2020,"fatalities":1,"drunk":false,"pedestrian":false,"date":"2020-07-28","road":"N PERRY ST @ E Indiana Ave"}},{"type":"Feature","geometry":{"type":"Point","coordinates":[-117.42668,47.67888]},"properties":{"year":2020,"fatalities":1,"drunk":true,"pedestrian":true,"date":"2020-08-15","road":"N MONROE ST"}},{"type":"Feature","geometry":{"type":"Point","coordinates":[-117.3953,47.68517]},"properties":{"year":2020,"fatalities":1,"drunk":false,"pedestrian":false,"date":"2020-08-19","road":"N NEVADA ST @ E WOLVERTON CT"}},{"type":"Feature","geometry":{"type":"Point","coordinates":[-117.49966,47.71099]},"properties":{"year":2020,"fatalities":1,"drunk":true,"pedestrian":false,"date":"2020-08-28","road":"N AUBREY L WHITE PKWY"}},{"type":"Feature","geometry":{"type":"Point","coordinates":[-117.46441,47.6565]},"properties":{"year":2020,"fatalities":1,"drunk":true,"pedestrian":false,"date":"2020-09-12","road":"S GOVERNMENT WAY @ W Greenwood Rd"}},{"type":"Feature","geometry":{"type":"Point","coordinates":[-117.36505,47.69342]},"properties":{"year":2020,"fatalities":1,"drunk":false,"pedestrian":true,"date":"2020-10-02","road":"N MARKET ST @ E GARLAND AVE"}},{"type":"Feature","geometry":{"type":"Point","coordinates":[-117.3686,47.61728]},"properties":{"year":2020,"fatalities":1,"drunk":true,"pedestrian":false,"date":"2020-10-13","road":"S REGAL ST @ E THURSTON AVE"}},{"type":"Feature","geometry":{"type":"Point","coordinates":[-117.30402,47.67727]},"properties":{"year":2020,"fatalities":1,"drunk":false,"pedestrian":true,"date":"2020-10-06","road":"N PARK RD"}},{"type":"Feature","geometry":{"type":"Point","coordinates":[-117.37068,47.65403]},"properties":{"year":2020,"fatalities":1,"drunk":false,"pedestrian":false,"date":"2020-10-30","road":"I-90"}},{"type":"Feature","geometry":{"type":"Point","coordinates":[-117.44323,47.70076]},"properties":{"year":2020,"fatalities":1,"drunk":false,"pedestrian":true,"date":"2020-11-19","road":"W WELLESLEY AVE @ N BELT ST"}},{"type":"Feature","geometry":{"type":"Point","coordinates":[-117.42106,47.65348]},"properties":{"year":2020,"fatalities":1,"drunk":true,"pedestrian":true,"date":"2020-12-09","road":"S HOWARD ST @ W 3rd Ave"}},{"type":"Feature","geometry":{"type":"Point","coordinates":[-117.42676,47.65349]},"properties":{"year":2020,"fatalities":1,"drunk":true,"pedestrian":false,"date":"2020-08-28","road":"W 3RD AVE"}},{"type":"Feature","geometry":{"type":"Point","coordinates":[-117.44221,47.65184]},"properties":{"year":2020,"fatalities":1,"drunk":false,"pedestrian":true,"date":"2020-11-14","road":"W SUNSET BLVD @ S CANNON ST"}},{"type":"Feature","geometry":{"type":"Point","coordinates":[-117.39786,47.70278]},"properties":{"year":2021,"fatalities":1,"drunk":true,"pedestrian":true,"date":"2021-01-10","road":"N CINCINNATI ST"}},{"type":"Feature","geometry":{"type":"Point","coordinates":[-117.42348,47.62994]},"properties":{"year":2021,"fatalities":1,"drunk":true,"pedestrian":false,"date":"2021-01-13","road":"S POST ST @ W 27th Ave"}},{"type":"Feature","geometry":{"type":"Point","coordinates":[-117.38123,47.66075]},"properties":{"year":2021,"fatalities":1,"drunk":true,"pedestrian":false,"date":"2021-03-16","road":"N NAPA ST"}},{"type":"Feature","geometry":{"type":"Point","coordinates":[-117.46896,47.6654]},"properties":{"year":2021,"fatalities":1,"drunk":true,"pedestrian":false,"date":"2021-03-06","road":"GOVERNMENT WAY"}},{"type":"Feature","geometry":{"type":"Point","coordinates":[-117.46359,47.71958]},"properties":{"year":2021,"fatalities":1,"drunk":true,"pedestrian":false,"date":"2021-05-15","road":"W INDIAN TRAIL RD @ W Beacon Ave"}},{"type":"Feature","geometry":{"type":"Point","coordinates":[-117.35813,47.66793]},"properties":{"year":2021,"fatalities":1,"drunk":true,"pedestrian":false,"date":"2021-05-24","road":"N FREYA ST @ N Freya Way"}},{"type":"Feature","geometry":{"type":"Point","coordinates":[-117.37593,47.66229]},"properties":{"year":2021,"fatalities":1,"drunk":true,"pedestrian":false,"date":"2021-06-22","road":"SR-290"}},{"type":"Feature","geometry":{"type":"Point","coordinates":[-117.46196,47.71805]},"properties":{"year":2021,"fatalities":1,"drunk":true,"pedestrian":false,"date":"2021-08-16","road":"N INDIAN TRAIL RD"}},{"type":"Feature","geometry":{"type":"Point","coordinates":[-117.41339,47.65557]},"properties":{"year":2021,"fatalities":1,"drunk":false,"pedestrian":true,"date":"2021-09-10","road":"US-2 @ S BROWNE ST"}},{"type":"Feature","geometry":{"type":"Point","coordinates":[-117.41743,47.67486]},"properties":{"year":2021,"fatalities":1,"drunk":false,"pedestrian":false,"date":"2021-09-21","road":"N WASHINGTON ST @ W Indiana Ave"}},{"type":"Feature","geometry":{"type":"Point","coordinates":[-117.49582,47.72617]},"properties":{"year":2021,"fatalities":1,"drunk":false,"pedestrian":false,"date":"2021-09-22","road":"SR-291 @ W WIND RIVER RD"}},{"type":"Feature","geometry":{"type":"Point","coordinates":[-117.42717,47.69546]},"properties":{"year":2021,"fatalities":1,"drunk":false,"pedestrian":false,"date":"2021-05-04","road":"W LACROSSE AVE @ N MADISON ST"}},{"type":"Feature","geometry":{"type":"Point","coordinates":[-117.45746,47.65216]},"properties":{"year":2021,"fatalities":1,"drunk":true,"pedestrian":false,"date":"2021-10-03","road":"S GOVERNMENT WAY"}},{"type":"Feature","geometry":{"type":"Point","coordinates":[-117.3648,47.73252]},"properties":{"year":2021,"fatalities":1,"drunk":true,"pedestrian":false,"date":"2021-10-11","road":"MARKET ST"}},{"type":"Feature","geometry":{"type":"Point","coordinates":[-117.36838,47.60587]},"properties":{"year":2021,"fatalities":1,"drunk":false,"pedestrian":true,"date":"2021-03-30","road":"S REGAL ST @ E 53rd Ave"}},{"type":"Feature","geometry":{"type":"Point","coordinates":[-117.41945,47.65795]},"properties":{"year":2021,"fatalities":1,"drunk":false,"pedestrian":true,"date":"2021-05-12","road":"N STEVENS ST @ W Riverside Ave"}},{"type":"Feature","geometry":{"type":"Point","coordinates":[-117.39516,47.68611]},"properties":{"year":2021,"fatalities":1,"drunk":false,"pedestrian":false,"date":"2021-11-12","road":"N NEVADA ST"}},{"type":"Feature","geometry":{"type":"Point","coordinates":[-117.33537,47.67383]},"properties":{"year":2021,"fatalities":1,"drunk":false,"pedestrian":false,"date":"2021-11-29","road":"SR-290"}},{"type":"Feature","geometry":{"type":"Point","coordinates":[-117.39521,47.69232]},"properties":{"year":2021,"fatalities":1,"drunk":true,"pedestrian":false,"date":"2021-12-12","road":"N NEVADA ST @ E Providence Ave"}},{"type":"Feature","geometry":{"type":"Point","coordinates":[-117.39833,47.67473]},"properties":{"year":2021,"fatalities":1,"drunk":false,"pedestrian":true,"date":"2021-12-10","road":"E INDIANA AVE @ N Cincinnati St"}},{"type":"Feature","geometry":{"type":"Point","coordinates":[-117.4544,47.68164]},"properties":{"year":2021,"fatalities":1,"drunk":true,"pedestrian":false,"date":"2021-10-04","road":"W DOWNRIVER PARK DR"}},{"type":"Feature","geometry":{"type":"Point","coordinates":[-117.3966,47.67278]},"properties":{"year":2021,"fatalities":1,"drunk":false,"pedestrian":true,"date":"2021-12-28","road":"N HAMILTON ST @ E Augusta Ave"}},{"type":"Feature","geometry":{"type":"Point","coordinates":[-117.36483,47.71088]},"properties":{"year":2021,"fatalities":1,"drunk":false,"pedestrian":true,"date":"2021-12-23","road":"N MARKET ST"}},{"type":"Feature","geometry":{"type":"Point","coordinates":[-117.42421,47.65448]},"properties":{"year":2021,"fatalities":1,"drunk":false,"pedestrian":true,"date":"2021-06-30","road":"W 2ND AVE"}},{"type":"Feature","geometry":{"type":"Point","coordinates":[-117.39804,47.71501]},"properties":{"year":2021,"fatalities":1,"drunk":true,"pedestrian":true,"date":"2021-02-06","road":"E FRANCIS AVE"}},{"type":"Feature","geometry":{"type":"Point","coordinates":[-117.32689,47.70201]},"properties":{"year":2021,"fatalities":1,"drunk":false,"pedestrian":false,"date":"2021-08-28","road":"E VALLEY SPRINGS RD"}},{"type":"Feature","geometry":{"type":"Point","coordinates":[-117.33925,47.65717]},"properties":{"year":2022,"fatalities":1,"drunk":false,"pedestrian":true,"date":"2022-01-15","road":"E SPRAGUE AVE"}},{"type":"Feature","geometry":{"type":"Point","coordinates":[-117.39359,47.67179]},"properties":{"year":2022,"fatalities":1,"drunk":true,"pedestrian":true,"date":"2022-01-24","road":"E MISSION AVE @ N Superior St"}},{"type":"Feature","geometry":{"type":"Point","coordinates":[-117.37819,47.6686]},"properties":{"year":2022,"fatalities":1,"drunk":false,"pedestrian":false,"date":"2022-02-18","road":"E BOONE AVE @ N Lee St"}},{"type":"Feature","geometry":{"type":"Point","coordinates":[-117.34939,47.65725]},"properties":{"year":2022,"fatalities":1,"drunk":false,"pedestrian":true,"date":"2022-03-01","road":"E SPRAGUE AVE"}},{"type":"Feature","geometry":{"type":"Point","coordinates":[-117.42956,47.65342]},"properties":{"year":2022,"fatalities":1,"drunk":false,"pedestrian":true,"date":"2022-07-15","road":"W 3RD AVE @ S Jefferson St"}},{"type":"Feature","geometry":{"type":"Point","coordinates":[-117.31804,47.6919]},"properties":{"year":2022,"fatalities":1,"drunk":true,"pedestrian":false,"date":"2022-05-07","road":"E UPRIVER DR @ N UPRIVER BEND LN"}},{"type":"Feature","geometry":{"type":"Point","coordinates":[-117.47286,47.68198]},"properties":{"year":2022,"fatalities":1,"drunk":false,"pedestrian":false,"date":"2022-08-04","road":"W DOWNRIVER PARK DR"}},{"type":"Feature","geometry":{"type":"Point","coordinates":[-117.43562,47.67913]},"properties":{"year":2022,"fatalities":1,"drunk":false,"pedestrian":false,"date":"2022-08-08","road":"W NORTHWEST BLVD @ N Maple St"}},{"type":"Feature","geometry":{"type":"Point","coordinates":[-117.47401,47.63678]},"properties":{"year":2022,"fatalities":1,"drunk":false,"pedestrian":false,"date":"2022-08-13","road":"I-90"}},{"type":"Feature","geometry":{"type":"Point","coordinates":[-117.39533,47.72545]},"properties":{"year":2022,"fatalities":1,"drunk":false,"pedestrian":true,"date":"2022-08-02","road":"N NEVADA ST @ E Sharpsburg Ave"}},{"type":"Feature","geometry":{"type":"Point","coordinates":[-117.4111,47.69728]},"properties":{"year":2022,"fatalities":1,"drunk":false,"pedestrian":false,"date":"2022-08-13","road":"US-2"}},{"type":"Feature","geometry":{"type":"Point","coordinates":[-117.35445,47.65727]},"properties":{"year":2022,"fatalities":1,"drunk":true,"pedestrian":true,"date":"2022-09-02","road":"E SPRAGUE AVE"}},{"type":"Feature","geometry":{"type":"Point","coordinates":[-117.47317,47.64028]},"properties":{"year":2022,"fatalities":1,"drunk":false,"pedestrian":false,"date":"2022-05-20","road":"W SUNSET BLVD @ S Rustle St"}},{"type":"Feature","geometry":{"type":"Point","coordinates":[-117.3689,47.68619]},"properties":{"year":2022,"fatalities":1,"drunk":true,"pedestrian":false,"date":"2022-09-21","road":"E EUCLID AVE"}},{"type":"Feature","geometry":{"type":"Point","coordinates":[-117.4351,47.6935]},"properties":{"year":2022,"fatalities":1,"drunk":false,"pedestrian":false,"date":"2022-10-06","road":"N MAPLE ST @ W Garland Ave"}},{"type":"Feature","geometry":{"type":"Point","coordinates":[-117.46506,47.6577]},"properties":{"year":2022,"fatalities":1,"drunk":true,"pedestrian":false,"date":"2022-11-22","road":"S GOVERNMENT WAY"}},{"type":"Feature","geometry":{"type":"Point","coordinates":[-117.43643,47.70629]},"properties":{"year":2022,"fatalities":1,"drunk":false,"pedestrian":true,"date":"2022-07-05","road":"W EVERETT AVE @ N ASH ST"}}]}