{"type": "FeatureCollection", "features": [{"type": "Feature", "geometry": {"type": "Point", "coordinates": [-70.999, 42.245]}, "properties": {"year": 2015, "fatalities": 2, "drunk": false, "pedestrian": false, "date": "2015-02-06", "road": "QUINCY AVE"}}, {"type": "Feature", "geometry": {"type": "Point", "coordinates": [-70.925, 42.248]}, "properties": {"year": 2015, "fatalities": 1, "drunk": false, "pedestrian": false, "date": "2015-05-24", "road": "LINCOLN STREET"}}, {"type": "Feature", "geometry": {"type": "Point", "coordinates": [-70.933, 42.161]}, "properties": {"year": 2015, "fatalities": 1, "drunk": false, "pedestrian": false, "date": "2015-06-04", "road": "UNION ST / PRESCOTT ST"}}, {"type": "Feature", "geometry": {"type": "Point", "coordinates": [-70.97, 42.228]}, "properties": {"year": 2015, "fatalities": 1, "drunk": false, "pedestrian": false, "date": "2015-06-07", "road": "QUINCY AVE"}}, {"type": "Feature", "geometry": {"type": "Point", "coordinates": [-70.943, 42.208]}, "properties": {"year": 2015, "fatalities": 1, "drunk": false, "pedestrian": false, "date": "2015-10-10", "road": "MIDDLE ST"}}, {"type": "Feature", "geometry": {"type": "Point", "coordinates": [-70.994, 42.242]}, "properties": {"year": 2016, "fatalities": 1, "drunk": false, "pedestrian": false, "date": "2016-03-04", "road": "QUINCY AVENUE"}}, {"type": "Feature", "geometry": {"type": "Point", "coordinates": [-71.0, 42.206]}, "properties": {"year": 2016, "fatalities": 1, "drunk": false, "pedestrian": false, "date": "2016-03-10", "road": "IVORY STREET"}}, {"type": "Feature", "geometry": {"type": "Point", "coordinates": [-70.931, 42.158]}, "properties": {"year": 2016, "fatalities": 1, "drunk": false, "pedestrian": false, "date": "2016-04-09", "road": "UNION ST"}}, {"type": "Feature", "geometry": {"type": "Point", "coordinates": [-70.97, 42.221]}, "properties": {"year": 2016, "fatalities": 1, "drunk": false, "pedestrian": false, "date": "2016-12-15", "road": "COMMERCIAL STREET"}}, {"type": "Feature", "geometry": {"type": "Point", "coordinates": [-70.905, 42.171]}, "properties": {"year": 2017, "fatalities": 1, "drunk": false, "pedestrian": false, "date": "2017-05-24", "road": "RTE 3 N"}}, {"type": "Feature", "geometry": {"type": "Point", "coordinates": [-70.999, 42.197]}, "properties": {"year": 2017, "fatalities": 1, "drunk": false, "pedestrian": false, "date": "2017-07-30", "road": "PLAIN STREET"}}, {"type": "Feature", "geometry": {"type": "Point", "coordinates": [-70.937, 42.154]}, "properties": {"year": 2017, "fatalities": 1, "drunk": false, "pedestrian": false, "date": "2017-08-10", "road": "BILL DELAHUNT PKWY"}}, {"type": "Feature", "geometry": {"type": "Point", "coordinates": [-70.956, 42.191]}, "properties": {"year": 2017, "fatalities": 1, "drunk": false, "pedestrian": false, "date": "2017-09-29", "road": "MAIN STREET"}}, {"type": "Feature", "geometry": {"type": "Point", "coordinates": [-70.978, 42.157]}, "properties": {"year": 2017, "fatalities": 1, "drunk": false, "pedestrian": false, "date": "2017-10-07", "road": "FARGO RD"}}, {"type": "Feature", "geometry": {"type": "Point", "coordinates": [-70.964, 42.197]}, "properties": {"year": 2017, "fatalities": 1, "drunk": false, "pedestrian": false, "date": "2017-10-15", "road": "PILGRIM HWY RTE 3 S"}}, {"type": "Feature", "geometry": {"type": "Point", "coordinates": [-70.952, 42.194]}, "properties": {"year": 2017, "fatalities": 1, "drunk": false, "pedestrian": false, "date": "2017-11-19", "road": "PILGRIM HWY RTE 3 N"}}, {"type": "Feature", "geometry": {"type": "Point", "coordinates": [-70.936, 42.246]}, "properties": {"year": 2019, "fatalities": 1, "drunk": false, "pedestrian": true, "date": "2019-02-18", "road": "BRIDGE ST RTE 3A N"}}, {"type": "Feature", "geometry": {"type": "Point", "coordinates": [-70.969, 42.18]}, "properties": {"year": 2019, "fatalities": 1, "drunk": false, "pedestrian": false, "date": "2019-06-13", "road": "COLUMBIAN STREET"}}, {"type": "Feature", "geometry": {"type": "Point", "coordinates": [-70.95, 42.193]}, "properties": {"year": 2019, "fatalities": 1, "drunk": false, "pedestrian": true, "date": "2019-07-09", "road": "MIDDLE STREET"}}, {"type": "Feature", "geometry": {"type": "Point", "coordinates": [-70.948, 42.234]}, "properties": {"year": 2019, "fatalities": 1, "drunk": false, "pedestrian": false, "date": "2019-08-04", "road": "COLONIAL ROAD"}}]}