{"type": "FeatureCollection", "features": [{"type": "Feature", "geometry": {"type": "Point", "coordinates": [-74.068406, 40.8017]}, "properties": {"year": 2022, "fatalities": 1, "drunk": false, "pedestrian": false, "date": "2022-01-01", "road": "NJ 3", "city": "EAST RUTHERFORD", "county": "BERGEN", "light_condition": "Dark - Lighted"}}, {"type": "Feature", "geometry": {"type": "Point", "coordinates": [-74.075536, 40.806761]}, "properties": {"year": 2022, "fatalities": 1, "drunk": false, "pedestrian": false, "date": "2022-01-01", "road": "NJ 3", "city": "EAST RUTHERFORD", "county": "BERGEN", "light_condition": "Dark - Lighted"}}, {"type": "Feature", "geometry": {"type": "Point", "coordinates": [-74.073228, 40.799931]}, "properties": {"year": 2022, "fatalities": 1, "drunk": false, "pedestrian": false, "date": "2022-01-01", "road": "NJ 3", "city": "EAST RUTHERFORD", "county": "BERGEN", "light_condition": "Dark - Lighted"}}, {"type": "Feature", "geometry": {"type": "Point", "coordinates": [-74.096783, 40.746961]}, "properties": {"year": 2022, "fatalities": 1, "drunk": false, "pedestrian": false, "date": "2022-01-01", "road": "NJ 7", "city": "KEARNY", "county": "HUDSON", "light_condition": "Dark - Lighted"}}, {"type": "Feature", "geometry": {"type": "Point", "coordinates": [-74.022581, 40.799922]}, "properties": {"year": 2022, "fatalities": 1, "drunk": false, "pedestrian": false, "date": "2022-01-01", "road": "NORTH BERGEN area", "city": "NORTH BERGEN", "county": "HUDSON", "light_condition": "Dark - Lighted"}}, {"type": "Feature", "geometry": {"type": "Point", "coordinates": [-74.035986, 40.781881]}, "properties": {"year": 2022, "fatalities": 1, "drunk": false, "pedestrian": false, "date": "2022-01-01", "road": "JFK Blvd/Bergenline", "city": "NORTH BERGEN", "county": "HUDSON", "light_condition": "Daylight"}}, {"type": "Feature", "geometry": {"type": "Point", "coordinates": [-74.049108, 40.762872]}, "properties": {"year": 2022, "fatalities": 1, "drunk": false, "pedestrian": false, "date": "2022-01-01", "road": "NJ 495", "city": "NORTH BERGEN", "county": "HUDSON", "light_condition": "Dark - Lighted"}}, {"type": "Feature", "geometry": {"type": "Point", "coordinates": [-74.072831, 40.807653]}, "properties": {"year": 2021, "fatalities": 1, "drunk": false, "pedestrian": false, "date": "2021-01-01", "road": "NJ 3", "city": "EAST RUTHERFORD", "county": "BERGEN", "light_condition": "Daylight"}}, {"type": "Feature", "geometry": {"type": "Point", "coordinates": [-74.046161, 40.742792]}, "properties": {"year": 2021, "fatalities": 1, "drunk": false, "pedestrian": false, "date": "2021-01-01", "road": "US 1/9", "city": "JERSEY CITY", "county": "HUDSON", "light_condition": "Daylight"}}, {"type": "Feature", "geometry": {"type": "Point", "coordinates": [-74.047106, 40.755514]}, "properties": {"year": 2021, "fatalities": 1, "drunk": false, "pedestrian": false, "date": "2021-01-01", "road": "US 1/9", "city": "JERSEY CITY", "county": "HUDSON", "light_condition": "Daylight"}}, {"type": "Feature", "geometry": {"type": "Point", "coordinates": [-74.038242, 40.779353]}, "properties": {"year": 2021, "fatalities": 2, "drunk": false, "pedestrian": false, "date": "2021-01-01", "road": "JFK Blvd/Bergenline", "city": "NORTH BERGEN", "county": "HUDSON", "light_condition": "Dark - Lighted"}}, {"type": "Feature", "geometry": {"type": "Point", "coordinates": [-74.045258, 40.768381]}, "properties": {"year": 2021, "fatalities": 1, "drunk": false, "pedestrian": false, "date": "2021-01-01", "road": "NJ 495", "city": "NORTH BERGEN", "county": "HUDSON", "light_condition": "Dark - Unknown Lighting"}}, {"type": "Feature", "geometry": {"type": "Point", "coordinates": [-74.039856, 40.776728]}, "properties": {"year": 2021, "fatalities": 1, "drunk": false, "pedestrian": false, "date": "2021-01-01", "road": "JFK Blvd/Bergenline", "city": "NORTH BERGEN", "county": "HUDSON", "light_condition": "Dark - Lighted"}}, {"type": "Feature", "geometry": {"type": "Point", "coordinates": [-74.083567, 40.810164]}, "properties": {"year": 2020, "fatalities": 1, "drunk": false, "pedestrian": false, "date": "2020-01-01", "road": "NJ 3", "city": "EAST RUTHERFORD", "county": "BERGEN", "light_condition": "Dark - Lighted"}}, {"type": "Feature", "geometry": {"type": "Point", "coordinates": [-74.040747, 40.746625]}, "properties": {"year": 2020, "fatalities": 1, "drunk": false, "pedestrian": false, "date": "2020-01-01", "road": "US 1/9", "city": "JERSEY CITY", "county": "HUDSON", "light_condition": "Dark - Lighted"}}, {"type": "Feature", "geometry": {"type": "Point", "coordinates": [-74.054442, 40.750392]}, "properties": {"year": 2020, "fatalities": 1, "drunk": false, "pedestrian": false, "date": "2020-01-01", "road": "US 1/9", "city": "JERSEY CITY", "county": "HUDSON", "light_condition": "Dark - Lighted"}}, {"type": "Feature", "geometry": {"type": "Point", "coordinates": [-74.055289, 40.755564]}, "properties": {"year": 2020, "fatalities": 1, "drunk": false, "pedestrian": false, "date": "2020-01-01", "road": "NJ 495", "city": "JERSEY CITY", "county": "HUDSON", "light_condition": "Dark - Lighted"}}, {"type": "Feature", "geometry": {"type": "Point", "coordinates": [-74.049531, 40.759219]}, "properties": {"year": 2020, "fatalities": 1, "drunk": false, "pedestrian": false, "date": "2020-01-01", "road": "US 1/9", "city": "NORTH BERGEN", "county": "HUDSON", "light_condition": "Daylight"}}, {"type": "Feature", "geometry": {"type": "Point", "coordinates": [-74.045786, 40.779386]}, "properties": {"year": 2020, "fatalities": 1, "drunk": false, "pedestrian": false, "date": "2020-01-01", "road": "NJ 495", "city": "NORTH BERGEN", "county": "HUDSON", "light_condition": "Daylight"}}, {"type": "Feature", "geometry": {"type": "Point", "coordinates": [-74.066039, 40.799997]}, "properties": {"year": 2020, "fatalities": 1, "drunk": false, "pedestrian": false, "date": "2020-01-01", "road": "NJ 3", "city": "SECAUCUS", "county": "HUDSON", "light_condition": "Dark - Lighted"}}, {"type": "Feature", "geometry": {"type": "Point", "coordinates": [-74.047189, 40.781881]}, "properties": {"year": 2020, "fatalities": 1, "drunk": false, "pedestrian": false, "date": "2020-01-01", "road": "NJ 495", "city": "SECAUCUS", "county": "HUDSON", "light_condition": "Daylight"}}, {"type": "Feature", "geometry": {"type": "Point", "coordinates": [-74.035503, 40.802106]}, "properties": {"year": 2020, "fatalities": 1, "drunk": false, "pedestrian": false, "date": "2020-01-01", "road": "JFK Blvd/Bergenline", "city": "SECAUCUS", "county": "HUDSON", "light_condition": "Dark - Not Lighted"}}, {"type": "Feature", "geometry": {"type": "Point", "coordinates": [-74.084894, 40.758175]}, "properties": {"year": 2020, "fatalities": 1, "drunk": false, "pedestrian": false, "date": "2020-01-01", "road": "SECAUCUS area", "city": "SECAUCUS", "county": "HUDSON", "light_condition": "Dark - Lighted"}}, {"type": "Feature", "geometry": {"type": "Point", "coordinates": [-74.0217, 40.781617]}, "properties": {"year": 2020, "fatalities": 1, "drunk": false, "pedestrian": false, "date": "2020-01-01", "road": "UNION CITY area", "city": "UNION CITY", "county": "HUDSON", "light_condition": "Dark - Lighted"}}]}