{
  "type": "FeatureCollection",
  "metadata": {
    "source": "TxDOT CRIS (Crash Records Information System) via ArcGIS",
    "url": "https://services.arcgis.com/KTcxiTD9dsQw4r7Z/ArcGIS/rest/services/TXDOT_Statewide_Bicyclist_Involved_Crashes/FeatureServer/0",
    "description": "Fatal crashes in Arlington, TX area \u2014 200 fatalities in 190 crashes",
    "bounds": {
      "north": 32.8,
      "south": 32.63,
      "west": -97.2,
      "east": -97.05
    },
    "extracted": "2026-07-06",
    "note": "From TxDOT statewide crash database; filtered to death_cnt >= 1"
  },
  "features": [
    {
      "type": "Feature",
      "geometry": {
        "type": "Point",
        "coordinates": [
          -97.110021,
          32.73916
        ]
      },
      "properties": {
        "year": 2024,
        "fatalities": 1,
        "pedestrian": false,
        "case_number": "19966059",
        "date": "2024-01-02",
        "road": "DIVISION",
        "county": "Tarrant (439)",
        "severity": "Incapacitating",
        "injuries": 0
      }
    },
    {
      "type": "Feature",
      "geometry": {
        "type": "Point",
        "coordinates": [
          -97.134122,
          32.66593
        ]
      },
      "properties": {
        "year": 2023,
        "fatalities": 1,
        "pedestrian": false,
        "case_number": "19416444",
        "date": "2023-02-25",
        "road": "COOPER",
        "county": "Tarrant (439)",
        "severity": "Incapacitating",
        "injuries": 2
      }
    },
    {
      "type": "Feature",
      "geometry": {
        "type": "Point",
        "coordinates": [
          -97.089416,
          32.7505
        ]
      },
      "properties": {
        "year": 2021,
        "fatalities": 1,
        "pedestrian": false,
        "case_number": "18463058",
        "date": "2021-09-07",
        "road": "ATT",
        "county": "Tarrant (439)",
        "severity": "Incapacitating",
        "injuries": 3
      }
    },
    {
      "type": "Feature",
      "geometry": {
        "type": "Point",
        "coordinates": [
          -97.050828,
          32.67237
        ]
      },
      "properties": {
        "year": 2024,
        "fatalities": 1,
        "pedestrian": false,
        "case_number": "20236163",
        "date": "2024-06-08",
        "road": "BARDIN",
        "county": "Tarrant (439)",
        "severity": "Incapacitating",
        "injuries": 0
      }
    },
    {
      "type": "Feature",
      "geometry": {
        "type": "Point",
        "coordinates": [
          -97.093443,
          32.759729
        ]
      },
      "properties": {
        "year": 2021,
        "fatalities": 1,
        "pedestrian": false,
        "case_number": "18267989",
        "date": "2021-05-17",
        "road": "TOM LANDRY",
        "county": "Tarrant (439)",
        "severity": "Incapacitating",
        "injuries": 0
      }
    },
    {
      "type": "Feature",
      "geometry": {
        "type": "Point",
        "coordinates": [
          -97.197274,
          32.759657
        ]
      },
      "properties": {
        "year": 2023,
        "fatalities": 2,
        "pedestrian": false,
        "case_number": "19814325",
        "date": "2023-09-18",
        "road": "IH 30",
        "county": "Tarrant (439)",
        "severity": "Incapacitating",
        "injuries": 0
      }
    },
    {
      "type": "Feature",
      "geometry": {
        "type": "Point",
        "coordinates": [
          -97.094226,
          32.677738
        ]
      },
      "properties": {
        "year": 2023,
        "fatalities": 1,
        "pedestrian": false,
        "case_number": "19328928",
        "date": "2023-01-08",
        "road": "NOT REPORTED",
        "county": "Tarrant (439)",
        "severity": "Incapacitating",
        "injuries": 1
      }
    },
    {
      "type": "Feature",
      "geometry": {
        "type": "Point",
        "coordinates": [
          -97.10931,
          32.74043
        ]
      },
      "properties": {
        "year": 2022,
        "fatalities": 1,
        "pedestrian": false,
        "case_number": "19306482",
        "date": "2022-12-21",
        "road": "OAK",
        "county": "Tarrant (439)",
        "severity": "Incapacitating",
        "injuries": 1
      }
    },
    {
      "type": "Feature",
      "geometry": {
        "type": "Point",
        "coordinates": [
          -97.108315,
          32.65822
        ]
      },
      "properties": {
        "year": 2024,
        "fatalities": 1,
        "pedestrian": false,
        "case_number": "20012600",
        "date": "2024-01-31",
        "road": "GREEN OAKS",
        "county": "Tarrant (439)",
        "severity": "Incapacitating",
        "injuries": 0
      }
    },
    {
      "type": "Feature",
      "geometry": {
        "type": "Point",
        "coordinates": [
          -97.11488,
          32.67035
        ]
      },
      "properties": {
        "year": 2023,
        "fatalities": 1,
        "pedestrian": false,
        "case_number": "19866960",
        "date": "2023-11-11",
        "road": "MATLOCK",
        "county": "Tarrant (439)",
        "severity": "Incapacitating",
        "injuries": 0
      }
    },
    {
      "type": "Feature",
      "geometry": {
        "type": "Point",
        "coordinates": [
          -97.103532,
          32.682012
        ]
      },
      "properties": {
        "year": 2023,
        "fatalities": 1,
        "pedestrian": false,
        "case_number": "19625871",
        "date": "2023-06-26",
        "road": "DR MARTIN LUTHER KING JR",
        "county": "Tarrant (439)",
        "severity": "Incapacitating",
        "injuries": 0
      }
    },
    {
      "type": "Feature",
      "geometry": {
        "type": "Point",
        "coordinates": [
          -97.096714,
          32.779385
        ]
      },
      "properties": {
        "year": 2024,
        "fatalities": 1,
        "pedestrian": false,
        "case_number": "20513913",
        "date": "2024-11-16",
        "road": "COLLINS",
        "county": "Tarrant (439)",
        "severity": "Incapacitating",
        "injuries": 0
      }
    },
    {
      "type": "Feature",
      "geometry": {
        "type": "Point",
        "coordinates": [
          -97.106775,
          32.728321
        ]
      },
      "properties": {
        "year": 2024,
        "fatalities": 1,
        "pedestrian": false,
        "case_number": "20013573",
        "date": "2024-02-01",
        "road": "MITCHELL",
        "county": "Tarrant (439)",
        "severity": "Incapacitating",
        "injuries": 0
      }
    },
    {
      "type": "Feature",
      "geometry": {
        "type": "Point",
        "coordinates": [
          -97.097469,
          32.721539
        ]
      },
      "properties": {
        "year": 2024,
        "fatalities": 1,
        "pedestrian": false,
        "case_number": "20086888",
        "date": "2024-03-15",
        "road": "COLLINS",
        "county": "Tarrant (439)",
        "severity": "Incapacitating",
        "injuries": 0
      }
    },
    {
      "type": "Feature",
      "geometry": {
        "type": "Point",
        "coordinates": [
          -97.134906,
          32.675455
        ]
      },
      "properties": {
        "year": 2020,
        "fatalities": 1,
        "pedestrian": false,
        "case_number": "17815417",
        "date": "2020-08-13",
        "road": "NOT REPORTED",
        "county": "Tarrant (439)",
        "severity": "Incapacitating",
        "injuries": 3
      }
    },
    {
      "type": "Feature",
      "geometry": {
        "type": "Point",
        "coordinates": [
          -97.062379,
          32.688068
        ]
      },
      "properties": {
        "year": 2023,
        "fatalities": 1,
        "pedestrian": false,
        "case_number": "19906492",
        "date": "2023-11-22",
        "road": "NOT REPORTED",
        "county": "Tarrant (439)",
        "severity": "Incapacitating",
        "injuries": 0
      }
    },
    {
      "type": "Feature",
      "geometry": {
        "type": "Point",
        "coordinates": [
          -97.197408,
          32.759767
        ]
      },
      "properties": {
        "year": 2022,
        "fatalities": 1,
        "pedestrian": false,
        "case_number": "18972778",
        "date": "2022-05-22",
        "road": "NOT REPORTED",
        "county": "Tarrant (439)",
        "severity": "Incapacitating",
        "injuries": 0
      }
    },
    {
      "type": "Feature",
      "geometry": {
        "type": "Point",
        "coordinates": [
          -97.079153,
          32.70607
        ]
      },
      "properties": {
        "year": 2020,
        "fatalities": 1,
        "pedestrian": false,
        "case_number": "17561116",
        "date": "2020-02-03",
        "road": "ARKANSAS",
        "county": "Tarrant (439)",
        "severity": "Incapacitating",
        "injuries": 0
      }
    },
    {
      "type": "Feature",
      "geometry": {
        "type": "Point",
        "coordinates": [
          -97.169208,
          32.706835
        ]
      },
      "properties": {
        "year": 2021,
        "fatalities": 1,
        "pedestrian": false,
        "case_number": "18118861",
        "date": "2021-02-12",
        "road": "ARKANSAS",
        "county": "Tarrant (439)",
        "severity": "Incapacitating",
        "injuries": 1
      }
    },
    {
      "type": "Feature",
      "geometry": {
        "type": "Point",
        "coordinates": [
          -97.062469,
          32.736897
        ]
      },
      "properties": {
        "year": 2020,
        "fatalities": 1,
        "pedestrian": false,
        "case_number": "18043313",
        "date": "2020-12-27",
        "road": "NOT REPORTED",
        "county": "Tarrant (439)",
        "severity": "Incapacitating",
        "injuries": 3
      }
    },
    {
      "type": "Feature",
      "geometry": {
        "type": "Point",
        "coordinates": [
          -97.15022,
          32.75757
        ]
      },
      "properties": {
        "year": 2022,
        "fatalities": 1,
        "pedestrian": false,
        "case_number": "18973611",
        "date": "2022-06-18",
        "road": "GREEN OAKS",
        "county": "Tarrant (439)",
        "severity": "Incapacitating",
        "injuries": 0
      }
    },
    {
      "type": "Feature",
      "geometry": {
        "type": "Point",
        "coordinates": [
          -97.123489,
          32.677321
        ]
      },
      "properties": {
        "year": 2021,
        "fatalities": 1,
        "pedestrian": false,
        "case_number": "18547627",
        "date": "2021-10-24",
        "road": "NOT REPORTED",
        "county": "Tarrant (439)",
        "severity": "Incapacitating",
        "injuries": 0
      }
    },
    {
      "type": "Feature",
      "geometry": {
        "type": "Point",
        "coordinates": [
          -97.06247,
          32.735364
        ]
      },
      "properties": {
        "year": 2021,
        "fatalities": 1,
        "pedestrian": false,
        "case_number": "18101735",
        "date": "2021-02-09",
        "road": "NOT REPORTED",
        "county": "Tarrant (439)",
        "severity": "Incapacitating",
        "injuries": 0
      }
    },
    {
      "type": "Feature",
      "geometry": {
        "type": "Point",
        "coordinates": [
          -97.092898,
          32.735483
        ]
      },
      "properties": {
        "year": 2021,
        "fatalities": 1,
        "pedestrian": false,
        "case_number": "18089073",
        "date": "2021-01-30",
        "road": "ABRAM",
        "county": "Tarrant (439)",
        "severity": "Incapacitating",
        "injuries": 0
      }
    },
    {
      "type": "Feature",
      "geometry": {
        "type": "Point",
        "coordinates": [
          -97.13644,
          32.75983
        ]
      },
      "properties": {
        "year": 2023,
        "fatalities": 1,
        "pedestrian": false,
        "case_number": "19319841",
        "date": "2023-01-01",
        "road": "NOT REPORTED",
        "county": "Tarrant (439)",
        "severity": "Incapacitating",
        "injuries": 1
      }
    },
    {
      "type": "Feature",
      "geometry": {
        "type": "Point",
        "coordinates": [
          -97.101047,
          32.677823
        ]
      },
      "properties": {
        "year": 2020,
        "fatalities": 1,
        "pedestrian": false,
        "case_number": "17698806",
        "date": "2020-05-23",
        "road": "NOT REPORTED",
        "county": "Tarrant (439)",
        "severity": "Incapacitating",
        "injuries": 0
      }
    },
    {
      "type": "Feature",
      "geometry": {
        "type": "Point",
        "coordinates": [
          -97.059538,
          32.677292
        ]
      },
      "properties": {
        "year": 2021,
        "fatalities": 1,
        "pedestrian": false,
        "case_number": "18522951",
        "date": "2021-09-27",
        "road": "NOT REPORTED",
        "county": "Tarrant (439)",
        "severity": "Incapacitating",
        "injuries": 0
      }
    },
    {
      "type": "Feature",
      "geometry": {
        "type": "Point",
        "coordinates": [
          -97.193804,
          32.675062
        ]
      },
      "properties": {
        "year": 2023,
        "fatalities": 1,
        "pedestrian": false,
        "case_number": "19367492",
        "date": "2023-01-30",
        "road": "RONALD REAGAN MEMORIAL",
        "county": "Tarrant (439)",
        "severity": "Incapacitating",
        "injuries": 0
      }
    },
    {
      "type": "Feature",
      "geometry": {
        "type": "Point",
        "coordinates": [
          -97.06429,
          32.635629
        ]
      },
      "properties": {
        "year": 2024,
        "fatalities": 1,
        "pedestrian": false,
        "case_number": "20357605",
        "date": "2024-08-23",
        "road": "WATSON",
        "county": "Tarrant (439)",
        "severity": "Incapacitating",
        "injuries": 1
      }
    },
    {
      "type": "Feature",
      "geometry": {
        "type": "Point",
        "coordinates": [
          -97.07713,
          32.65689
        ]
      },
      "properties": {
        "year": 2024,
        "fatalities": 1,
        "pedestrian": false,
        "case_number": "20413302",
        "date": "2024-09-19",
        "road": "NEW YORK",
        "county": "Tarrant (439)",
        "severity": "Incapacitating",
        "injuries": 0
      }
    },
    {
      "type": "Feature",
      "geometry": {
        "type": "Point",
        "coordinates": [
          -97.190479,
          32.675767
        ]
      },
      "properties": {
        "year": 2022,
        "fatalities": 1,
        "pedestrian": false,
        "case_number": "18716603",
        "date": "2022-01-24",
        "road": "NOT REPORTED",
        "county": "Tarrant (439)",
        "severity": "Incapacitating",
        "injuries": 0
      }
    },
    {
      "type": "Feature",
      "geometry": {
        "type": "Point",
        "coordinates": [
          -97.053325,
          32.798456
        ]
      },
      "properties": {
        "year": 2022,
        "fatalities": 1,
        "pedestrian": false,
        "case_number": "19137761",
        "date": "2022-09-10",
        "road": "REGENCY",
        "county": "Tarrant (439)",
        "severity": "Incapacitating",
        "injuries": 1
      }
    },
    {
      "type": "Feature",
      "geometry": {
        "type": "Point",
        "coordinates": [
          -97.060865,
          32.677306
        ]
      },
      "properties": {
        "year": 2020,
        "fatalities": 1,
        "pedestrian": false,
        "case_number": "17640636",
        "date": "2020-03-22",
        "road": "NOT REPORTED",
        "county": "Tarrant (439)",
        "severity": "Incapacitating",
        "injuries": 0
      }
    },
    {
      "type": "Feature",
      "geometry": {
        "type": "Point",
        "coordinates": [
          -97.13016,
          32.73582
        ]
      },
      "properties": {
        "year": 2021,
        "fatalities": 1,
        "pedestrian": false,
        "case_number": "18630695",
        "date": "2021-12-02",
        "road": "ABRAM",
        "county": "Tarrant (439)",
        "severity": "Incapacitating",
        "injuries": 0
      }
    },
    {
      "type": "Feature",
      "geometry": {
        "type": "Point",
        "coordinates": [
          -97.062459,
          32.735608
        ]
      },
      "properties": {
        "year": 2021,
        "fatalities": 1,
        "pedestrian": false,
        "case_number": "18595235",
        "date": "2021-11-07",
        "road": "NOT REPORTED",
        "county": "Tarrant (439)",
        "severity": "Incapacitating",
        "injuries": 0
      }
    },
    {
      "type": "Feature",
      "geometry": {
        "type": "Point",
        "coordinates": [
          -97.09502,
          32.68446
        ]
      },
      "properties": {
        "year": 2022,
        "fatalities": 1,
        "pedestrian": false,
        "case_number": "18994515",
        "date": "2022-06-26",
        "road": "ARBROOK",
        "county": "Tarrant (439)",
        "severity": "Incapacitating",
        "injuries": 1
      }
    },
    {
      "type": "Feature",
      "geometry": {
        "type": "Point",
        "coordinates": [
          -97.104029,
          32.67786
        ]
      },
      "properties": {
        "year": 2023,
        "fatalities": 2,
        "pedestrian": false,
        "case_number": "19382340",
        "date": "2023-02-04",
        "road": "CENTER",
        "county": "Tarrant (439)",
        "severity": "Incapacitating",
        "injuries": 0
      }
    },
    {
      "type": "Feature",
      "geometry": {
        "type": "Point",
        "coordinates": [
          -97.106188,
          32.72111
        ]
      },
      "properties": {
        "year": 2020,
        "fatalities": 1,
        "pedestrian": false,
        "case_number": "17831441",
        "date": "2020-08-20",
        "road": "PARK ROW",
        "county": "Tarrant (439)",
        "severity": "Incapacitating",
        "injuries": 0
      }
    },
    {
      "type": "Feature",
      "geometry": {
        "type": "Point",
        "coordinates": [
          -97.10443,
          32.75256
        ]
      },
      "properties": {
        "year": 2022,
        "fatalities": 1,
        "pedestrian": false,
        "case_number": "18901272",
        "date": "2022-05-05",
        "road": "CENTER",
        "county": "Tarrant (439)",
        "severity": "Incapacitating",
        "injuries": 1
      }
    },
    {
      "type": "Feature",
      "geometry": {
        "type": "Point",
        "coordinates": [
          -97.171876,
          32.7515
        ]
      },
      "properties": {
        "year": 2023,
        "fatalities": 1,
        "pedestrian": false,
        "case_number": "19794972",
        "date": "2023-09-14",
        "road": "EASTCHASE",
        "county": "Tarrant (439)",
        "severity": "Incapacitating",
        "injuries": 0
      }
    },
    {
      "type": "Feature",
      "geometry": {
        "type": "Point",
        "coordinates": [
          -97.062746,
          32.685816
        ]
      },
      "properties": {
        "year": 2023,
        "fatalities": 1,
        "pedestrian": false,
        "case_number": "19729154",
        "date": "2023-08-27",
        "road": "ANGUS G WYNNE JR",
        "county": "Tarrant (439)",
        "severity": "Incapacitating",
        "injuries": 0
      }
    },
    {
      "type": "Feature",
      "geometry": {
        "type": "Point",
        "coordinates": [
          -97.102417,
          32.629203
        ]
      },
      "properties": {
        "year": 2021,
        "fatalities": 1,
        "pedestrian": false,
        "case_number": "18567650",
        "date": "2021-10-29",
        "road": "SILO",
        "county": "Tarrant (439)",
        "severity": "Incapacitating",
        "injuries": 0
      }
    },
    {
      "type": "Feature",
      "geometry": {
        "type": "Point",
        "coordinates": [
          -97.149393,
          32.64868
        ]
      },
      "properties": {
        "year": 2024,
        "fatalities": 1,
        "pedestrian": false,
        "case_number": "20024643",
        "date": "2024-02-13",
        "road": "SUBLETT",
        "county": "Tarrant (439)",
        "severity": "Incapacitating",
        "injuries": 0
      }
    },
    {
      "type": "Feature",
      "geometry": {
        "type": "Point",
        "coordinates": [
          -97.15008,
          32.75746
        ]
      },
      "properties": {
        "year": 2020,
        "fatalities": 1,
        "pedestrian": false,
        "case_number": "17663948",
        "date": "2020-04-15",
        "road": "GREEN OAKS",
        "county": "Tarrant (439)",
        "severity": "Incapacitating",
        "injuries": 0
      }
    },
    {
      "type": "Feature",
      "geometry": {
        "type": "Point",
        "coordinates": [
          -97.095394,
          32.78408
        ]
      },
      "properties": {
        "year": 2024,
        "fatalities": 1,
        "pedestrian": false,
        "case_number": "20475643",
        "date": "2024-10-22",
        "road": "COLLINS",
        "county": "Tarrant (439)",
        "severity": "Incapacitating",
        "injuries": 0
      }
    },
    {
      "type": "Feature",
      "geometry": {
        "type": "Point",
        "coordinates": [
          -97.198597,
          32.781169
        ]
      },
      "properties": {
        "year": 2024,
        "fatalities": 1,
        "pedestrian": false,
        "case_number": "20499588",
        "date": "2024-11-07",
        "road": "RANDOL MILL",
        "county": "Tarrant (439)",
        "severity": "Incapacitating",
        "injuries": 1
      }
    },
    {
      "type": "Feature",
      "geometry": {
        "type": "Point",
        "coordinates": [
          -97.103468,
          32.682198
        ]
      },
      "properties": {
        "year": 2021,
        "fatalities": 1,
        "pedestrian": false,
        "case_number": "18455061",
        "date": "2021-09-01",
        "road": "CENTER",
        "county": "Tarrant (439)",
        "severity": "Incapacitating",
        "injuries": 0
      }
    },
    {
      "type": "Feature",
      "geometry": {
        "type": "Point",
        "coordinates": [
          -97.17977,
          32.736643
        ]
      },
      "properties": {
        "year": 2020,
        "fatalities": 1,
        "pedestrian": true,
        "case_number": "17842537",
        "date": "2020-08-28",
        "road": "DOTTIE LYNN",
        "county": "Tarrant (439)",
        "severity": "Incapacitating",
        "injuries": 1
      }
    },
    {
      "type": "Feature",
      "geometry": {
        "type": "Point",
        "coordinates": [
          -97.09746,
          32.723505
        ]
      },
      "properties": {
        "year": 2022,
        "fatalities": 1,
        "pedestrian": true,
        "case_number": "19089623",
        "date": "2022-08-24",
        "road": "COLLINS",
        "county": "Tarrant (439)",
        "severity": "Incapacitating",
        "injuries": 0
      }
    },
    {
      "type": "Feature",
      "geometry": {
        "type": "Point",
        "coordinates": [
          -97.097114,
          32.766646
        ]
      },
      "properties": {
        "year": 2021,
        "fatalities": 1,
        "pedestrian": false,
        "case_number": "18377852",
        "date": "2021-07-16",
        "road": "COLLINS",
        "county": "Tarrant (439)",
        "severity": "Incapacitating",
        "injuries": 0
      }
    },
    {
      "type": "Feature",
      "geometry": {
        "type": "Point",
        "coordinates": [
          -97.089154,
          32.710536
        ]
      },
      "properties": {
        "year": 2020,
        "fatalities": 1,
        "pedestrian": false,
        "case_number": "17697064",
        "date": "2020-05-11",
        "road": "DARLENE",
        "county": "Tarrant (439)",
        "severity": "Incapacitating",
        "injuries": 0
      }
    },
    {
      "type": "Feature",
      "geometry": {
        "type": "Point",
        "coordinates": [
          -97.097605,
          32.795087
        ]
      },
      "properties": {
        "year": 2022,
        "fatalities": 1,
        "pedestrian": false,
        "case_number": "19257875",
        "date": "2022-11-29",
        "road": "COLLINS",
        "county": "Tarrant (439)",
        "severity": "Incapacitating",
        "injuries": 0
      }
    },
    {
      "type": "Feature",
      "geometry": {
        "type": "Point",
        "coordinates": [
          -97.125908,
          32.738204
        ]
      },
      "properties": {
        "year": 2022,
        "fatalities": 1,
        "pedestrian": false,
        "case_number": "19193983",
        "date": "2022-10-22",
        "road": "DIVISION",
        "county": "Tarrant (439)",
        "severity": "Incapacitating",
        "injuries": 0
      }
    },
    {
      "type": "Feature",
      "geometry": {
        "type": "Point",
        "coordinates": [
          -97.199035,
          32.728651
        ]
      },
      "properties": {
        "year": 2021,
        "fatalities": 1,
        "pedestrian": false,
        "case_number": "18149729",
        "date": "2021-03-13",
        "road": "LANCASTER",
        "county": "Tarrant (439)",
        "severity": "Incapacitating",
        "injuries": 0
      }
    },
    {
      "type": "Feature",
      "geometry": {
        "type": "Point",
        "coordinates": [
          -97.147882,
          32.674507
        ]
      },
      "properties": {
        "year": 2020,
        "fatalities": 1,
        "pedestrian": false,
        "case_number": "17967368",
        "date": "2020-11-12",
        "road": "NOT REPORTED",
        "county": "Tarrant (439)",
        "severity": "Incapacitating",
        "injuries": 1
      }
    },
    {
      "type": "Feature",
      "geometry": {
        "type": "Point",
        "coordinates": [
          -97.062744,
          32.704066
        ]
      },
      "properties": {
        "year": 2021,
        "fatalities": 1,
        "pedestrian": false,
        "case_number": "18280597",
        "date": "2021-05-26",
        "road": "WATSON",
        "county": "Tarrant (439)",
        "severity": "Incapacitating",
        "injuries": 0
      }
    },
    {
      "type": "Feature",
      "geometry": {
        "type": "Point",
        "coordinates": [
          -97.186948,
          32.648876
        ]
      },
      "properties": {
        "year": 2020,
        "fatalities": 1,
        "pedestrian": false,
        "case_number": "17887129",
        "date": "2020-09-30",
        "road": "NOT REPORTED",
        "county": "Tarrant (439)",
        "severity": "Incapacitating",
        "injuries": 0
      }
    },
    {
      "type": "Feature",
      "geometry": {
        "type": "Point",
        "coordinates": [
          -97.11485,
          32.674449
        ]
      },
      "properties": {
        "year": 2020,
        "fatalities": 2,
        "pedestrian": false,
        "case_number": "17549041",
        "date": "2020-01-30",
        "road": "MATLOCK",
        "county": "Tarrant (439)",
        "severity": "Incapacitating",
        "injuries": 1
      }
    },
    {
      "type": "Feature",
      "geometry": {
        "type": "Point",
        "coordinates": [
          -97.0572,
          32.72074
        ]
      },
      "properties": {
        "year": 2022,
        "fatalities": 1,
        "pedestrian": false,
        "case_number": "19244304",
        "date": "2022-11-20",
        "road": "PARK ROW",
        "county": "Tarrant (439)",
        "severity": "Incapacitating",
        "injuries": 1
      }
    },
    {
      "type": "Feature",
      "geometry": {
        "type": "Point",
        "coordinates": [
          -97.101751,
          32.75975
        ]
      },
      "properties": {
        "year": 2021,
        "fatalities": 1,
        "pedestrian": false,
        "case_number": "18089074",
        "date": "2021-02-01",
        "road": "TOM LANDRY",
        "county": "Tarrant (439)",
        "severity": "Incapacitating",
        "injuries": 0
      }
    },
    {
      "type": "Feature",
      "geometry": {
        "type": "Point",
        "coordinates": [
          -97.14938,
          32.758689
        ]
      },
      "properties": {
        "year": 2022,
        "fatalities": 1,
        "pedestrian": false,
        "case_number": "19166414",
        "date": "2022-10-08",
        "road": "GREEN OAKS",
        "county": "Tarrant (439)",
        "severity": "Incapacitating",
        "injuries": 0
      }
    },
    {
      "type": "Feature",
      "geometry": {
        "type": "Point",
        "coordinates": [
          -97.12465,
          32.738586
        ]
      },
      "properties": {
        "year": 2024,
        "fatalities": 1,
        "pedestrian": false,
        "case_number": "20246236",
        "date": "2024-06-14",
        "road": "DIVISION",
        "county": "Tarrant (439)",
        "severity": "Incapacitating",
        "injuries": 1
      }
    },
    {
      "type": "Feature",
      "geometry": {
        "type": "Point",
        "coordinates": [
          -97.127051,
          32.7429
        ]
      },
      "properties": {
        "year": 2023,
        "fatalities": 1,
        "pedestrian": false,
        "case_number": "19843939",
        "date": "2023-10-25",
        "road": "SANFORD",
        "county": "Tarrant (439)",
        "severity": "Incapacitating",
        "injuries": 0
      }
    },
    {
      "type": "Feature",
      "geometry": {
        "type": "Point",
        "coordinates": [
          -97.059995,
          32.677432
        ]
      },
      "properties": {
        "year": 2024,
        "fatalities": 1,
        "pedestrian": false,
        "case_number": "20187194",
        "date": "2024-05-15",
        "road": "RONALD REAGAN MEMORIAL",
        "county": "Tarrant (439)",
        "severity": "Incapacitating",
        "injuries": 0
      }
    },
    {
      "type": "Feature",
      "geometry": {
        "type": "Point",
        "coordinates": [
          -97.10871,
          32.70631
        ]
      },
      "properties": {
        "year": 2022,
        "fatalities": 1,
        "pedestrian": false,
        "case_number": "18734595",
        "date": "2022-01-28",
        "road": "ARKANSAS",
        "county": "Tarrant (439)",
        "severity": "Incapacitating",
        "injuries": 0
      }
    },
    {
      "type": "Feature",
      "geometry": {
        "type": "Point",
        "coordinates": [
          -97.185134,
          32.646259
        ]
      },
      "properties": {
        "year": 2020,
        "fatalities": 1,
        "pedestrian": false,
        "case_number": "17738599",
        "date": "2020-06-22",
        "road": "NOT REPORTED",
        "county": "Tarrant (439)",
        "severity": "Incapacitating",
        "injuries": 1
      }
    },
    {
      "type": "Feature",
      "geometry": {
        "type": "Point",
        "coordinates": [
          -97.062603,
          32.690975
        ]
      },
      "properties": {
        "year": 2023,
        "fatalities": 1,
        "pedestrian": false,
        "case_number": "19380418",
        "date": "2023-02-02",
        "road": "NOT REPORTED",
        "county": "Tarrant (439)",
        "severity": "Incapacitating",
        "injuries": 0
      }
    },
    {
      "type": "Feature",
      "geometry": {
        "type": "Point",
        "coordinates": [
          -97.129634,
          32.689592
        ]
      },
      "properties": {
        "year": 2020,
        "fatalities": 1,
        "pedestrian": false,
        "case_number": "17962681",
        "date": "2020-11-13",
        "road": "COOPER",
        "county": "Tarrant (439)",
        "severity": "Incapacitating",
        "injuries": 0
      }
    },
    {
      "type": "Feature",
      "geometry": {
        "type": "Point",
        "coordinates": [
          -97.062564,
          32.687065
        ]
      },
      "properties": {
        "year": 2023,
        "fatalities": 1,
        "pedestrian": false,
        "case_number": "19387975",
        "date": "2023-02-06",
        "road": "NOT REPORTED",
        "county": "Tarrant (439)",
        "severity": "Incapacitating",
        "injuries": 1
      }
    },
    {
      "type": "Feature",
      "geometry": {
        "type": "Point",
        "coordinates": [
          -97.086093,
          32.684462
        ]
      },
      "properties": {
        "year": 2023,
        "fatalities": 1,
        "pedestrian": false,
        "case_number": "19780006",
        "date": "2023-09-22",
        "road": "ARBROOK",
        "county": "Tarrant (439)",
        "severity": "Incapacitating",
        "injuries": 1
      }
    },
    {
      "type": "Feature",
      "geometry": {
        "type": "Point",
        "coordinates": [
          -97.200923,
          32.665084
        ]
      },
      "properties": {
        "year": 2024,
        "fatalities": 2,
        "pedestrian": false,
        "case_number": "20564287",
        "date": "2024-12-10",
        "road": "US 287",
        "county": "Tarrant (439)",
        "severity": "Incapacitating",
        "injuries": 0
      }
    },
    {
      "type": "Feature",
      "geometry": {
        "type": "Point",
        "coordinates": [
          -97.081452,
          32.759741
        ]
      },
      "properties": {
        "year": 2021,
        "fatalities": 1,
        "pedestrian": false,
        "case_number": "18580138",
        "date": "2021-11-01",
        "road": "TOM LANDRY MEMORIAL",
        "county": "Tarrant (439)",
        "severity": "Incapacitating",
        "injuries": 0
      }
    },
    {
      "type": "Feature",
      "geometry": {
        "type": "Point",
        "coordinates": [
          -97.186704,
          32.710044
        ]
      },
      "properties": {
        "year": 2021,
        "fatalities": 1,
        "pedestrian": false,
        "case_number": "18606753",
        "date": "2021-11-17",
        "road": "WOODLAND PARK",
        "county": "Tarrant (439)",
        "severity": "Incapacitating",
        "injuries": 0
      }
    },
    {
      "type": "Feature",
      "geometry": {
        "type": "Point",
        "coordinates": [
          -97.193003,
          32.729143
        ]
      },
      "properties": {
        "year": 2023,
        "fatalities": 2,
        "pedestrian": false,
        "case_number": "19930768",
        "date": "2023-11-22",
        "road": "LANCASTER",
        "county": "Tarrant (439)",
        "severity": "Incapacitating",
        "injuries": 0
      }
    },
    {
      "type": "Feature",
      "geometry": {
        "type": "Point",
        "coordinates": [
          -97.166305,
          32.725243
        ]
      },
      "properties": {
        "year": 2021,
        "fatalities": 1,
        "pedestrian": false,
        "case_number": "18081760",
        "date": "2021-01-27",
        "road": "FOREST EDGE",
        "county": "Tarrant (439)",
        "severity": "Incapacitating",
        "injuries": 0
      }
    },
    {
      "type": "Feature",
      "geometry": {
        "type": "Point",
        "coordinates": [
          -97.1848,
          32.646035
        ]
      },
      "properties": {
        "year": 2024,
        "fatalities": 1,
        "pedestrian": false,
        "case_number": "20358492",
        "date": "2024-08-23",
        "road": "NOT REPORTED",
        "county": "Tarrant (439)",
        "severity": "Incapacitating",
        "injuries": 4
      }
    },
    {
      "type": "Feature",
      "geometry": {
        "type": "Point",
        "coordinates": [
          -97.06264,
          32.742639
        ]
      },
      "properties": {
        "year": 2021,
        "fatalities": 1,
        "pedestrian": false,
        "case_number": "18191985",
        "date": "2021-04-08",
        "road": "NOT REPORTED",
        "county": "Tarrant (439)",
        "severity": "Incapacitating",
        "injuries": 1
      }
    },
    {
      "type": "Feature",
      "geometry": {
        "type": "Point",
        "coordinates": [
          -97.11506,
          32.667276
        ]
      },
      "properties": {
        "year": 2021,
        "fatalities": 1,
        "pedestrian": false,
        "case_number": "18240229",
        "date": "2021-05-06",
        "road": "MATLOCK",
        "county": "Tarrant (439)",
        "severity": "Incapacitating",
        "injuries": 4
      }
    },
    {
      "type": "Feature",
      "geometry": {
        "type": "Point",
        "coordinates": [
          -97.114707,
          32.740609
        ]
      },
      "properties": {
        "year": 2024,
        "fatalities": 1,
        "pedestrian": false,
        "case_number": "20004025",
        "date": "2024-01-31",
        "road": "COOPER",
        "county": "Tarrant (439)",
        "severity": "Incapacitating",
        "injuries": 0
      }
    },
    {
      "type": "Feature",
      "geometry": {
        "type": "Point",
        "coordinates": [
          -97.061716,
          32.651583
        ]
      },
      "properties": {
        "year": 2024,
        "fatalities": 1,
        "pedestrian": false,
        "case_number": "20499133",
        "date": "2024-10-19",
        "road": "NOT REPORTED",
        "county": "Tarrant (439)",
        "severity": "Incapacitating",
        "injuries": 0
      }
    },
    {
      "type": "Feature",
      "geometry": {
        "type": "Point",
        "coordinates": [
          -97.07712,
          32.65511
        ]
      },
      "properties": {
        "year": 2023,
        "fatalities": 1,
        "pedestrian": false,
        "case_number": "19484811",
        "date": "2023-04-04",
        "road": "NEW YORK",
        "county": "Tarrant (439)",
        "severity": "Incapacitating",
        "injuries": 0
      }
    },
    {
      "type": "Feature",
      "geometry": {
        "type": "Point",
        "coordinates": [
          -97.062743,
          32.703998
        ]
      },
      "properties": {
        "year": 2022,
        "fatalities": 1,
        "pedestrian": false,
        "case_number": "19114092",
        "date": "2022-09-11",
        "road": "ANGUS G WYNNE",
        "county": "Tarrant (439)",
        "severity": "Incapacitating",
        "injuries": 0
      }
    },
    {
      "type": "Feature",
      "geometry": {
        "type": "Point",
        "coordinates": [
          -97.189101,
          32.729728
        ]
      },
      "properties": {
        "year": 2023,
        "fatalities": 1,
        "pedestrian": false,
        "case_number": "19783410",
        "date": "2023-09-29",
        "road": "LANCASTER",
        "county": "Tarrant (439)",
        "severity": "Incapacitating",
        "injuries": 0
      }
    },
    {
      "type": "Feature",
      "geometry": {
        "type": "Point",
        "coordinates": [
          -97.10545,
          32.74283
        ]
      },
      "properties": {
        "year": 2020,
        "fatalities": 1,
        "pedestrian": false,
        "case_number": "17908309",
        "date": "2020-10-13",
        "road": "SANFORD",
        "county": "Tarrant (439)",
        "severity": "Incapacitating",
        "injuries": 0
      }
    },
    {
      "type": "Feature",
      "geometry": {
        "type": "Point",
        "coordinates": [
          -97.07363,
          32.70616
        ]
      },
      "properties": {
        "year": 2024,
        "fatalities": 1,
        "pedestrian": false,
        "case_number": "20346526",
        "date": "2024-08-15",
        "road": "ARKANSAS",
        "county": "Tarrant (439)",
        "severity": "Incapacitating",
        "injuries": 1
      }
    },
    {
      "type": "Feature",
      "geometry": {
        "type": "Point",
        "coordinates": [
          -97.11438,
          32.757073
        ]
      },
      "properties": {
        "year": 2024,
        "fatalities": 1,
        "pedestrian": false,
        "case_number": "20092906",
        "date": "2024-03-25",
        "road": "COOPER",
        "county": "Tarrant (439)",
        "severity": "Incapacitating",
        "injuries": 0
      }
    },
    {
      "type": "Feature",
      "geometry": {
        "type": "Point",
        "coordinates": [
          -97.186339,
          32.759856
        ]
      },
      "properties": {
        "year": 2022,
        "fatalities": 1,
        "pedestrian": false,
        "case_number": "18953402",
        "date": "2022-05-30",
        "road": "EAST",
        "county": "Tarrant (439)",
        "severity": "Incapacitating",
        "injuries": 0
      }
    },
    {
      "type": "Feature",
      "geometry": {
        "type": "Point",
        "coordinates": [
          -97.06261,
          32.745848
        ]
      },
      "properties": {
        "year": 2020,
        "fatalities": 1,
        "pedestrian": false,
        "case_number": "17657088",
        "date": "2020-04-11",
        "road": "WATSON",
        "county": "Tarrant (439)",
        "severity": "Incapacitating",
        "injuries": 0
      }
    },
    {
      "type": "Feature",
      "geometry": {
        "type": "Point",
        "coordinates": [
          -97.077996,
          32.720898
        ]
      },
      "properties": {
        "year": 2021,
        "fatalities": 1,
        "pedestrian": false,
        "case_number": "18223649",
        "date": "2021-04-23",
        "road": "PARK ROW",
        "county": "Tarrant (439)",
        "severity": "Incapacitating",
        "injuries": 3
      }
    },
    {
      "type": "Feature",
      "geometry": {
        "type": "Point",
        "coordinates": [
          -97.090096,
          32.750405
        ]
      },
      "properties": {
        "year": 2021,
        "fatalities": 4,
        "pedestrian": false,
        "case_number": "18238764",
        "date": "2021-05-01",
        "road": "RANDOL MILL",
        "county": "Tarrant (439)",
        "severity": "Incapacitating",
        "injuries": 0
      }
    },
    {
      "type": "Feature",
      "geometry": {
        "type": "Point",
        "coordinates": [
          -97.06095,
          32.677307
        ]
      },
      "properties": {
        "year": 2021,
        "fatalities": 1,
        "pedestrian": false,
        "case_number": "18659239",
        "date": "2021-12-21",
        "road": "RONALD REAGAN MEMORIAL",
        "county": "Tarrant (439)",
        "severity": "Incapacitating",
        "injuries": 3
      }
    },
    {
      "type": "Feature",
      "geometry": {
        "type": "Point",
        "coordinates": [
          -97.049319,
          32.712308
        ]
      },
      "properties": {
        "year": 2021,
        "fatalities": 1,
        "pedestrian": false,
        "case_number": "18236304",
        "date": "2021-04-30",
        "road": "PIONEER",
        "county": "Tarrant (439)",
        "severity": "Incapacitating",
        "injuries": 1
      }
    },
    {
      "type": "Feature",
      "geometry": {
        "type": "Point",
        "coordinates": [
          -97.19022,
          32.69717
        ]
      },
      "properties": {
        "year": 2023,
        "fatalities": 1,
        "pedestrian": false,
        "case_number": "19535265",
        "date": "2023-05-08",
        "road": "GREEN OAKS",
        "county": "Tarrant (439)",
        "severity": "Incapacitating",
        "injuries": 0
      }
    },
    {
      "type": "Feature",
      "geometry": {
        "type": "Point",
        "coordinates": [
          -97.133905,
          32.675591
        ]
      },
      "properties": {
        "year": 2021,
        "fatalities": 1,
        "pedestrian": false,
        "case_number": "18214451",
        "date": "2021-04-16",
        "road": "NOT REPORTED",
        "county": "Tarrant (439)",
        "severity": "Incapacitating",
        "injuries": 0
      }
    },
    {
      "type": "Feature",
      "geometry": {
        "type": "Point",
        "coordinates": [
          -97.107646,
          32.708034
        ]
      },
      "properties": {
        "year": 2024,
        "fatalities": 1,
        "pedestrian": false,
        "case_number": "20233340",
        "date": "2024-06-09",
        "road": "PIONEER",
        "county": "Tarrant (439)",
        "severity": "Incapacitating",
        "injuries": 0
      }
    },
    {
      "type": "Feature",
      "geometry": {
        "type": "Point",
        "coordinates": [
          -97.131383,
          32.675923
        ]
      },
      "properties": {
        "year": 2020,
        "fatalities": 1,
        "pedestrian": false,
        "case_number": "18026694",
        "date": "2020-12-22",
        "road": "NOT REPORTED",
        "county": "Tarrant (439)",
        "severity": "Incapacitating",
        "injuries": 1
      }
    },
    {
      "type": "Feature",
      "geometry": {
        "type": "Point",
        "coordinates": [
          -97.166439,
          32.732426
        ]
      },
      "properties": {
        "year": 2024,
        "fatalities": 2,
        "pedestrian": false,
        "case_number": "20445197",
        "date": "2024-10-13",
        "road": "DIVISION",
        "county": "Tarrant (439)",
        "severity": "Incapacitating",
        "injuries": 0
      }
    },
    {
      "type": "Feature",
      "geometry": {
        "type": "Point",
        "coordinates": [
          -97.189342,
          32.711918
        ]
      },
      "properties": {
        "year": 2021,
        "fatalities": 1,
        "pedestrian": false,
        "case_number": "18606117",
        "date": "2021-11-16",
        "road": "GREEN OAKS",
        "county": "Tarrant (439)",
        "severity": "Incapacitating",
        "injuries": 0
      }
    },
    {
      "type": "Feature",
      "geometry": {
        "type": "Point",
        "coordinates": [
          -97.12302,
          32.767857
        ]
      },
      "properties": {
        "year": 2022,
        "fatalities": 1,
        "pedestrian": false,
        "case_number": "18925948",
        "date": "2022-05-21",
        "road": "DAVIS",
        "county": "Tarrant (439)",
        "severity": "Incapacitating",
        "injuries": 1
      }
    },
    {
      "type": "Feature",
      "geometry": {
        "type": "Point",
        "coordinates": [
          -97.171655,
          32.712852
        ]
      },
      "properties": {
        "year": 2021,
        "fatalities": 1,
        "pedestrian": false,
        "case_number": "18123513",
        "date": "2021-02-22",
        "road": "VALLEYWOOD",
        "county": "Tarrant (439)",
        "severity": "Incapacitating",
        "injuries": 0
      }
    },
    {
      "type": "Feature",
      "geometry": {
        "type": "Point",
        "coordinates": [
          -97.121127,
          32.70164
        ]
      },
      "properties": {
        "year": 2023,
        "fatalities": 1,
        "pedestrian": false,
        "case_number": "19935200",
        "date": "2023-12-15",
        "road": "COOPER",
        "county": "Tarrant (439)",
        "severity": "Incapacitating",
        "injuries": 0
      }
    },
    {
      "type": "Feature",
      "geometry": {
        "type": "Point",
        "coordinates": [
          -97.100958,
          32.709672
        ]
      },
      "properties": {
        "year": 2023,
        "fatalities": 1,
        "pedestrian": false,
        "case_number": "19717230",
        "date": "2023-08-15",
        "road": "SOUTHMOOR",
        "county": "Tarrant (439)",
        "severity": "Incapacitating",
        "injuries": 0
      }
    },
    {
      "type": "Feature",
      "geometry": {
        "type": "Point",
        "coordinates": [
          -97.051273,
          32.712373
        ]
      },
      "properties": {
        "year": 2024,
        "fatalities": 1,
        "pedestrian": false,
        "case_number": "20158659",
        "date": "2024-04-23",
        "road": "PIONEER",
        "county": "Tarrant (439)",
        "severity": "Incapacitating",
        "injuries": 0
      }
    },
    {
      "type": "Feature",
      "geometry": {
        "type": "Point",
        "coordinates": [
          -97.127336,
          32.706644
        ]
      },
      "properties": {
        "year": 2021,
        "fatalities": 1,
        "pedestrian": false,
        "case_number": "18103615",
        "date": "2021-02-10",
        "road": "ARKANSAS",
        "county": "Tarrant (439)",
        "severity": "Incapacitating",
        "injuries": 0
      }
    },
    {
      "type": "Feature",
      "geometry": {
        "type": "Point",
        "coordinates": [
          -97.0789,
          32.691566
        ]
      },
      "properties": {
        "year": 2020,
        "fatalities": 1,
        "pedestrian": false,
        "case_number": "17867605",
        "date": "2020-09-18",
        "road": "MAYFIELD",
        "county": "Tarrant (439)",
        "severity": "Incapacitating",
        "injuries": 0
      }
    },
    {
      "type": "Feature",
      "geometry": {
        "type": "Point",
        "coordinates": [
          -97.081907,
          32.741931
        ]
      },
      "properties": {
        "year": 2020,
        "fatalities": 1,
        "pedestrian": false,
        "case_number": "17939173",
        "date": "2020-11-01",
        "road": "DIVISION",
        "county": "Tarrant (439)",
        "severity": "Incapacitating",
        "injuries": 0
      }
    },
    {
      "type": "Feature",
      "geometry": {
        "type": "Point",
        "coordinates": [
          -97.062843,
          32.71328
        ]
      },
      "properties": {
        "year": 2021,
        "fatalities": 1,
        "pedestrian": false,
        "case_number": "18101625",
        "date": "2021-02-06",
        "road": "ANGUS G WYNNE JR",
        "county": "Tarrant (439)",
        "severity": "Incapacitating",
        "injuries": 0
      }
    },
    {
      "type": "Feature",
      "geometry": {
        "type": "Point",
        "coordinates": [
          -97.160072,
          32.674742
        ]
      },
      "properties": {
        "year": 2022,
        "fatalities": 1,
        "pedestrian": false,
        "case_number": "18716484",
        "date": "2022-01-09",
        "road": "NOT REPORTED",
        "county": "Tarrant (439)",
        "severity": "Incapacitating",
        "injuries": 1
      }
    },
    {
      "type": "Feature",
      "geometry": {
        "type": "Point",
        "coordinates": [
          -97.181345,
          32.730885
        ]
      },
      "properties": {
        "year": 2023,
        "fatalities": 1,
        "pedestrian": false,
        "case_number": "19834658",
        "date": "2023-10-26",
        "road": "DIVISION",
        "county": "Tarrant (439)",
        "severity": "Incapacitating",
        "injuries": 2
      }
    },
    {
      "type": "Feature",
      "geometry": {
        "type": "Point",
        "coordinates": [
          -97.172577,
          32.760152
        ]
      },
      "properties": {
        "year": 2023,
        "fatalities": 1,
        "pedestrian": false,
        "case_number": "19864912",
        "date": "2023-10-22",
        "road": "NOT REPORTED",
        "county": "Tarrant (439)",
        "severity": "Incapacitating",
        "injuries": 1
      }
    },
    {
      "type": "Feature",
      "geometry": {
        "type": "Point",
        "coordinates": [
          -97.06181,
          32.691002
        ]
      },
      "properties": {
        "year": 2024,
        "fatalities": 1,
        "pedestrian": false,
        "case_number": "20194070",
        "date": "2024-05-12",
        "road": "SH 360 NBFR",
        "county": "Tarrant (439)",
        "severity": "Incapacitating",
        "injuries": 0
      }
    },
    {
      "type": "Feature",
      "geometry": {
        "type": "Point",
        "coordinates": [
          -97.083347,
          32.723086
        ]
      },
      "properties": {
        "year": 2024,
        "fatalities": 1,
        "pedestrian": false,
        "case_number": "20242550",
        "date": "2024-06-16",
        "road": "BROWNING",
        "county": "Tarrant (439)",
        "severity": "Incapacitating",
        "injuries": 1
      }
    },
    {
      "type": "Feature",
      "geometry": {
        "type": "Point",
        "coordinates": [
          -97.11512,
          32.642817
        ]
      },
      "properties": {
        "year": 2021,
        "fatalities": 1,
        "pedestrian": false,
        "case_number": "18264142",
        "date": "2021-05-14",
        "road": "MATLOCK",
        "county": "Tarrant (439)",
        "severity": "Incapacitating",
        "injuries": 0
      }
    },
    {
      "type": "Feature",
      "geometry": {
        "type": "Point",
        "coordinates": [
          -97.098021,
          32.738897
        ]
      },
      "properties": {
        "year": 2021,
        "fatalities": 1,
        "pedestrian": true,
        "case_number": "18632684",
        "date": "2021-12-06",
        "road": "DIVISION",
        "county": "Tarrant (439)",
        "severity": "Incapacitating",
        "injuries": 0
      }
    },
    {
      "type": "Feature",
      "geometry": {
        "type": "Point",
        "coordinates": [
          -97.117426,
          32.739111
        ]
      },
      "properties": {
        "year": 2020,
        "fatalities": 1,
        "pedestrian": false,
        "case_number": "17871289",
        "date": "2020-09-17",
        "road": "DIVISION",
        "county": "Tarrant (439)",
        "severity": "Incapacitating",
        "injuries": 0
      }
    },
    {
      "type": "Feature",
      "geometry": {
        "type": "Point",
        "coordinates": [
          -97.19037,
          32.7022
        ]
      },
      "properties": {
        "year": 2022,
        "fatalities": 1,
        "pedestrian": false,
        "case_number": "18694282",
        "date": "2022-01-11",
        "road": "GREEN OAKS",
        "county": "Tarrant (439)",
        "severity": "Incapacitating",
        "injuries": 2
      }
    },
    {
      "type": "Feature",
      "geometry": {
        "type": "Point",
        "coordinates": [
          -97.14913,
          32.723386
        ]
      },
      "properties": {
        "year": 2020,
        "fatalities": 1,
        "pedestrian": false,
        "case_number": "17536363",
        "date": "2020-01-23",
        "road": "BOWEN",
        "county": "Tarrant (439)",
        "severity": "Incapacitating",
        "injuries": 1
      }
    },
    {
      "type": "Feature",
      "geometry": {
        "type": "Point",
        "coordinates": [
          -97.065273,
          32.675687
        ]
      },
      "properties": {
        "year": 2022,
        "fatalities": 1,
        "pedestrian": false,
        "case_number": "18997932",
        "date": "2022-07-01",
        "road": "NOT REPORTED",
        "county": "Tarrant (439)",
        "severity": "Incapacitating",
        "injuries": 0
      }
    },
    {
      "type": "Feature",
      "geometry": {
        "type": "Point",
        "coordinates": [
          -97.138629,
          32.67518
        ]
      },
      "properties": {
        "year": 2024,
        "fatalities": 1,
        "pedestrian": false,
        "case_number": "20255376",
        "date": "2024-06-23",
        "road": "NOT REPORTED",
        "county": "Tarrant (439)",
        "severity": "Incapacitating",
        "injuries": 0
      }
    },
    {
      "type": "Feature",
      "geometry": {
        "type": "Point",
        "coordinates": [
          -97.062152,
          32.74571
        ]
      },
      "properties": {
        "year": 2024,
        "fatalities": 1,
        "pedestrian": false,
        "case_number": "20568133",
        "date": "2024-12-14",
        "road": "WATSON",
        "county": "Tarrant (439)",
        "severity": "Incapacitating",
        "injuries": 2
      }
    },
    {
      "type": "Feature",
      "geometry": {
        "type": "Point",
        "coordinates": [
          -97.202083,
          32.672671
        ]
      },
      "properties": {
        "year": 2020,
        "fatalities": 1,
        "pedestrian": false,
        "case_number": "17857810",
        "date": "2020-09-09",
        "road": "NOT REPORTED",
        "county": "Tarrant (439)",
        "severity": "Incapacitating",
        "injuries": 0
      }
    },
    {
      "type": "Feature",
      "geometry": {
        "type": "Point",
        "coordinates": [
          -97.072402,
          32.759673
        ]
      },
      "properties": {
        "year": 2020,
        "fatalities": 1,
        "pedestrian": false,
        "case_number": "17995782",
        "date": "2020-12-05",
        "road": "NOT REPORTED",
        "county": "Tarrant (439)",
        "severity": "Incapacitating",
        "injuries": 0
      }
    },
    {
      "type": "Feature",
      "geometry": {
        "type": "Point",
        "coordinates": [
          -97.095967,
          32.700279
        ]
      },
      "properties": {
        "year": 2021,
        "fatalities": 1,
        "pedestrian": false,
        "case_number": "18089066",
        "date": "2021-01-30",
        "road": "TIMBERVIEW",
        "county": "Tarrant (439)",
        "severity": "Incapacitating",
        "injuries": 0
      }
    },
    {
      "type": "Feature",
      "geometry": {
        "type": "Point",
        "coordinates": [
          -97.14494,
          32.67028
        ]
      },
      "properties": {
        "year": 2023,
        "fatalities": 1,
        "pedestrian": false,
        "case_number": "19508271",
        "date": "2023-04-21",
        "road": "BARDIN",
        "county": "Tarrant (439)",
        "severity": "Incapacitating",
        "injuries": 1
      }
    },
    {
      "type": "Feature",
      "geometry": {
        "type": "Point",
        "coordinates": [
          -97.117436,
          32.706472
        ]
      },
      "properties": {
        "year": 2021,
        "fatalities": 1,
        "pedestrian": false,
        "case_number": "18351149",
        "date": "2021-07-02",
        "road": "ARKANSAS",
        "county": "Tarrant (439)",
        "severity": "Incapacitating",
        "injuries": 0
      }
    },
    {
      "type": "Feature",
      "geometry": {
        "type": "Point",
        "coordinates": [
          -97.04523,
          32.78533
        ]
      },
      "properties": {
        "year": 2022,
        "fatalities": 1,
        "pedestrian": false,
        "case_number": "19190715",
        "date": "2022-10-06",
        "road": "CARRIER",
        "county": "Tarrant (439)",
        "severity": "Incapacitating",
        "injuries": 0
      }
    },
    {
      "type": "Feature",
      "geometry": {
        "type": "Point",
        "coordinates": [
          -97.166295,
          32.732478
        ]
      },
      "properties": {
        "year": 2023,
        "fatalities": 1,
        "pedestrian": false,
        "case_number": "19882786",
        "date": "2023-11-20",
        "road": "DIVISION",
        "county": "Tarrant (439)",
        "severity": "Incapacitating",
        "injuries": 1
      }
    },
    {
      "type": "Feature",
      "geometry": {
        "type": "Point",
        "coordinates": [
          -97.147742,
          32.769376
        ]
      },
      "properties": {
        "year": 2024,
        "fatalities": 1,
        "pedestrian": false,
        "case_number": "20287583",
        "date": "2024-07-05",
        "road": "GREEN OAKS",
        "county": "Tarrant (439)",
        "severity": "Incapacitating",
        "injuries": 1
      }
    },
    {
      "type": "Feature",
      "geometry": {
        "type": "Point",
        "coordinates": [
          -97.11735,
          32.708545
        ]
      },
      "properties": {
        "year": 2023,
        "fatalities": 1,
        "pedestrian": false,
        "case_number": "19327241",
        "date": "2023-01-09",
        "road": "PIONEER",
        "county": "Tarrant (439)",
        "severity": "Incapacitating",
        "injuries": 0
      }
    },
    {
      "type": "Feature",
      "geometry": {
        "type": "Point",
        "coordinates": [
          -97.134493,
          32.65947
        ]
      },
      "properties": {
        "year": 2021,
        "fatalities": 1,
        "pedestrian": false,
        "case_number": "18323893",
        "date": "2021-06-20",
        "road": "COOPER",
        "county": "Tarrant (439)",
        "severity": "Incapacitating",
        "injuries": 0
      }
    },
    {
      "type": "Feature",
      "geometry": {
        "type": "Point",
        "coordinates": [
          -97.119621,
          32.739081
        ]
      },
      "properties": {
        "year": 2023,
        "fatalities": 1,
        "pedestrian": false,
        "case_number": "19894313",
        "date": "2023-11-28",
        "road": "DIVISION",
        "county": "Tarrant (439)",
        "severity": "Incapacitating",
        "injuries": 1
      }
    },
    {
      "type": "Feature",
      "geometry": {
        "type": "Point",
        "coordinates": [
          -97.107128,
          32.759936
        ]
      },
      "properties": {
        "year": 2024,
        "fatalities": 1,
        "pedestrian": false,
        "case_number": "19963760",
        "date": "2024-01-08",
        "road": "NOT REPORTED",
        "county": "Tarrant (439)",
        "severity": "Incapacitating",
        "injuries": 2
      }
    },
    {
      "type": "Feature",
      "geometry": {
        "type": "Point",
        "coordinates": [
          -97.054252,
          32.759741
        ]
      },
      "properties": {
        "year": 2024,
        "fatalities": 1,
        "pedestrian": false,
        "case_number": "20351718",
        "date": "2024-08-13",
        "road": "TOM LANDRY",
        "county": "Tarrant (439)",
        "severity": "Incapacitating",
        "injuries": 0
      }
    },
    {
      "type": "Feature",
      "geometry": {
        "type": "Point",
        "coordinates": [
          -97.128321,
          32.7597
        ]
      },
      "properties": {
        "year": 2024,
        "fatalities": 1,
        "pedestrian": false,
        "case_number": "20406483",
        "date": "2024-09-22",
        "road": "NOT REPORTED",
        "county": "Tarrant (439)",
        "severity": "Incapacitating",
        "injuries": 1
      }
    },
    {
      "type": "Feature",
      "geometry": {
        "type": "Point",
        "coordinates": [
          -97.156395,
          32.70683
        ]
      },
      "properties": {
        "year": 2022,
        "fatalities": 1,
        "pedestrian": false,
        "case_number": "19112943",
        "date": "2022-09-09",
        "road": "ARKANSAS",
        "county": "Tarrant (439)",
        "severity": "Incapacitating",
        "injuries": 0
      }
    },
    {
      "type": "Feature",
      "geometry": {
        "type": "Point",
        "coordinates": [
          -97.089203,
          32.708156
        ]
      },
      "properties": {
        "year": 2021,
        "fatalities": 1,
        "pedestrian": false,
        "case_number": "18393076",
        "date": "2021-07-30",
        "road": "PIONEER",
        "county": "Tarrant (439)",
        "severity": "Incapacitating",
        "injuries": 3
      }
    },
    {
      "type": "Feature",
      "geometry": {
        "type": "Point",
        "coordinates": [
          -97.057781,
          32.736267
        ]
      },
      "properties": {
        "year": 2022,
        "fatalities": 1,
        "pedestrian": false,
        "case_number": "18964431",
        "date": "2022-06-13",
        "road": "ABRAM",
        "county": "Tarrant (439)",
        "severity": "Incapacitating",
        "injuries": 1
      }
    },
    {
      "type": "Feature",
      "geometry": {
        "type": "Point",
        "coordinates": [
          -97.103052,
          32.677848
        ]
      },
      "properties": {
        "year": 2023,
        "fatalities": 1,
        "pedestrian": false,
        "case_number": "19435986",
        "date": "2023-03-04",
        "road": "RONALD REAGAN MEMORIAL",
        "county": "Tarrant (439)",
        "severity": "Incapacitating",
        "injuries": 2
      }
    },
    {
      "type": "Feature",
      "geometry": {
        "type": "Point",
        "coordinates": [
          -97.085277,
          32.759775
        ]
      },
      "properties": {
        "year": 2024,
        "fatalities": 1,
        "pedestrian": false,
        "case_number": "20231226",
        "date": "2024-06-05",
        "road": "I30",
        "county": "Tarrant (439)",
        "severity": "Incapacitating",
        "injuries": 0
      }
    },
    {
      "type": "Feature",
      "geometry": {
        "type": "Point",
        "coordinates": [
          -97.178735,
          32.676189
        ]
      },
      "properties": {
        "year": 2021,
        "fatalities": 1,
        "pedestrian": false,
        "case_number": "18052955",
        "date": "2021-01-08",
        "road": "NOT REPORTED",
        "county": "Tarrant (439)",
        "severity": "Incapacitating",
        "injuries": 1
      }
    },
    {
      "type": "Feature",
      "geometry": {
        "type": "Point",
        "coordinates": [
          -97.073753,
          32.71174
        ]
      },
      "properties": {
        "year": 2020,
        "fatalities": 1,
        "pedestrian": false,
        "case_number": "17663929",
        "date": "2020-04-20",
        "road": "PIONEER",
        "county": "Tarrant (439)",
        "severity": "Incapacitating",
        "injuries": 0
      }
    },
    {
      "type": "Feature",
      "geometry": {
        "type": "Point",
        "coordinates": [
          -97.188489,
          32.759824
        ]
      },
      "properties": {
        "year": 2020,
        "fatalities": 1,
        "pedestrian": false,
        "case_number": "17951278",
        "date": "2020-11-06",
        "road": "EAST FREEWAY",
        "county": "Tarrant (439)",
        "severity": "Incapacitating",
        "injuries": 0
      }
    },
    {
      "type": "Feature",
      "geometry": {
        "type": "Point",
        "coordinates": [
          -97.201916,
          32.665909
        ]
      },
      "properties": {
        "year": 2023,
        "fatalities": 1,
        "pedestrian": false,
        "case_number": "19416195",
        "date": "2023-02-24",
        "road": "NOT REPORTED",
        "county": "Tarrant (439)",
        "severity": "Incapacitating",
        "injuries": 0
      }
    },
    {
      "type": "Feature",
      "geometry": {
        "type": "Point",
        "coordinates": [
          -97.140034,
          32.674696
        ]
      },
      "properties": {
        "year": 2023,
        "fatalities": 1,
        "pedestrian": false,
        "case_number": "19728148",
        "date": "2023-08-23",
        "road": "NOT REPORTED",
        "county": "Tarrant (439)",
        "severity": "Incapacitating",
        "injuries": 0
      }
    },
    {
      "type": "Feature",
      "geometry": {
        "type": "Point",
        "coordinates": [
          -97.17977,
          32.736643
        ]
      },
      "properties": {
        "year": 2023,
        "fatalities": 1,
        "pedestrian": false,
        "case_number": "19857938",
        "date": "2023-10-29",
        "road": "DOTTIE LYNN",
        "county": "Tarrant (439)",
        "severity": "Incapacitating",
        "injuries": 1
      }
    },
    {
      "type": "Feature",
      "geometry": {
        "type": "Point",
        "coordinates": [
          -97.080334,
          32.70601
        ]
      },
      "properties": {
        "year": 2022,
        "fatalities": 1,
        "pedestrian": false,
        "case_number": "19089640",
        "date": "2022-08-27",
        "road": "NEW YORK",
        "county": "Tarrant (439)",
        "severity": "Incapacitating",
        "injuries": 11
      }
    },
    {
      "type": "Feature",
      "geometry": {
        "type": "Point",
        "coordinates": [
          -97.174608,
          32.760023
        ]
      },
      "properties": {
        "year": 2020,
        "fatalities": 1,
        "pedestrian": false,
        "case_number": "17895262",
        "date": "2020-10-03",
        "road": "EAST",
        "county": "Tarrant (439)",
        "severity": "Incapacitating",
        "injuries": 0
      }
    },
    {
      "type": "Feature",
      "geometry": {
        "type": "Point",
        "coordinates": [
          -97.136301,
          32.675291
        ]
      },
      "properties": {
        "year": 2021,
        "fatalities": 1,
        "pedestrian": false,
        "case_number": "18118868",
        "date": "2021-02-12",
        "road": "NOT REPORTED",
        "county": "Tarrant (439)",
        "severity": "Incapacitating",
        "injuries": 0
      }
    },
    {
      "type": "Feature",
      "geometry": {
        "type": "Point",
        "coordinates": [
          -97.138771,
          32.675162
        ]
      },
      "properties": {
        "year": 2023,
        "fatalities": 1,
        "pedestrian": false,
        "case_number": "19679211",
        "date": "2023-07-24",
        "road": "NOT REPORTED",
        "county": "Tarrant (439)",
        "severity": "Incapacitating",
        "injuries": 0
      }
    },
    {
      "type": "Feature",
      "geometry": {
        "type": "Point",
        "coordinates": [
          -97.061715,
          32.65139
        ]
      },
      "properties": {
        "year": 2023,
        "fatalities": 1,
        "pedestrian": false,
        "case_number": "19936951",
        "date": "2023-12-21",
        "road": "NOT REPORTED",
        "county": "Tarrant (439)",
        "severity": "Incapacitating",
        "injuries": 0
      }
    },
    {
      "type": "Feature",
      "geometry": {
        "type": "Point",
        "coordinates": [
          -97.063553,
          32.677342
        ]
      },
      "properties": {
        "year": 2023,
        "fatalities": 1,
        "pedestrian": false,
        "case_number": "19425459",
        "date": "2023-02-28",
        "road": "RONALD REAGAN MEMORIAL",
        "county": "Tarrant (439)",
        "severity": "Incapacitating",
        "injuries": 0
      }
    },
    {
      "type": "Feature",
      "geometry": {
        "type": "Point",
        "coordinates": [
          -97.097624,
          32.793754
        ]
      },
      "properties": {
        "year": 2021,
        "fatalities": 1,
        "pedestrian": true,
        "case_number": "18076865",
        "date": "2021-01-21",
        "road": "COLLINS",
        "county": "Tarrant (439)",
        "severity": "Incapacitating",
        "injuries": 0
      }
    },
    {
      "type": "Feature",
      "geometry": {
        "type": "Point",
        "coordinates": [
          -97.068038,
          32.761336
        ]
      },
      "properties": {
        "year": 2024,
        "fatalities": 2,
        "pedestrian": false,
        "case_number": "20568123",
        "date": "2024-12-15",
        "road": "LAMAR",
        "county": "Tarrant (439)",
        "severity": "Incapacitating",
        "injuries": 0
      }
    },
    {
      "type": "Feature",
      "geometry": {
        "type": "Point",
        "coordinates": [
          -97.062756,
          32.705118
        ]
      },
      "properties": {
        "year": 2021,
        "fatalities": 1,
        "pedestrian": false,
        "case_number": "18630975",
        "date": "2021-12-04",
        "road": "NOT REPORTED",
        "county": "Tarrant (439)",
        "severity": "Incapacitating",
        "injuries": 3
      }
    },
    {
      "type": "Feature",
      "geometry": {
        "type": "Point",
        "coordinates": [
          -97.159453,
          32.674879
        ]
      },
      "properties": {
        "year": 2024,
        "fatalities": 1,
        "pedestrian": false,
        "case_number": "19989287",
        "date": "2024-01-17",
        "road": "RONALD REAGAN MEMORIAL",
        "county": "Tarrant (439)",
        "severity": "Incapacitating",
        "injuries": 0
      }
    },
    {
      "type": "Feature",
      "geometry": {
        "type": "Point",
        "coordinates": [
          -97.05352,
          32.712319
        ]
      },
      "properties": {
        "year": 2023,
        "fatalities": 1,
        "pedestrian": false,
        "case_number": "19601829",
        "date": "2023-06-12",
        "road": "PIONEER",
        "county": "Tarrant (439)",
        "severity": "Incapacitating",
        "injuries": 0
      }
    },
    {
      "type": "Feature",
      "geometry": {
        "type": "Point",
        "coordinates": [
          -97.051893,
          32.759476
        ]
      },
      "properties": {
        "year": 2023,
        "fatalities": 1,
        "pedestrian": false,
        "case_number": "19685096",
        "date": "2023-07-22",
        "road": "NOT REPORTED",
        "county": "Tarrant (439)",
        "severity": "Incapacitating",
        "injuries": 0
      }
    },
    {
      "type": "Feature",
      "geometry": {
        "type": "Point",
        "coordinates": [
          -97.13167,
          32.75576
        ]
      },
      "properties": {
        "year": 2023,
        "fatalities": 1,
        "pedestrian": false,
        "case_number": "19692317",
        "date": "2023-07-20",
        "road": "FIELDER",
        "county": "Tarrant (439)",
        "severity": "Incapacitating",
        "injuries": 0
      }
    },
    {
      "type": "Feature",
      "geometry": {
        "type": "Point",
        "coordinates": [
          -97.11467,
          32.715312
        ]
      },
      "properties": {
        "year": 2020,
        "fatalities": 1,
        "pedestrian": false,
        "case_number": "17657080",
        "date": "2020-04-10",
        "road": "COOPER",
        "county": "Tarrant (439)",
        "severity": "Incapacitating",
        "injuries": 0
      }
    },
    {
      "type": "Feature",
      "geometry": {
        "type": "Point",
        "coordinates": [
          -97.146345,
          32.759958
        ]
      },
      "properties": {
        "year": 2021,
        "fatalities": 1,
        "pedestrian": false,
        "case_number": "18560267",
        "date": "2021-10-28",
        "road": "NOT REPORTED",
        "county": "Tarrant (439)",
        "severity": "Incapacitating",
        "injuries": 5
      }
    },
    {
      "type": "Feature",
      "geometry": {
        "type": "Point",
        "coordinates": [
          -97.10693,
          32.739059
        ]
      },
      "properties": {
        "year": 2024,
        "fatalities": 1,
        "pedestrian": false,
        "case_number": "20394002",
        "date": "2024-09-12",
        "road": "CENTER",
        "county": "Tarrant (439)",
        "severity": "Incapacitating",
        "injuries": 2
      }
    },
    {
      "type": "Feature",
      "geometry": {
        "type": "Point",
        "coordinates": [
          -97.0572,
          32.72074
        ]
      },
      "properties": {
        "year": 2023,
        "fatalities": 1,
        "pedestrian": false,
        "case_number": "19932382",
        "date": "2023-12-18",
        "road": "PARK ROW",
        "county": "Tarrant (439)",
        "severity": "Incapacitating",
        "injuries": 0
      }
    },
    {
      "type": "Feature",
      "geometry": {
        "type": "Point",
        "coordinates": [
          -97.097395,
          32.742075
        ]
      },
      "properties": {
        "year": 2022,
        "fatalities": 1,
        "pedestrian": false,
        "case_number": "18798955",
        "date": "2022-03-12",
        "road": "COLLINS",
        "county": "Tarrant (439)",
        "severity": "Incapacitating",
        "injuries": 0
      }
    },
    {
      "type": "Feature",
      "geometry": {
        "type": "Point",
        "coordinates": [
          -97.139365,
          32.642399
        ]
      },
      "properties": {
        "year": 2020,
        "fatalities": 1,
        "pedestrian": false,
        "case_number": "18039927",
        "date": "2020-12-28",
        "road": "HARDISTY",
        "county": "Tarrant (439)",
        "severity": "Incapacitating",
        "injuries": 0
      }
    },
    {
      "type": "Feature",
      "geometry": {
        "type": "Point",
        "coordinates": [
          -97.142915,
          32.648812
        ]
      },
      "properties": {
        "year": 2023,
        "fatalities": 1,
        "pedestrian": false,
        "case_number": "19956923",
        "date": "2023-12-31",
        "road": "SUBLETT",
        "county": "Tarrant (439)",
        "severity": "Incapacitating",
        "injuries": 0
      }
    },
    {
      "type": "Feature",
      "geometry": {
        "type": "Point",
        "coordinates": [
          -97.138832,
          32.735836
        ]
      },
      "properties": {
        "year": 2023,
        "fatalities": 1,
        "pedestrian": false,
        "case_number": "19430945",
        "date": "2023-03-10",
        "road": "DIVISION",
        "county": "Tarrant (439)",
        "severity": "Incapacitating",
        "injuries": 0
      }
    },
    {
      "type": "Feature",
      "geometry": {
        "type": "Point",
        "coordinates": [
          -97.077144,
          32.663493
        ]
      },
      "properties": {
        "year": 2022,
        "fatalities": 1,
        "pedestrian": false,
        "case_number": "18736371",
        "date": "2022-02-06",
        "road": "NEW YORK",
        "county": "Tarrant (439)",
        "severity": "Incapacitating",
        "injuries": 0
      }
    },
    {
      "type": "Feature",
      "geometry": {
        "type": "Point",
        "coordinates": [
          -97.129385,
          32.759914
        ]
      },
      "properties": {
        "year": 2024,
        "fatalities": 1,
        "pedestrian": false,
        "case_number": "20382793",
        "date": "2024-09-08",
        "road": "TOM LANDRY",
        "county": "Tarrant (439)",
        "severity": "Incapacitating",
        "injuries": 1
      }
    },
    {
      "type": "Feature",
      "geometry": {
        "type": "Point",
        "coordinates": [
          -97.104532,
          32.724108
        ]
      },
      "properties": {
        "year": 2024,
        "fatalities": 1,
        "pedestrian": false,
        "case_number": "20072904",
        "date": "2024-03-12",
        "road": "CENTER",
        "county": "Tarrant (439)",
        "severity": "Incapacitating",
        "injuries": 0
      }
    },
    {
      "type": "Feature",
      "geometry": {
        "type": "Point",
        "coordinates": [
          -97.165775,
          32.7327
        ]
      },
      "properties": {
        "year": 2021,
        "fatalities": 1,
        "pedestrian": false,
        "case_number": "18678978",
        "date": "2021-12-29",
        "road": "DIVISION",
        "county": "Tarrant (439)",
        "severity": "Incapacitating",
        "injuries": 1
      }
    },
    {
      "type": "Feature",
      "geometry": {
        "type": "Point",
        "coordinates": [
          -97.134626,
          32.658412
        ]
      },
      "properties": {
        "year": 2023,
        "fatalities": 1,
        "pedestrian": false,
        "case_number": "19484731",
        "date": "2023-04-02",
        "road": "COOPER",
        "county": "Tarrant (439)",
        "severity": "Incapacitating",
        "injuries": 2
      }
    },
    {
      "type": "Feature",
      "geometry": {
        "type": "Point",
        "coordinates": [
          -97.166894,
          32.648957
        ]
      },
      "properties": {
        "year": 2023,
        "fatalities": 1,
        "pedestrian": false,
        "case_number": "19932973",
        "date": "2023-12-14",
        "road": "SUBLETT",
        "county": "Tarrant (439)",
        "severity": "Incapacitating",
        "injuries": 0
      }
    },
    {
      "type": "Feature",
      "geometry": {
        "type": "Point",
        "coordinates": [
          -97.134582,
          32.63885
        ]
      },
      "properties": {
        "year": 2024,
        "fatalities": 1,
        "pedestrian": false,
        "case_number": "20173119",
        "date": "2024-05-07",
        "road": "COOPER",
        "county": "Tarrant (439)",
        "severity": "Incapacitating",
        "injuries": 0
      }
    },
    {
      "type": "Feature",
      "geometry": {
        "type": "Point",
        "coordinates": [
          -97.161801,
          32.760302
        ]
      },
      "properties": {
        "year": 2024,
        "fatalities": 1,
        "pedestrian": false,
        "case_number": "20045329",
        "date": "2024-02-17",
        "road": "EAST",
        "county": "Tarrant (439)",
        "severity": "Incapacitating",
        "injuries": 0
      }
    },
    {
      "type": "Feature",
      "geometry": {
        "type": "Point",
        "coordinates": [
          -97.159649,
          32.674734
        ]
      },
      "properties": {
        "year": 2020,
        "fatalities": 1,
        "pedestrian": false,
        "case_number": "17940248",
        "date": "2020-10-28",
        "road": "NOT REPORTED",
        "county": "Tarrant (439)",
        "severity": "Incapacitating",
        "injuries": 0
      }
    },
    {
      "type": "Feature",
      "geometry": {
        "type": "Point",
        "coordinates": [
          -97.062709,
          32.748963
        ]
      },
      "properties": {
        "year": 2021,
        "fatalities": 1,
        "pedestrian": false,
        "case_number": "18493429",
        "date": "2021-09-22",
        "road": "WATSON",
        "county": "Tarrant (439)",
        "severity": "Incapacitating",
        "injuries": 1
      }
    },
    {
      "type": "Feature",
      "geometry": {
        "type": "Point",
        "coordinates": [
          -97.18079,
          32.8022
        ]
      },
      "properties": {
        "year": 2024,
        "fatalities": 1,
        "pedestrian": false,
        "case_number": "20337211",
        "date": "2024-08-03",
        "road": "TRINITY BLVD",
        "county": "Tarrant (439)",
        "severity": "Incapacitating",
        "injuries": 0
      }
    },
    {
      "type": "Feature",
      "geometry": {
        "type": "Point",
        "coordinates": [
          -97.07525,
          32.636169
        ]
      },
      "properties": {
        "year": 2023,
        "fatalities": 1,
        "pedestrian": true,
        "case_number": "19624204",
        "date": "2023-06-25",
        "road": "NEW YORK",
        "county": "Tarrant (439)",
        "severity": "Incapacitating",
        "injuries": 0
      }
    },
    {
      "type": "Feature",
      "geometry": {
        "type": "Point",
        "coordinates": [
          -97.168322,
          32.715623
        ]
      },
      "properties": {
        "year": 2022,
        "fatalities": 1,
        "pedestrian": false,
        "case_number": "19234787",
        "date": "2022-11-16",
        "road": "PIONEER",
        "county": "Tarrant (439)",
        "severity": "Incapacitating",
        "injuries": 0
      }
    },
    {
      "type": "Feature",
      "geometry": {
        "type": "Point",
        "coordinates": [
          -97.062831,
          32.715386
        ]
      },
      "properties": {
        "year": 2020,
        "fatalities": 1,
        "pedestrian": false,
        "case_number": "17723958",
        "date": "2020-06-11",
        "road": "NOT REPORTED",
        "county": "Tarrant (439)",
        "severity": "Incapacitating",
        "injuries": 1
      }
    },
    {
      "type": "Feature",
      "geometry": {
        "type": "Point",
        "coordinates": [
          -97.062673,
          32.718449
        ]
      },
      "properties": {
        "year": 2020,
        "fatalities": 1,
        "pedestrian": false,
        "case_number": "17758924",
        "date": "2020-07-06",
        "road": "NOT REPORTED",
        "county": "Tarrant (439)",
        "severity": "Incapacitating",
        "injuries": 0
      }
    },
    {
      "type": "Feature",
      "geometry": {
        "type": "Point",
        "coordinates": [
          -97.097109,
          32.763401
        ]
      },
      "properties": {
        "year": 2021,
        "fatalities": 1,
        "pedestrian": false,
        "case_number": "18287398",
        "date": "2021-05-30",
        "road": "COLLINS",
        "county": "Tarrant (439)",
        "severity": "Incapacitating",
        "injuries": 0
      }
    },
    {
      "type": "Feature",
      "geometry": {
        "type": "Point",
        "coordinates": [
          -97.09716,
          32.759741
        ]
      },
      "properties": {
        "year": 2021,
        "fatalities": 1,
        "pedestrian": false,
        "case_number": "18583516",
        "date": "2021-11-07",
        "road": "COLLINS",
        "county": "Tarrant (439)",
        "severity": "Incapacitating",
        "injuries": 3
      }
    },
    {
      "type": "Feature",
      "geometry": {
        "type": "Point",
        "coordinates": [
          -97.153848,
          32.735961
        ]
      },
      "properties": {
        "year": 2023,
        "fatalities": 1,
        "pedestrian": false,
        "case_number": "19898141",
        "date": "2023-11-30",
        "road": "DIVISION",
        "county": "Tarrant (439)",
        "severity": "Incapacitating",
        "injuries": 1
      }
    },
    {
      "type": "Feature",
      "geometry": {
        "type": "Point",
        "coordinates": [
          -97.080376,
          32.71015
        ]
      },
      "properties": {
        "year": 2022,
        "fatalities": 1,
        "pedestrian": false,
        "case_number": "19122817",
        "date": "2022-09-17",
        "road": "NEW YORK",
        "county": "Tarrant (439)",
        "severity": "Incapacitating",
        "injuries": 0
      }
    },
    {
      "type": "Feature",
      "geometry": {
        "type": "Point",
        "coordinates": [
          -97.173314,
          32.74122
        ]
      },
      "properties": {
        "year": 2021,
        "fatalities": 1,
        "pedestrian": false,
        "case_number": "18570055",
        "date": "2021-10-30",
        "road": "DOTTIE LYNN",
        "county": "Tarrant (439)",
        "severity": "Incapacitating",
        "injuries": 0
      }
    },
    {
      "type": "Feature",
      "geometry": {
        "type": "Point",
        "coordinates": [
          -97.062885,
          32.768415
        ]
      },
      "properties": {
        "year": 2021,
        "fatalities": 1,
        "pedestrian": false,
        "case_number": "18264422",
        "date": "2021-05-16",
        "road": "NOT REPORTED",
        "county": "Tarrant (439)",
        "severity": "Incapacitating",
        "injuries": 0
      }
    },
    {
      "type": "Feature",
      "geometry": {
        "type": "Point",
        "coordinates": [
          -97.09274,
          32.78428
        ]
      },
      "properties": {
        "year": 2023,
        "fatalities": 1,
        "pedestrian": false,
        "case_number": "19387664",
        "date": "2023-02-12",
        "road": "GREEN OAKS",
        "county": "Tarrant (439)",
        "severity": "Incapacitating",
        "injuries": 0
      }
    },
    {
      "type": "Feature",
      "geometry": {
        "type": "Point",
        "coordinates": [
          -97.053131,
          32.673496
        ]
      },
      "properties": {
        "year": 2023,
        "fatalities": 1,
        "pedestrian": false,
        "case_number": "19451586",
        "date": "2023-03-10",
        "road": "BARDIN",
        "county": "Tarrant (439)",
        "severity": "Incapacitating",
        "injuries": 1
      }
    },
    {
      "type": "Feature",
      "geometry": {
        "type": "Point",
        "coordinates": [
          -97.062255,
          32.677321
        ]
      },
      "properties": {
        "year": 2022,
        "fatalities": 1,
        "pedestrian": false,
        "case_number": "18790085",
        "date": "2022-03-09",
        "road": "RONALD REAGAN MEMORIAL",
        "county": "Tarrant (439)",
        "severity": "Incapacitating",
        "injuries": 0
      }
    }
  ]
}