{
  "type": "FeatureCollection",
  "metadata": {
    "source": "NJDOT Crash Records 2019-2022",
    "url": "https://www.nj.gov/transportation/refdata/accident/",
    "bounding_box": {
      "north": 40.85,
      "south": 40.72,
      "west": -74.15,
      "east": -73.98
    },
    "cell_size_degrees": 0.002,
    "min_crashes_per_cell": 10,
    "years": [
      2019,
      2020,
      2021,
      2022
    ],
    "total_crashes_in_bbox": 11996,
    "severity_breakdown": {
      "property_damage": 9775,
      "injury": 2191,
      "fatal": 30
    },
    "pedestrian_bicycle_involved": 246,
    "persons_killed": 31,
    "persons_injured": 3286,
    "geocode_rate": "28-38% of NJ records have lat/lon coordinates",
    "field_definitions": {
      "crashes": "total crashes in cell (4 years)",
      "injury": "crashes with severity=I",
      "fatal": "crashes with severity=F",
      "pedestrian": "crashes involving pedestrian or bicyclist (crash type 15 or 16)",
      "density": "crashes per year (crashes / 4)"
    }
  },
  "features": [
    {
      "type": "Feature",
      "properties": {
        "crashes": 303,
        "injury": 71,
        "fatal": 0,
        "pedestrian": 3,
        "density": 75.8
      },
      "geometry": {
        "type": "Point",
        "coordinates": [
          -74.141,
          40.831
        ]
      }
    },
    {
      "type": "Feature",
      "properties": {
        "crashes": 286,
        "injury": 71,
        "fatal": 1,
        "pedestrian": 3,
        "density": 71.5
      },
      "geometry": {
        "type": "Point",
        "coordinates": [
          -74.125,
          40.823
        ]
      }
    },
    {
      "type": "Feature",
      "properties": {
        "crashes": 197,
        "injury": 28,
        "fatal": 0,
        "pedestrian": 1,
        "density": 49.2
      },
      "geometry": {
        "type": "Point",
        "coordinates": [
          -74.059,
          40.777
        ]
      }
    },
    {
      "type": "Feature",
      "properties": {
        "crashes": 183,
        "injury": 21,
        "fatal": 0,
        "pedestrian": 1,
        "density": 45.8
      },
      "geometry": {
        "type": "Point",
        "coordinates": [
          -74.125,
          40.731
        ]
      }
    },
    {
      "type": "Feature",
      "properties": {
        "crashes": 174,
        "injury": 23,
        "fatal": 0,
        "pedestrian": 2,
        "density": 43.5
      },
      "geometry": {
        "type": "Point",
        "coordinates": [
          -74.057,
          40.777
        ]
      }
    },
    {
      "type": "Feature",
      "properties": {
        "crashes": 162,
        "injury": 34,
        "fatal": 0,
        "pedestrian": 0,
        "density": 40.5
      },
      "geometry": {
        "type": "Point",
        "coordinates": [
          -74.147,
          40.835
        ]
      }
    },
    {
      "type": "Feature",
      "properties": {
        "crashes": 156,
        "injury": 20,
        "fatal": 0,
        "pedestrian": 2,
        "density": 39.0
      },
      "geometry": {
        "type": "Point",
        "coordinates": [
          -74.123,
          40.755
        ]
      }
    },
    {
      "type": "Feature",
      "properties": {
        "crashes": 149,
        "injury": 31,
        "fatal": 0,
        "pedestrian": 0,
        "density": 37.2
      },
      "geometry": {
        "type": "Point",
        "coordinates": [
          -74.149,
          40.835
        ]
      }
    },
    {
      "type": "Feature",
      "properties": {
        "crashes": 123,
        "injury": 25,
        "fatal": 0,
        "pedestrian": 1,
        "density": 30.8
      },
      "geometry": {
        "type": "Point",
        "coordinates": [
          -74.123,
          40.739
        ]
      }
    },
    {
      "type": "Feature",
      "properties": {
        "crashes": 99,
        "injury": 13,
        "fatal": 0,
        "pedestrian": 6,
        "density": 24.8
      },
      "geometry": {
        "type": "Point",
        "coordinates": [
          -74.079,
          40.803
        ]
      }
    },
    {
      "type": "Feature",
      "properties": {
        "crashes": 91,
        "injury": 19,
        "fatal": 0,
        "pedestrian": 9,
        "density": 22.8
      },
      "geometry": {
        "type": "Point",
        "coordinates": [
          -74.129,
          40.729
        ]
      }
    },
    {
      "type": "Feature",
      "properties": {
        "crashes": 85,
        "injury": 1,
        "fatal": 0,
        "pedestrian": 2,
        "density": 21.2
      },
      "geometry": {
        "type": "Point",
        "coordinates": [
          -74.031,
          40.823
        ]
      }
    },
    {
      "type": "Feature",
      "properties": {
        "crashes": 85,
        "injury": 18,
        "fatal": 0,
        "pedestrian": 0,
        "density": 21.2
      },
      "geometry": {
        "type": "Point",
        "coordinates": [
          -74.143,
          40.831
        ]
      }
    },
    {
      "type": "Feature",
      "properties": {
        "crashes": 80,
        "injury": 4,
        "fatal": 0,
        "pedestrian": 0,
        "density": 20.0
      },
      "geometry": {
        "type": "Point",
        "coordinates": [
          -74.059,
          40.775
        ]
      }
    },
    {
      "type": "Feature",
      "properties": {
        "crashes": 78,
        "injury": 6,
        "fatal": 0,
        "pedestrian": 0,
        "density": 19.5
      },
      "geometry": {
        "type": "Point",
        "coordinates": [
          -74.065,
          40.739
        ]
      }
    },
    {
      "type": "Feature",
      "properties": {
        "crashes": 77,
        "injury": 12,
        "fatal": 0,
        "pedestrian": 6,
        "density": 19.2
      },
      "geometry": {
        "type": "Point",
        "coordinates": [
          -74.135,
          40.721
        ]
      }
    },
    {
      "type": "Feature",
      "properties": {
        "crashes": 76,
        "injury": 13,
        "fatal": 2,
        "pedestrian": 2,
        "density": 19.0
      },
      "geometry": {
        "type": "Point",
        "coordinates": [
          -74.133,
          40.725
        ]
      }
    },
    {
      "type": "Feature",
      "properties": {
        "crashes": 75,
        "injury": 9,
        "fatal": 0,
        "pedestrian": 0,
        "density": 18.8
      },
      "geometry": {
        "type": "Point",
        "coordinates": [
          -74.141,
          40.833
        ]
      }
    },
    {
      "type": "Feature",
      "properties": {
        "crashes": 72,
        "injury": 20,
        "fatal": 0,
        "pedestrian": 3,
        "density": 18.0
      },
      "geometry": {
        "type": "Point",
        "coordinates": [
          -74.143,
          40.743
        ]
      }
    },
    {
      "type": "Feature",
      "properties": {
        "crashes": 71,
        "injury": 11,
        "fatal": 0,
        "pedestrian": 0,
        "density": 17.8
      },
      "geometry": {
        "type": "Point",
        "coordinates": [
          -74.081,
          40.815
        ]
      }
    },
    {
      "type": "Feature",
      "properties": {
        "crashes": 71,
        "injury": 13,
        "fatal": 0,
        "pedestrian": 1,
        "density": 17.8
      },
      "geometry": {
        "type": "Point",
        "coordinates": [
          -74.057,
          40.789
        ]
      }
    },
    {
      "type": "Feature",
      "properties": {
        "crashes": 66,
        "injury": 4,
        "fatal": 0,
        "pedestrian": 0,
        "density": 16.5
      },
      "geometry": {
        "type": "Point",
        "coordinates": [
          -74.061,
          40.773
        ]
      }
    },
    {
      "type": "Feature",
      "properties": {
        "crashes": 64,
        "injury": 15,
        "fatal": 0,
        "pedestrian": 1,
        "density": 16.0
      },
      "geometry": {
        "type": "Point",
        "coordinates": [
          -74.027,
          40.829
        ]
      }
    },
    {
      "type": "Feature",
      "properties": {
        "crashes": 62,
        "injury": 18,
        "fatal": 0,
        "pedestrian": 1,
        "density": 15.5
      },
      "geometry": {
        "type": "Point",
        "coordinates": [
          -74.109,
          40.755
        ]
      }
    },
    {
      "type": "Feature",
      "properties": {
        "crashes": 57,
        "injury": 17,
        "fatal": 0,
        "pedestrian": 1,
        "density": 14.2
      },
      "geometry": {
        "type": "Point",
        "coordinates": [
          -74.025,
          40.831
        ]
      }
    },
    {
      "type": "Feature",
      "properties": {
        "crashes": 57,
        "injury": 5,
        "fatal": 0,
        "pedestrian": 2,
        "density": 14.2
      },
      "geometry": {
        "type": "Point",
        "coordinates": [
          -74.131,
          40.727
        ]
      }
    },
    {
      "type": "Feature",
      "properties": {
        "crashes": 55,
        "injury": 7,
        "fatal": 0,
        "pedestrian": 3,
        "density": 13.8
      },
      "geometry": {
        "type": "Point",
        "coordinates": [
          -74.107,
          40.755
        ]
      }
    },
    {
      "type": "Feature",
      "properties": {
        "crashes": 54,
        "injury": 9,
        "fatal": 0,
        "pedestrian": 0,
        "density": 13.5
      },
      "geometry": {
        "type": "Point",
        "coordinates": [
          -74.075,
          40.801
        ]
      }
    },
    {
      "type": "Feature",
      "properties": {
        "crashes": 54,
        "injury": 15,
        "fatal": 0,
        "pedestrian": 2,
        "density": 13.5
      },
      "geometry": {
        "type": "Point",
        "coordinates": [
          -74.117,
          40.755
        ]
      }
    },
    {
      "type": "Feature",
      "properties": {
        "crashes": 53,
        "injury": 15,
        "fatal": 0,
        "pedestrian": 2,
        "density": 13.2
      },
      "geometry": {
        "type": "Point",
        "coordinates": [
          -74.017,
          40.845
        ]
      }
    },
    {
      "type": "Feature",
      "properties": {
        "crashes": 53,
        "injury": 12,
        "fatal": 0,
        "pedestrian": 2,
        "density": 13.2
      },
      "geometry": {
        "type": "Point",
        "coordinates": [
          -74.117,
          40.757
        ]
      }
    },
    {
      "type": "Feature",
      "properties": {
        "crashes": 51,
        "injury": 12,
        "fatal": 1,
        "pedestrian": 1,
        "density": 12.8
      },
      "geometry": {
        "type": "Point",
        "coordinates": [
          -74.127,
          40.731
        ]
      }
    },
    {
      "type": "Feature",
      "properties": {
        "crashes": 51,
        "injury": 10,
        "fatal": 0,
        "pedestrian": 0,
        "density": 12.8
      },
      "geometry": {
        "type": "Point",
        "coordinates": [
          -74.053,
          40.783
        ]
      }
    },
    {
      "type": "Feature",
      "properties": {
        "crashes": 50,
        "injury": 11,
        "fatal": 0,
        "pedestrian": 0,
        "density": 12.5
      },
      "geometry": {
        "type": "Point",
        "coordinates": [
          -74.017,
          40.841
        ]
      }
    },
    {
      "type": "Feature",
      "properties": {
        "crashes": 48,
        "injury": 13,
        "fatal": 0,
        "pedestrian": 2,
        "density": 12.0
      },
      "geometry": {
        "type": "Point",
        "coordinates": [
          -74.127,
          40.729
        ]
      }
    },
    {
      "type": "Feature",
      "properties": {
        "crashes": 46,
        "injury": 12,
        "fatal": 1,
        "pedestrian": 0,
        "density": 11.5
      },
      "geometry": {
        "type": "Point",
        "coordinates": [
          -74.123,
          40.737
        ]
      }
    },
    {
      "type": "Feature",
      "properties": {
        "crashes": 46,
        "injury": 5,
        "fatal": 0,
        "pedestrian": 2,
        "density": 11.5
      },
      "geometry": {
        "type": "Point",
        "coordinates": [
          -74.065,
          40.769
        ]
      }
    },
    {
      "type": "Feature",
      "properties": {
        "crashes": 44,
        "injury": 12,
        "fatal": 0,
        "pedestrian": 2,
        "density": 11.0
      },
      "geometry": {
        "type": "Point",
        "coordinates": [
          -74.017,
          40.843
        ]
      }
    },
    {
      "type": "Feature",
      "properties": {
        "crashes": 44,
        "injury": 8,
        "fatal": 0,
        "pedestrian": 5,
        "density": 11.0
      },
      "geometry": {
        "type": "Point",
        "coordinates": [
          -74.121,
          40.749
        ]
      }
    },
    {
      "type": "Feature",
      "properties": {
        "crashes": 44,
        "injury": 8,
        "fatal": 0,
        "pedestrian": 2,
        "density": 11.0
      },
      "geometry": {
        "type": "Point",
        "coordinates": [
          -74.119,
          40.751
        ]
      }
    },
    {
      "type": "Feature",
      "properties": {
        "crashes": 44,
        "injury": 10,
        "fatal": 0,
        "pedestrian": 0,
        "density": 11.0
      },
      "geometry": {
        "type": "Point",
        "coordinates": [
          -74.141,
          40.843
        ]
      }
    },
    {
      "type": "Feature",
      "properties": {
        "crashes": 44,
        "injury": 17,
        "fatal": 0,
        "pedestrian": 1,
        "density": 11.0
      },
      "geometry": {
        "type": "Point",
        "coordinates": [
          -74.123,
          40.833
        ]
      }
    },
    {
      "type": "Feature",
      "properties": {
        "crashes": 44,
        "injury": 5,
        "fatal": 0,
        "pedestrian": 0,
        "density": 11.0
      },
      "geometry": {
        "type": "Point",
        "coordinates": [
          -74.137,
          40.829
        ]
      }
    },
    {
      "type": "Feature",
      "properties": {
        "crashes": 44,
        "injury": 12,
        "fatal": 0,
        "pedestrian": 0,
        "density": 11.0
      },
      "geometry": {
        "type": "Point",
        "coordinates": [
          -74.089,
          40.735
        ]
      }
    },
    {
      "type": "Feature",
      "properties": {
        "crashes": 43,
        "injury": 11,
        "fatal": 0,
        "pedestrian": 3,
        "density": 10.8
      },
      "geometry": {
        "type": "Point",
        "coordinates": [
          -74.025,
          40.829
        ]
      }
    },
    {
      "type": "Feature",
      "properties": {
        "crashes": 43,
        "injury": 6,
        "fatal": 0,
        "pedestrian": 2,
        "density": 10.8
      },
      "geometry": {
        "type": "Point",
        "coordinates": [
          -74.125,
          40.733
        ]
      }
    },
    {
      "type": "Feature",
      "properties": {
        "crashes": 43,
        "injury": 12,
        "fatal": 0,
        "pedestrian": 0,
        "density": 10.8
      },
      "geometry": {
        "type": "Point",
        "coordinates": [
          -74.145,
          40.837
        ]
      }
    },
    {
      "type": "Feature",
      "properties": {
        "crashes": 42,
        "injury": 7,
        "fatal": 0,
        "pedestrian": 0,
        "density": 10.5
      },
      "geometry": {
        "type": "Point",
        "coordinates": [
          -74.061,
          40.811
        ]
      }
    },
    {
      "type": "Feature",
      "properties": {
        "crashes": 42,
        "injury": 14,
        "fatal": 1,
        "pedestrian": 0,
        "density": 10.5
      },
      "geometry": {
        "type": "Point",
        "coordinates": [
          -74.111,
          40.765
        ]
      }
    },
    {
      "type": "Feature",
      "properties": {
        "crashes": 42,
        "injury": 11,
        "fatal": 0,
        "pedestrian": 4,
        "density": 10.5
      },
      "geometry": {
        "type": "Point",
        "coordinates": [
          -74.119,
          40.753
        ]
      }
    },
    {
      "type": "Feature",
      "properties": {
        "crashes": 41,
        "injury": 8,
        "fatal": 0,
        "pedestrian": 7,
        "density": 10.2
      },
      "geometry": {
        "type": "Point",
        "coordinates": [
          -74.123,
          40.743
        ]
      }
    },
    {
      "type": "Feature",
      "properties": {
        "crashes": 40,
        "injury": 12,
        "fatal": 0,
        "pedestrian": 4,
        "density": 10.0
      },
      "geometry": {
        "type": "Point",
        "coordinates": [
          -74.123,
          40.741
        ]
      }
    },
    {
      "type": "Feature",
      "properties": {
        "crashes": 40,
        "injury": 8,
        "fatal": 0,
        "pedestrian": 0,
        "density": 10.0
      },
      "geometry": {
        "type": "Point",
        "coordinates": [
          -74.123,
          40.827
        ]
      }
    },
    {
      "type": "Feature",
      "properties": {
        "crashes": 38,
        "injury": 7,
        "fatal": 0,
        "pedestrian": 0,
        "density": 9.5
      },
      "geometry": {
        "type": "Point",
        "coordinates": [
          -74.129,
          40.751
        ]
      }
    },
    {
      "type": "Feature",
      "properties": {
        "crashes": 37,
        "injury": 6,
        "fatal": 0,
        "pedestrian": 0,
        "density": 9.2
      },
      "geometry": {
        "type": "Point",
        "coordinates": [
          -74.147,
          40.833
        ]
      }
    },
    {
      "type": "Feature",
      "properties": {
        "crashes": 37,
        "injury": 11,
        "fatal": 0,
        "pedestrian": 0,
        "density": 9.2
      },
      "geometry": {
        "type": "Point",
        "coordinates": [
          -74.047,
          40.785
        ]
      }
    },
    {
      "type": "Feature",
      "properties": {
        "crashes": 36,
        "injury": 10,
        "fatal": 0,
        "pedestrian": 2,
        "density": 9.0
      },
      "geometry": {
        "type": "Point",
        "coordinates": [
          -74.023,
          40.831
        ]
      }
    },
    {
      "type": "Feature",
      "properties": {
        "crashes": 36,
        "injury": 9,
        "fatal": 0,
        "pedestrian": 0,
        "density": 9.0
      },
      "geometry": {
        "type": "Point",
        "coordinates": [
          -74.009,
          40.835
        ]
      }
    },
    {
      "type": "Feature",
      "properties": {
        "crashes": 36,
        "injury": 8,
        "fatal": 0,
        "pedestrian": 0,
        "density": 9.0
      },
      "geometry": {
        "type": "Point",
        "coordinates": [
          -74.123,
          40.733
        ]
      }
    },
    {
      "type": "Feature",
      "properties": {
        "crashes": 36,
        "injury": 7,
        "fatal": 0,
        "pedestrian": 2,
        "density": 9.0
      },
      "geometry": {
        "type": "Point",
        "coordinates": [
          -74.147,
          40.743
        ]
      }
    },
    {
      "type": "Feature",
      "properties": {
        "crashes": 36,
        "injury": 8,
        "fatal": 0,
        "pedestrian": 0,
        "density": 9.0
      },
      "geometry": {
        "type": "Point",
        "coordinates": [
          -74.105,
          40.755
        ]
      }
    },
    {
      "type": "Feature",
      "properties": {
        "crashes": 35,
        "injury": 6,
        "fatal": 0,
        "pedestrian": 2,
        "density": 8.8
      },
      "geometry": {
        "type": "Point",
        "coordinates": [
          -74.079,
          40.761
        ]
      }
    },
    {
      "type": "Feature",
      "properties": {
        "crashes": 34,
        "injury": 8,
        "fatal": 0,
        "pedestrian": 1,
        "density": 8.5
      },
      "geometry": {
        "type": "Point",
        "coordinates": [
          -74.077,
          40.799
        ]
      }
    },
    {
      "type": "Feature",
      "properties": {
        "crashes": 34,
        "injury": 6,
        "fatal": 0,
        "pedestrian": 1,
        "density": 8.5
      },
      "geometry": {
        "type": "Point",
        "coordinates": [
          -74.145,
          40.769
        ]
      }
    },
    {
      "type": "Feature",
      "properties": {
        "crashes": 33,
        "injury": 7,
        "fatal": 0,
        "pedestrian": 2,
        "density": 8.2
      },
      "geometry": {
        "type": "Point",
        "coordinates": [
          -74.029,
          40.827
        ]
      }
    },
    {
      "type": "Feature",
      "properties": {
        "crashes": 33,
        "injury": 8,
        "fatal": 1,
        "pedestrian": 5,
        "density": 8.2
      },
      "geometry": {
        "type": "Point",
        "coordinates": [
          -74.149,
          40.743
        ]
      }
    },
    {
      "type": "Feature",
      "properties": {
        "crashes": 33,
        "injury": 8,
        "fatal": 1,
        "pedestrian": 1,
        "density": 8.2
      },
      "geometry": {
        "type": "Point",
        "coordinates": [
          -74.051,
          40.785
        ]
      }
    },
    {
      "type": "Feature",
      "properties": {
        "crashes": 33,
        "injury": 12,
        "fatal": 0,
        "pedestrian": 0,
        "density": 8.2
      },
      "geometry": {
        "type": "Point",
        "coordinates": [
          -74.149,
          40.833
        ]
      }
    },
    {
      "type": "Feature",
      "properties": {
        "crashes": 32,
        "injury": 5,
        "fatal": 0,
        "pedestrian": 1,
        "density": 8.0
      },
      "geometry": {
        "type": "Point",
        "coordinates": [
          -74.059,
          40.811
        ]
      }
    },
    {
      "type": "Feature",
      "properties": {
        "crashes": 32,
        "injury": 7,
        "fatal": 0,
        "pedestrian": 0,
        "density": 8.0
      },
      "geometry": {
        "type": "Point",
        "coordinates": [
          -74.057,
          40.779
        ]
      }
    },
    {
      "type": "Feature",
      "properties": {
        "crashes": 31,
        "injury": 9,
        "fatal": 0,
        "pedestrian": 2,
        "density": 7.8
      },
      "geometry": {
        "type": "Point",
        "coordinates": [
          -74.117,
          40.759
        ]
      }
    },
    {
      "type": "Feature",
      "properties": {
        "crashes": 31,
        "injury": 9,
        "fatal": 0,
        "pedestrian": 1,
        "density": 7.8
      },
      "geometry": {
        "type": "Point",
        "coordinates": [
          -74.021,
          40.833
        ]
      }
    },
    {
      "type": "Feature",
      "properties": {
        "crashes": 31,
        "injury": 6,
        "fatal": 0,
        "pedestrian": 0,
        "density": 7.8
      },
      "geometry": {
        "type": "Point",
        "coordinates": [
          -74.019,
          40.837
        ]
      }
    },
    {
      "type": "Feature",
      "properties": {
        "crashes": 31,
        "injury": 3,
        "fatal": 1,
        "pedestrian": 1,
        "density": 7.8
      },
      "geometry": {
        "type": "Point",
        "coordinates": [
          -74.017,
          40.849
        ]
      }
    },
    {
      "type": "Feature",
      "properties": {
        "crashes": 31,
        "injury": 3,
        "fatal": 0,
        "pedestrian": 2,
        "density": 7.8
      },
      "geometry": {
        "type": "Point",
        "coordinates": [
          -74.111,
          40.753
        ]
      }
    },
    {
      "type": "Feature",
      "properties": {
        "crashes": 30,
        "injury": 4,
        "fatal": 0,
        "pedestrian": 0,
        "density": 7.5
      },
      "geometry": {
        "type": "Point",
        "coordinates": [
          -74.063,
          40.809
        ]
      }
    },
    {
      "type": "Feature",
      "properties": {
        "crashes": 30,
        "injury": 6,
        "fatal": 1,
        "pedestrian": 0,
        "density": 7.5
      },
      "geometry": {
        "type": "Point",
        "coordinates": [
          -74.019,
          40.841
        ]
      }
    },
    {
      "type": "Feature",
      "properties": {
        "crashes": 30,
        "injury": 6,
        "fatal": 0,
        "pedestrian": 0,
        "density": 7.5
      },
      "geometry": {
        "type": "Point",
        "coordinates": [
          -74.045,
          40.731
        ]
      }
    },
    {
      "type": "Feature",
      "properties": {
        "crashes": 30,
        "injury": 9,
        "fatal": 0,
        "pedestrian": 0,
        "density": 7.5
      },
      "geometry": {
        "type": "Point",
        "coordinates": [
          -74.081,
          40.759
        ]
      }
    },
    {
      "type": "Feature",
      "properties": {
        "crashes": 30,
        "injury": 5,
        "fatal": 0,
        "pedestrian": 1,
        "density": 7.5
      },
      "geometry": {
        "type": "Point",
        "coordinates": [
          -74.135,
          40.829
        ]
      }
    },
    {
      "type": "Feature",
      "properties": {
        "crashes": 30,
        "injury": 1,
        "fatal": 0,
        "pedestrian": 0,
        "density": 7.5
      },
      "geometry": {
        "type": "Point",
        "coordinates": [
          -74.137,
          40.831
        ]
      }
    },
    {
      "type": "Feature",
      "properties": {
        "crashes": 30,
        "injury": 9,
        "fatal": 0,
        "pedestrian": 0,
        "density": 7.5
      },
      "geometry": {
        "type": "Point",
        "coordinates": [
          -74.145,
          40.829
        ]
      }
    },
    {
      "type": "Feature",
      "properties": {
        "crashes": 29,
        "injury": 6,
        "fatal": 0,
        "pedestrian": 1,
        "density": 7.2
      },
      "geometry": {
        "type": "Point",
        "coordinates": [
          -74.065,
          40.767
        ]
      }
    },
    {
      "type": "Feature",
      "properties": {
        "crashes": 29,
        "injury": 8,
        "fatal": 0,
        "pedestrian": 0,
        "density": 7.2
      },
      "geometry": {
        "type": "Point",
        "coordinates": [
          -74.073,
          40.763
        ]
      }
    },
    {
      "type": "Feature",
      "properties": {
        "crashes": 28,
        "injury": 4,
        "fatal": 0,
        "pedestrian": 0,
        "density": 7.0
      },
      "geometry": {
        "type": "Point",
        "coordinates": [
          -74.067,
          40.807
        ]
      }
    },
    {
      "type": "Feature",
      "properties": {
        "crashes": 28,
        "injury": 6,
        "fatal": 0,
        "pedestrian": 4,
        "density": 7.0
      },
      "geometry": {
        "type": "Point",
        "coordinates": [
          -74.087,
          40.791
        ]
      }
    },
    {
      "type": "Feature",
      "properties": {
        "crashes": 27,
        "injury": 4,
        "fatal": 0,
        "pedestrian": 1,
        "density": 6.8
      },
      "geometry": {
        "type": "Point",
        "coordinates": [
          -74.065,
          40.809
        ]
      }
    },
    {
      "type": "Feature",
      "properties": {
        "crashes": 27,
        "injury": 9,
        "fatal": 0,
        "pedestrian": 0,
        "density": 6.8
      },
      "geometry": {
        "type": "Point",
        "coordinates": [
          -74.017,
          40.847
        ]
      }
    },
    {
      "type": "Feature",
      "properties": {
        "crashes": 27,
        "injury": 4,
        "fatal": 0,
        "pedestrian": 1,
        "density": 6.8
      },
      "geometry": {
        "type": "Point",
        "coordinates": [
          -74.125,
          40.735
        ]
      }
    },
    {
      "type": "Feature",
      "properties": {
        "crashes": 27,
        "injury": 11,
        "fatal": 0,
        "pedestrian": 3,
        "density": 6.8
      },
      "geometry": {
        "type": "Point",
        "coordinates": [
          -74.133,
          40.723
        ]
      }
    },
    {
      "type": "Feature",
      "properties": {
        "crashes": 27,
        "injury": 0,
        "fatal": 0,
        "pedestrian": 0,
        "density": 6.8
      },
      "geometry": {
        "type": "Point",
        "coordinates": [
          -74.061,
          40.775
        ]
      }
    },
    {
      "type": "Feature",
      "properties": {
        "crashes": 27,
        "injury": 5,
        "fatal": 0,
        "pedestrian": 0,
        "density": 6.8
      },
      "geometry": {
        "type": "Point",
        "coordinates": [
          -74.137,
          40.745
        ]
      }
    },
    {
      "type": "Feature",
      "properties": {
        "crashes": 27,
        "injury": 2,
        "fatal": 1,
        "pedestrian": 0,
        "density": 6.8
      },
      "geometry": {
        "type": "Point",
        "coordinates": [
          -74.119,
          40.755
        ]
      }
    },
    {
      "type": "Feature",
      "properties": {
        "crashes": 27,
        "injury": 5,
        "fatal": 1,
        "pedestrian": 0,
        "density": 6.8
      },
      "geometry": {
        "type": "Point",
        "coordinates": [
          -74.139,
          40.829
        ]
      }
    },
    {
      "type": "Feature",
      "properties": {
        "crashes": 26,
        "injury": 7,
        "fatal": 0,
        "pedestrian": 1,
        "density": 6.5
      },
      "geometry": {
        "type": "Point",
        "coordinates": [
          -74.021,
          40.835
        ]
      }
    },
    {
      "type": "Feature",
      "properties": {
        "crashes": 26,
        "injury": 3,
        "fatal": 0,
        "pedestrian": 0,
        "density": 6.5
      },
      "geometry": {
        "type": "Point",
        "coordinates": [
          -74.039,
          40.731
        ]
      }
    },
    {
      "type": "Feature",
      "properties": {
        "crashes": 25,
        "injury": 5,
        "fatal": 0,
        "pedestrian": 0,
        "density": 6.2
      },
      "geometry": {
        "type": "Point",
        "coordinates": [
          -74.115,
          40.761
        ]
      }
    },
    {
      "type": "Feature",
      "properties": {
        "crashes": 24,
        "injury": 3,
        "fatal": 0,
        "pedestrian": 1,
        "density": 6.0
      },
      "geometry": {
        "type": "Point",
        "coordinates": [
          -74.041,
          40.819
        ]
      }
    },
    {
      "type": "Feature",
      "properties": {
        "crashes": 24,
        "injury": 7,
        "fatal": 0,
        "pedestrian": 2,
        "density": 6.0
      },
      "geometry": {
        "type": "Point",
        "coordinates": [
          -74.109,
          40.767
        ]
      }
    },
    {
      "type": "Feature",
      "properties": {
        "crashes": 24,
        "injury": 5,
        "fatal": 0,
        "pedestrian": 0,
        "density": 6.0
      },
      "geometry": {
        "type": "Point",
        "coordinates": [
          -74.095,
          40.757
        ]
      }
    },
    {
      "type": "Feature",
      "properties": {
        "crashes": 24,
        "injury": 6,
        "fatal": 0,
        "pedestrian": 2,
        "density": 6.0
      },
      "geometry": {
        "type": "Point",
        "coordinates": [
          -74.113,
          40.763
        ]
      }
    },
    {
      "type": "Feature",
      "properties": {
        "crashes": 23,
        "injury": 2,
        "fatal": 0,
        "pedestrian": 1,
        "density": 5.8
      },
      "geometry": {
        "type": "Point",
        "coordinates": [
          -74.063,
          40.811
        ]
      }
    },
    {
      "type": "Feature",
      "properties": {
        "crashes": 23,
        "injury": 3,
        "fatal": 0,
        "pedestrian": 2,
        "density": 5.8
      },
      "geometry": {
        "type": "Point",
        "coordinates": [
          -74.043,
          40.819
        ]
      }
    },
    {
      "type": "Feature",
      "properties": {
        "crashes": 23,
        "injury": 6,
        "fatal": 0,
        "pedestrian": 1,
        "density": 5.8
      },
      "geometry": {
        "type": "Point",
        "coordinates": [
          -74.027,
          40.823
        ]
      }
    },
    {
      "type": "Feature",
      "properties": {
        "crashes": 23,
        "injury": 4,
        "fatal": 0,
        "pedestrian": 0,
        "density": 5.8
      },
      "geometry": {
        "type": "Point",
        "coordinates": [
          -74.069,
          40.805
        ]
      }
    },
    {
      "type": "Feature",
      "properties": {
        "crashes": 23,
        "injury": 7,
        "fatal": 0,
        "pedestrian": 2,
        "density": 5.8
      },
      "geometry": {
        "type": "Point",
        "coordinates": [
          -74.075,
          40.799
        ]
      }
    },
    {
      "type": "Feature",
      "properties": {
        "crashes": 23,
        "injury": 5,
        "fatal": 0,
        "pedestrian": 1,
        "density": 5.8
      },
      "geometry": {
        "type": "Point",
        "coordinates": [
          -74.085,
          40.793
        ]
      }
    },
    {
      "type": "Feature",
      "properties": {
        "crashes": 23,
        "injury": 10,
        "fatal": 0,
        "pedestrian": 0,
        "density": 5.8
      },
      "geometry": {
        "type": "Point",
        "coordinates": [
          -74.083,
          40.793
        ]
      }
    },
    {
      "type": "Feature",
      "properties": {
        "crashes": 23,
        "injury": 0,
        "fatal": 0,
        "pedestrian": 0,
        "density": 5.8
      },
      "geometry": {
        "type": "Point",
        "coordinates": [
          -74.041,
          40.731
        ]
      }
    },
    {
      "type": "Feature",
      "properties": {
        "crashes": 23,
        "injury": 5,
        "fatal": 0,
        "pedestrian": 1,
        "density": 5.8
      },
      "geometry": {
        "type": "Point",
        "coordinates": [
          -74.103,
          40.757
        ]
      }
    },
    {
      "type": "Feature",
      "properties": {
        "crashes": 22,
        "injury": 4,
        "fatal": 0,
        "pedestrian": 0,
        "density": 5.5
      },
      "geometry": {
        "type": "Point",
        "coordinates": [
          -74.053,
          40.815
        ]
      }
    },
    {
      "type": "Feature",
      "properties": {
        "crashes": 22,
        "injury": 5,
        "fatal": 0,
        "pedestrian": 1,
        "density": 5.5
      },
      "geometry": {
        "type": "Point",
        "coordinates": [
          -74.057,
          40.813
        ]
      }
    },
    {
      "type": "Feature",
      "properties": {
        "crashes": 22,
        "injury": 4,
        "fatal": 0,
        "pedestrian": 0,
        "density": 5.5
      },
      "geometry": {
        "type": "Point",
        "coordinates": [
          -74.019,
          40.839
        ]
      }
    },
    {
      "type": "Feature",
      "properties": {
        "crashes": 22,
        "injury": 0,
        "fatal": 0,
        "pedestrian": 0,
        "density": 5.5
      },
      "geometry": {
        "type": "Point",
        "coordinates": [
          -74.039,
          40.735
        ]
      }
    },
    {
      "type": "Feature",
      "properties": {
        "crashes": 22,
        "injury": 6,
        "fatal": 0,
        "pedestrian": 0,
        "density": 5.5
      },
      "geometry": {
        "type": "Point",
        "coordinates": [
          -74.127,
          40.753
        ]
      }
    },
    {
      "type": "Feature",
      "properties": {
        "crashes": 22,
        "injury": 4,
        "fatal": 0,
        "pedestrian": 0,
        "density": 5.5
      },
      "geometry": {
        "type": "Point",
        "coordinates": [
          -74.049,
          40.787
        ]
      }
    },
    {
      "type": "Feature",
      "properties": {
        "crashes": 22,
        "injury": 8,
        "fatal": 0,
        "pedestrian": 1,
        "density": 5.5
      },
      "geometry": {
        "type": "Point",
        "coordinates": [
          -74.129,
          40.825
        ]
      }
    },
    {
      "type": "Feature",
      "properties": {
        "crashes": 22,
        "injury": 4,
        "fatal": 0,
        "pedestrian": 0,
        "density": 5.5
      },
      "geometry": {
        "type": "Point",
        "coordinates": [
          -74.139,
          40.825
        ]
      }
    },
    {
      "type": "Feature",
      "properties": {
        "crashes": 21,
        "injury": 3,
        "fatal": 0,
        "pedestrian": 1,
        "density": 5.2
      },
      "geometry": {
        "type": "Point",
        "coordinates": [
          -74.045,
          40.817
        ]
      }
    },
    {
      "type": "Feature",
      "properties": {
        "crashes": 21,
        "injury": 5,
        "fatal": 0,
        "pedestrian": 0,
        "density": 5.2
      },
      "geometry": {
        "type": "Point",
        "coordinates": [
          -74.121,
          40.747
        ]
      }
    },
    {
      "type": "Feature",
      "properties": {
        "crashes": 21,
        "injury": 6,
        "fatal": 0,
        "pedestrian": 1,
        "density": 5.2
      },
      "geometry": {
        "type": "Point",
        "coordinates": [
          -74.089,
          40.789
        ]
      }
    },
    {
      "type": "Feature",
      "properties": {
        "crashes": 21,
        "injury": 3,
        "fatal": 0,
        "pedestrian": 0,
        "density": 5.2
      },
      "geometry": {
        "type": "Point",
        "coordinates": [
          -74.131,
          40.827
        ]
      }
    },
    {
      "type": "Feature",
      "properties": {
        "crashes": 21,
        "injury": 3,
        "fatal": 0,
        "pedestrian": 0,
        "density": 5.2
      },
      "geometry": {
        "type": "Point",
        "coordinates": [
          -74.081,
          40.721
        ]
      }
    },
    {
      "type": "Feature",
      "properties": {
        "crashes": 20,
        "injury": 4,
        "fatal": 0,
        "pedestrian": 2,
        "density": 5.0
      },
      "geometry": {
        "type": "Point",
        "coordinates": [
          -74.095,
          40.783
        ]
      }
    },
    {
      "type": "Feature",
      "properties": {
        "crashes": 20,
        "injury": 8,
        "fatal": 1,
        "pedestrian": 1,
        "density": 5.0
      },
      "geometry": {
        "type": "Point",
        "coordinates": [
          -74.031,
          40.827
        ]
      }
    },
    {
      "type": "Feature",
      "properties": {
        "crashes": 20,
        "injury": 4,
        "fatal": 0,
        "pedestrian": 1,
        "density": 5.0
      },
      "geometry": {
        "type": "Point",
        "coordinates": [
          -74.113,
          40.753
        ]
      }
    },
    {
      "type": "Feature",
      "properties": {
        "crashes": 20,
        "injury": 2,
        "fatal": 0,
        "pedestrian": 1,
        "density": 5.0
      },
      "geometry": {
        "type": "Point",
        "coordinates": [
          -74.055,
          40.783
        ]
      }
    },
    {
      "type": "Feature",
      "properties": {
        "crashes": 20,
        "injury": 6,
        "fatal": 0,
        "pedestrian": 0,
        "density": 5.0
      },
      "geometry": {
        "type": "Point",
        "coordinates": [
          -74.137,
          40.835
        ]
      }
    },
    {
      "type": "Feature",
      "properties": {
        "crashes": 19,
        "injury": 2,
        "fatal": 0,
        "pedestrian": 0,
        "density": 4.8
      },
      "geometry": {
        "type": "Point",
        "coordinates": [
          -74.029,
          40.823
        ]
      }
    },
    {
      "type": "Feature",
      "properties": {
        "crashes": 19,
        "injury": 7,
        "fatal": 0,
        "pedestrian": 0,
        "density": 4.8
      },
      "geometry": {
        "type": "Point",
        "coordinates": [
          -74.049,
          40.817
        ]
      }
    },
    {
      "type": "Feature",
      "properties": {
        "crashes": 19,
        "injury": 7,
        "fatal": 0,
        "pedestrian": 0,
        "density": 4.8
      },
      "geometry": {
        "type": "Point",
        "coordinates": [
          -74.093,
          40.785
        ]
      }
    },
    {
      "type": "Feature",
      "properties": {
        "crashes": 19,
        "injury": 10,
        "fatal": 0,
        "pedestrian": 2,
        "density": 4.8
      },
      "geometry": {
        "type": "Point",
        "coordinates": [
          -74.033,
          40.825
        ]
      }
    },
    {
      "type": "Feature",
      "properties": {
        "crashes": 19,
        "injury": 4,
        "fatal": 0,
        "pedestrian": 0,
        "density": 4.8
      },
      "geometry": {
        "type": "Point",
        "coordinates": [
          -74.031,
          40.825
        ]
      }
    },
    {
      "type": "Feature",
      "properties": {
        "crashes": 19,
        "injury": 2,
        "fatal": 0,
        "pedestrian": 0,
        "density": 4.8
      },
      "geometry": {
        "type": "Point",
        "coordinates": [
          -74.043,
          40.731
        ]
      }
    },
    {
      "type": "Feature",
      "properties": {
        "crashes": 19,
        "injury": 4,
        "fatal": 0,
        "pedestrian": 4,
        "density": 4.8
      },
      "geometry": {
        "type": "Point",
        "coordinates": [
          -74.115,
          40.759
        ]
      }
    },
    {
      "type": "Feature",
      "properties": {
        "crashes": 19,
        "injury": 7,
        "fatal": 0,
        "pedestrian": 1,
        "density": 4.8
      },
      "geometry": {
        "type": "Point",
        "coordinates": [
          -74.051,
          40.789
        ]
      }
    },
    {
      "type": "Feature",
      "properties": {
        "crashes": 19,
        "injury": 5,
        "fatal": 0,
        "pedestrian": 0,
        "density": 4.8
      },
      "geometry": {
        "type": "Point",
        "coordinates": [
          -74.063,
          40.745
        ]
      }
    },
    {
      "type": "Feature",
      "properties": {
        "crashes": 18,
        "injury": 4,
        "fatal": 0,
        "pedestrian": 0,
        "density": 4.5
      },
      "geometry": {
        "type": "Point",
        "coordinates": [
          -74.071,
          40.803
        ]
      }
    },
    {
      "type": "Feature",
      "properties": {
        "crashes": 18,
        "injury": 5,
        "fatal": 0,
        "pedestrian": 2,
        "density": 4.5
      },
      "geometry": {
        "type": "Point",
        "coordinates": [
          -74.089,
          40.787
        ]
      }
    },
    {
      "type": "Feature",
      "properties": {
        "crashes": 18,
        "injury": 3,
        "fatal": 0,
        "pedestrian": 1,
        "density": 4.5
      },
      "geometry": {
        "type": "Point",
        "coordinates": [
          -74.027,
          40.825
        ]
      }
    },
    {
      "type": "Feature",
      "properties": {
        "crashes": 18,
        "injury": 5,
        "fatal": 0,
        "pedestrian": 1,
        "density": 4.5
      },
      "geometry": {
        "type": "Point",
        "coordinates": [
          -74.101,
          40.777
        ]
      }
    },
    {
      "type": "Feature",
      "properties": {
        "crashes": 18,
        "injury": 4,
        "fatal": 0,
        "pedestrian": 2,
        "density": 4.5
      },
      "geometry": {
        "type": "Point",
        "coordinates": [
          -74.075,
          40.763
        ]
      }
    },
    {
      "type": "Feature",
      "properties": {
        "crashes": 18,
        "injury": 5,
        "fatal": 0,
        "pedestrian": 0,
        "density": 4.5
      },
      "geometry": {
        "type": "Point",
        "coordinates": [
          -74.129,
          40.749
        ]
      }
    },
    {
      "type": "Feature",
      "properties": {
        "crashes": 18,
        "injury": 1,
        "fatal": 0,
        "pedestrian": 0,
        "density": 4.5
      },
      "geometry": {
        "type": "Point",
        "coordinates": [
          -74.039,
          40.729
        ]
      }
    },
    {
      "type": "Feature",
      "properties": {
        "crashes": 18,
        "injury": 5,
        "fatal": 0,
        "pedestrian": 0,
        "density": 4.5
      },
      "geometry": {
        "type": "Point",
        "coordinates": [
          -74.131,
          40.747
        ]
      }
    },
    {
      "type": "Feature",
      "properties": {
        "crashes": 18,
        "injury": 5,
        "fatal": 0,
        "pedestrian": 1,
        "density": 4.5
      },
      "geometry": {
        "type": "Point",
        "coordinates": [
          -74.115,
          40.751
        ]
      }
    },
    {
      "type": "Feature",
      "properties": {
        "crashes": 18,
        "injury": 5,
        "fatal": 0,
        "pedestrian": 0,
        "density": 4.5
      },
      "geometry": {
        "type": "Point",
        "coordinates": [
          -74.047,
          40.789
        ]
      }
    },
    {
      "type": "Feature",
      "properties": {
        "crashes": 18,
        "injury": 7,
        "fatal": 0,
        "pedestrian": 0,
        "density": 4.5
      },
      "geometry": {
        "type": "Point",
        "coordinates": [
          -74.135,
          40.839
        ]
      }
    },
    {
      "type": "Feature",
      "properties": {
        "crashes": 18,
        "injury": 3,
        "fatal": 0,
        "pedestrian": 0,
        "density": 4.5
      },
      "geometry": {
        "type": "Point",
        "coordinates": [
          -74.085,
          40.731
        ]
      }
    },
    {
      "type": "Feature",
      "properties": {
        "crashes": 18,
        "injury": 2,
        "fatal": 0,
        "pedestrian": 0,
        "density": 4.5
      },
      "geometry": {
        "type": "Point",
        "coordinates": [
          -74.011,
          40.775
        ]
      }
    },
    {
      "type": "Feature",
      "properties": {
        "crashes": 17,
        "injury": 5,
        "fatal": 0,
        "pedestrian": 3,
        "density": 4.2
      },
      "geometry": {
        "type": "Point",
        "coordinates": [
          -74.035,
          40.823
        ]
      }
    },
    {
      "type": "Feature",
      "properties": {
        "crashes": 17,
        "injury": 2,
        "fatal": 0,
        "pedestrian": 1,
        "density": 4.2
      },
      "geometry": {
        "type": "Point",
        "coordinates": [
          -74.071,
          40.805
        ]
      }
    },
    {
      "type": "Feature",
      "properties": {
        "crashes": 17,
        "injury": 4,
        "fatal": 0,
        "pedestrian": 0,
        "density": 4.2
      },
      "geometry": {
        "type": "Point",
        "coordinates": [
          -74.129,
          40.727
        ]
      }
    },
    {
      "type": "Feature",
      "properties": {
        "crashes": 17,
        "injury": 5,
        "fatal": 0,
        "pedestrian": 1,
        "density": 4.2
      },
      "geometry": {
        "type": "Point",
        "coordinates": [
          -74.083,
          40.759
        ]
      }
    },
    {
      "type": "Feature",
      "properties": {
        "crashes": 17,
        "injury": 6,
        "fatal": 0,
        "pedestrian": 0,
        "density": 4.2
      },
      "geometry": {
        "type": "Point",
        "coordinates": [
          -74.123,
          40.753
        ]
      }
    },
    {
      "type": "Feature",
      "properties": {
        "crashes": 17,
        "injury": 2,
        "fatal": 0,
        "pedestrian": 0,
        "density": 4.2
      },
      "geometry": {
        "type": "Point",
        "coordinates": [
          -74.133,
          40.747
        ]
      }
    },
    {
      "type": "Feature",
      "properties": {
        "crashes": 17,
        "injury": 3,
        "fatal": 0,
        "pedestrian": 0,
        "density": 4.2
      },
      "geometry": {
        "type": "Point",
        "coordinates": [
          -74.071,
          40.765
        ]
      }
    },
    {
      "type": "Feature",
      "properties": {
        "crashes": 17,
        "injury": 3,
        "fatal": 1,
        "pedestrian": 1,
        "density": 4.2
      },
      "geometry": {
        "type": "Point",
        "coordinates": [
          -74.135,
          40.823
        ]
      }
    },
    {
      "type": "Feature",
      "properties": {
        "crashes": 17,
        "injury": 0,
        "fatal": 0,
        "pedestrian": 0,
        "density": 4.2
      },
      "geometry": {
        "type": "Point",
        "coordinates": [
          -74.065,
          40.731
        ]
      }
    },
    {
      "type": "Feature",
      "properties": {
        "crashes": 17,
        "injury": 1,
        "fatal": 0,
        "pedestrian": 1,
        "density": 4.2
      },
      "geometry": {
        "type": "Point",
        "coordinates": [
          -74.089,
          40.723
        ]
      }
    },
    {
      "type": "Feature",
      "properties": {
        "crashes": 16,
        "injury": 3,
        "fatal": 0,
        "pedestrian": 2,
        "density": 4.0
      },
      "geometry": {
        "type": "Point",
        "coordinates": [
          -74.039,
          40.819
        ]
      }
    },
    {
      "type": "Feature",
      "properties": {
        "crashes": 16,
        "injury": 1,
        "fatal": 0,
        "pedestrian": 1,
        "density": 4.0
      },
      "geometry": {
        "type": "Point",
        "coordinates": [
          -74.079,
          40.797
        ]
      }
    },
    {
      "type": "Feature",
      "properties": {
        "crashes": 16,
        "injury": 5,
        "fatal": 0,
        "pedestrian": 1,
        "density": 4.0
      },
      "geometry": {
        "type": "Point",
        "coordinates": [
          -74.081,
          40.795
        ]
      }
    },
    {
      "type": "Feature",
      "properties": {
        "crashes": 16,
        "injury": 2,
        "fatal": 0,
        "pedestrian": 0,
        "density": 4.0
      },
      "geometry": {
        "type": "Point",
        "coordinates": [
          -74.135,
          40.723
        ]
      }
    },
    {
      "type": "Feature",
      "properties": {
        "crashes": 16,
        "injury": 5,
        "fatal": 0,
        "pedestrian": 0,
        "density": 4.0
      },
      "geometry": {
        "type": "Point",
        "coordinates": [
          -74.049,
          40.731
        ]
      }
    },
    {
      "type": "Feature",
      "properties": {
        "crashes": 16,
        "injury": 4,
        "fatal": 0,
        "pedestrian": 0,
        "density": 4.0
      },
      "geometry": {
        "type": "Point",
        "coordinates": [
          -74.107,
          40.771
        ]
      }
    },
    {
      "type": "Feature",
      "properties": {
        "crashes": 16,
        "injury": 4,
        "fatal": 0,
        "pedestrian": 0,
        "density": 4.0
      },
      "geometry": {
        "type": "Point",
        "coordinates": [
          -74.105,
          40.757
        ]
      }
    },
    {
      "type": "Feature",
      "properties": {
        "crashes": 16,
        "injury": 4,
        "fatal": 0,
        "pedestrian": 1,
        "density": 4.0
      },
      "geometry": {
        "type": "Point",
        "coordinates": [
          -74.105,
          40.773
        ]
      }
    },
    {
      "type": "Feature",
      "properties": {
        "crashes": 16,
        "injury": 5,
        "fatal": 0,
        "pedestrian": 0,
        "density": 4.0
      },
      "geometry": {
        "type": "Point",
        "coordinates": [
          -74.041,
          40.797
        ]
      }
    },
    {
      "type": "Feature",
      "properties": {
        "crashes": 16,
        "injury": 2,
        "fatal": 0,
        "pedestrian": 0,
        "density": 4.0
      },
      "geometry": {
        "type": "Point",
        "coordinates": [
          -74.097,
          40.835
        ]
      }
    },
    {
      "type": "Feature",
      "properties": {
        "crashes": 16,
        "injury": 1,
        "fatal": 0,
        "pedestrian": 0,
        "density": 4.0
      },
      "geometry": {
        "type": "Point",
        "coordinates": [
          -74.069,
          40.811
        ]
      }
    },
    {
      "type": "Feature",
      "properties": {
        "crashes": 15,
        "injury": 6,
        "fatal": 0,
        "pedestrian": 0,
        "density": 3.8
      },
      "geometry": {
        "type": "Point",
        "coordinates": [
          -74.081,
          40.809
        ]
      }
    },
    {
      "type": "Feature",
      "properties": {
        "crashes": 15,
        "injury": 1,
        "fatal": 0,
        "pedestrian": 0,
        "density": 3.8
      },
      "geometry": {
        "type": "Point",
        "coordinates": [
          -74.117,
          40.751
        ]
      }
    },
    {
      "type": "Feature",
      "properties": {
        "crashes": 15,
        "injury": 1,
        "fatal": 0,
        "pedestrian": 0,
        "density": 3.8
      },
      "geometry": {
        "type": "Point",
        "coordinates": [
          -74.065,
          40.771
        ]
      }
    },
    {
      "type": "Feature",
      "properties": {
        "crashes": 15,
        "injury": 3,
        "fatal": 0,
        "pedestrian": 0,
        "density": 3.8
      },
      "geometry": {
        "type": "Point",
        "coordinates": [
          -74.127,
          40.823
        ]
      }
    },
    {
      "type": "Feature",
      "properties": {
        "crashes": 15,
        "injury": 4,
        "fatal": 0,
        "pedestrian": 0,
        "density": 3.8
      },
      "geometry": {
        "type": "Point",
        "coordinates": [
          -74.125,
          40.835
        ]
      }
    },
    {
      "type": "Feature",
      "properties": {
        "crashes": 15,
        "injury": 6,
        "fatal": 0,
        "pedestrian": 0,
        "density": 3.8
      },
      "geometry": {
        "type": "Point",
        "coordinates": [
          -74.063,
          40.743
        ]
      }
    },
    {
      "type": "Feature",
      "properties": {
        "crashes": 15,
        "injury": 1,
        "fatal": 0,
        "pedestrian": 0,
        "density": 3.8
      },
      "geometry": {
        "type": "Point",
        "coordinates": [
          -74.019,
          40.787
        ]
      }
    },
    {
      "type": "Feature",
      "properties": {
        "crashes": 15,
        "injury": 2,
        "fatal": 0,
        "pedestrian": 0,
        "density": 3.8
      },
      "geometry": {
        "type": "Point",
        "coordinates": [
          -74.067,
          40.731
        ]
      }
    },
    {
      "type": "Feature",
      "properties": {
        "crashes": 14,
        "injury": 4,
        "fatal": 0,
        "pedestrian": 1,
        "density": 3.5
      },
      "geometry": {
        "type": "Point",
        "coordinates": [
          -74.047,
          40.817
        ]
      }
    },
    {
      "type": "Feature",
      "properties": {
        "crashes": 14,
        "injury": 4,
        "fatal": 0,
        "pedestrian": 0,
        "density": 3.5
      },
      "geometry": {
        "type": "Point",
        "coordinates": [
          -74.083,
          40.795
        ]
      }
    },
    {
      "type": "Feature",
      "properties": {
        "crashes": 14,
        "injury": 2,
        "fatal": 0,
        "pedestrian": 0,
        "density": 3.5
      },
      "geometry": {
        "type": "Point",
        "coordinates": [
          -74.121,
          40.755
        ]
      }
    },
    {
      "type": "Feature",
      "properties": {
        "crashes": 14,
        "injury": 2,
        "fatal": 1,
        "pedestrian": 0,
        "density": 3.5
      },
      "geometry": {
        "type": "Point",
        "coordinates": [
          -74.023,
          40.833
        ]
      }
    },
    {
      "type": "Feature",
      "properties": {
        "crashes": 14,
        "injury": 5,
        "fatal": 0,
        "pedestrian": 0,
        "density": 3.5
      },
      "geometry": {
        "type": "Point",
        "coordinates": [
          -74.021,
          40.837
        ]
      }
    },
    {
      "type": "Feature",
      "properties": {
        "crashes": 14,
        "injury": 2,
        "fatal": 0,
        "pedestrian": 0,
        "density": 3.5
      },
      "geometry": {
        "type": "Point",
        "coordinates": [
          -74.145,
          40.743
        ]
      }
    },
    {
      "type": "Feature",
      "properties": {
        "crashes": 14,
        "injury": 4,
        "fatal": 0,
        "pedestrian": 0,
        "density": 3.5
      },
      "geometry": {
        "type": "Point",
        "coordinates": [
          -74.047,
          40.731
        ]
      }
    },
    {
      "type": "Feature",
      "properties": {
        "crashes": 14,
        "injury": 4,
        "fatal": 0,
        "pedestrian": 0,
        "density": 3.5
      },
      "geometry": {
        "type": "Point",
        "coordinates": [
          -74.051,
          40.731
        ]
      }
    },
    {
      "type": "Feature",
      "properties": {
        "crashes": 14,
        "injury": 5,
        "fatal": 0,
        "pedestrian": 0,
        "density": 3.5
      },
      "geometry": {
        "type": "Point",
        "coordinates": [
          -74.097,
          40.757
        ]
      }
    },
    {
      "type": "Feature",
      "properties": {
        "crashes": 14,
        "injury": 4,
        "fatal": 0,
        "pedestrian": 2,
        "density": 3.5
      },
      "geometry": {
        "type": "Point",
        "coordinates": [
          -74.119,
          40.749
        ]
      }
    },
    {
      "type": "Feature",
      "properties": {
        "crashes": 14,
        "injury": 4,
        "fatal": 0,
        "pedestrian": 0,
        "density": 3.5
      },
      "geometry": {
        "type": "Point",
        "coordinates": [
          -74.053,
          40.781
        ]
      }
    },
    {
      "type": "Feature",
      "properties": {
        "crashes": 14,
        "injury": 4,
        "fatal": 1,
        "pedestrian": 0,
        "density": 3.5
      },
      "geometry": {
        "type": "Point",
        "coordinates": [
          -74.035,
          40.803
        ]
      }
    },
    {
      "type": "Feature",
      "properties": {
        "crashes": 14,
        "injury": 1,
        "fatal": 0,
        "pedestrian": 1,
        "density": 3.5
      },
      "geometry": {
        "type": "Point",
        "coordinates": [
          -74.067,
          40.767
        ]
      }
    },
    {
      "type": "Feature",
      "properties": {
        "crashes": 14,
        "injury": 7,
        "fatal": 0,
        "pedestrian": 0,
        "density": 3.5
      },
      "geometry": {
        "type": "Point",
        "coordinates": [
          -74.049,
          40.789
        ]
      }
    },
    {
      "type": "Feature",
      "properties": {
        "crashes": 14,
        "injury": 2,
        "fatal": 0,
        "pedestrian": 0,
        "density": 3.5
      },
      "geometry": {
        "type": "Point",
        "coordinates": [
          -74.063,
          40.771
        ]
      }
    },
    {
      "type": "Feature",
      "properties": {
        "crashes": 14,
        "injury": 2,
        "fatal": 0,
        "pedestrian": 0,
        "density": 3.5
      },
      "geometry": {
        "type": "Point",
        "coordinates": [
          -74.147,
          40.849
        ]
      }
    },
    {
      "type": "Feature",
      "properties": {
        "crashes": 14,
        "injury": 1,
        "fatal": 0,
        "pedestrian": 1,
        "density": 3.5
      },
      "geometry": {
        "type": "Point",
        "coordinates": [
          -74.057,
          40.753
        ]
      }
    },
    {
      "type": "Feature",
      "properties": {
        "crashes": 14,
        "injury": 4,
        "fatal": 0,
        "pedestrian": 0,
        "density": 3.5
      },
      "geometry": {
        "type": "Point",
        "coordinates": [
          -74.013,
          40.775
        ]
      }
    },
    {
      "type": "Feature",
      "properties": {
        "crashes": 14,
        "injury": 2,
        "fatal": 0,
        "pedestrian": 0,
        "density": 3.5
      },
      "geometry": {
        "type": "Point",
        "coordinates": [
          -74.075,
          40.737
        ]
      }
    },
    {
      "type": "Feature",
      "properties": {
        "crashes": 13,
        "injury": 4,
        "fatal": 0,
        "pedestrian": 1,
        "density": 3.2
      },
      "geometry": {
        "type": "Point",
        "coordinates": [
          -74.037,
          40.801
        ]
      }
    },
    {
      "type": "Feature",
      "properties": {
        "crashes": 13,
        "injury": 3,
        "fatal": 0,
        "pedestrian": 2,
        "density": 3.2
      },
      "geometry": {
        "type": "Point",
        "coordinates": [
          -74.105,
          40.771
        ]
      }
    },
    {
      "type": "Feature",
      "properties": {
        "crashes": 13,
        "injury": 2,
        "fatal": 0,
        "pedestrian": 0,
        "density": 3.2
      },
      "geometry": {
        "type": "Point",
        "coordinates": [
          -74.131,
          40.725
        ]
      }
    },
    {
      "type": "Feature",
      "properties": {
        "crashes": 13,
        "injury": 3,
        "fatal": 0,
        "pedestrian": 2,
        "density": 3.2
      },
      "geometry": {
        "type": "Point",
        "coordinates": [
          -74.125,
          40.737
        ]
      }
    },
    {
      "type": "Feature",
      "properties": {
        "crashes": 13,
        "injury": 2,
        "fatal": 0,
        "pedestrian": 0,
        "density": 3.2
      },
      "geometry": {
        "type": "Point",
        "coordinates": [
          -74.123,
          40.735
        ]
      }
    },
    {
      "type": "Feature",
      "properties": {
        "crashes": 13,
        "injury": 1,
        "fatal": 0,
        "pedestrian": 0,
        "density": 3.2
      },
      "geometry": {
        "type": "Point",
        "coordinates": [
          -74.045,
          40.733
        ]
      }
    },
    {
      "type": "Feature",
      "properties": {
        "crashes": 13,
        "injury": 4,
        "fatal": 0,
        "pedestrian": 0,
        "density": 3.2
      },
      "geometry": {
        "type": "Point",
        "coordinates": [
          -74.125,
          40.753
        ]
      }
    },
    {
      "type": "Feature",
      "properties": {
        "crashes": 13,
        "injury": 3,
        "fatal": 0,
        "pedestrian": 1,
        "density": 3.2
      },
      "geometry": {
        "type": "Point",
        "coordinates": [
          -74.101,
          40.757
        ]
      }
    },
    {
      "type": "Feature",
      "properties": {
        "crashes": 13,
        "injury": 3,
        "fatal": 0,
        "pedestrian": 3,
        "density": 3.2
      },
      "geometry": {
        "type": "Point",
        "coordinates": [
          -74.099,
          40.757
        ]
      }
    },
    {
      "type": "Feature",
      "properties": {
        "crashes": 13,
        "injury": 4,
        "fatal": 0,
        "pedestrian": 0,
        "density": 3.2
      },
      "geometry": {
        "type": "Point",
        "coordinates": [
          -74.039,
          40.775
        ]
      }
    },
    {
      "type": "Feature",
      "properties": {
        "crashes": 13,
        "injury": 1,
        "fatal": 0,
        "pedestrian": 0,
        "density": 3.2
      },
      "geometry": {
        "type": "Point",
        "coordinates": [
          -74.047,
          40.791
        ]
      }
    },
    {
      "type": "Feature",
      "properties": {
        "crashes": 13,
        "injury": 4,
        "fatal": 0,
        "pedestrian": 0,
        "density": 3.2
      },
      "geometry": {
        "type": "Point",
        "coordinates": [
          -74.129,
          40.827
        ]
      }
    },
    {
      "type": "Feature",
      "properties": {
        "crashes": 13,
        "injury": 3,
        "fatal": 0,
        "pedestrian": 1,
        "density": 3.2
      },
      "geometry": {
        "type": "Point",
        "coordinates": [
          -74.139,
          40.831
        ]
      }
    },
    {
      "type": "Feature",
      "properties": {
        "crashes": 13,
        "injury": 0,
        "fatal": 0,
        "pedestrian": 0,
        "density": 3.2
      },
      "geometry": {
        "type": "Point",
        "coordinates": [
          -74.061,
          40.747
        ]
      }
    },
    {
      "type": "Feature",
      "properties": {
        "crashes": 13,
        "injury": 2,
        "fatal": 0,
        "pedestrian": 0,
        "density": 3.2
      },
      "geometry": {
        "type": "Point",
        "coordinates": [
          -74.049,
          40.763
        ]
      }
    },
    {
      "type": "Feature",
      "properties": {
        "crashes": 13,
        "injury": 2,
        "fatal": 0,
        "pedestrian": 0,
        "density": 3.2
      },
      "geometry": {
        "type": "Point",
        "coordinates": [
          -74.009,
          40.795
        ]
      }
    },
    {
      "type": "Feature",
      "properties": {
        "crashes": 12,
        "injury": 5,
        "fatal": 1,
        "pedestrian": 1,
        "density": 3.0
      },
      "geometry": {
        "type": "Point",
        "coordinates": [
          -74.051,
          40.815
        ]
      }
    },
    {
      "type": "Feature",
      "properties": {
        "crashes": 12,
        "injury": 2,
        "fatal": 0,
        "pedestrian": 0,
        "density": 3.0
      },
      "geometry": {
        "type": "Point",
        "coordinates": [
          -74.065,
          40.807
        ]
      }
    },
    {
      "type": "Feature",
      "properties": {
        "crashes": 12,
        "injury": 1,
        "fatal": 0,
        "pedestrian": 0,
        "density": 3.0
      },
      "geometry": {
        "type": "Point",
        "coordinates": [
          -74.045,
          40.793
        ]
      }
    },
    {
      "type": "Feature",
      "properties": {
        "crashes": 12,
        "injury": 6,
        "fatal": 0,
        "pedestrian": 1,
        "density": 3.0
      },
      "geometry": {
        "type": "Point",
        "coordinates": [
          -74.097,
          40.781
        ]
      }
    },
    {
      "type": "Feature",
      "properties": {
        "crashes": 12,
        "injury": 3,
        "fatal": 0,
        "pedestrian": 0,
        "density": 3.0
      },
      "geometry": {
        "type": "Point",
        "coordinates": [
          -74.025,
          40.827
        ]
      }
    },
    {
      "type": "Feature",
      "properties": {
        "crashes": 12,
        "injury": 6,
        "fatal": 0,
        "pedestrian": 0,
        "density": 3.0
      },
      "geometry": {
        "type": "Point",
        "coordinates": [
          -74.103,
          40.775
        ]
      }
    },
    {
      "type": "Feature",
      "properties": {
        "crashes": 12,
        "injury": 5,
        "fatal": 0,
        "pedestrian": 0,
        "density": 3.0
      },
      "geometry": {
        "type": "Point",
        "coordinates": [
          -74.055,
          40.721
        ]
      }
    },
    {
      "type": "Feature",
      "properties": {
        "crashes": 12,
        "injury": 4,
        "fatal": 0,
        "pedestrian": 0,
        "density": 3.0
      },
      "geometry": {
        "type": "Point",
        "coordinates": [
          -74.107,
          40.769
        ]
      }
    },
    {
      "type": "Feature",
      "properties": {
        "crashes": 12,
        "injury": 5,
        "fatal": 0,
        "pedestrian": 0,
        "density": 3.0
      },
      "geometry": {
        "type": "Point",
        "coordinates": [
          -74.053,
          40.727
        ]
      }
    },
    {
      "type": "Feature",
      "properties": {
        "crashes": 12,
        "injury": 4,
        "fatal": 1,
        "pedestrian": 0,
        "density": 3.0
      },
      "geometry": {
        "type": "Point",
        "coordinates": [
          -74.085,
          40.759
        ]
      }
    },
    {
      "type": "Feature",
      "properties": {
        "crashes": 12,
        "injury": 2,
        "fatal": 0,
        "pedestrian": 0,
        "density": 3.0
      },
      "geometry": {
        "type": "Point",
        "coordinates": [
          -74.045,
          40.777
        ]
      }
    },
    {
      "type": "Feature",
      "properties": {
        "crashes": 12,
        "injury": 3,
        "fatal": 0,
        "pedestrian": 0,
        "density": 3.0
      },
      "geometry": {
        "type": "Point",
        "coordinates": [
          -74.081,
          40.761
        ]
      }
    },
    {
      "type": "Feature",
      "properties": {
        "crashes": 12,
        "injury": 1,
        "fatal": 0,
        "pedestrian": 2,
        "density": 3.0
      },
      "geometry": {
        "type": "Point",
        "coordinates": [
          -74.077,
          40.761
        ]
      }
    },
    {
      "type": "Feature",
      "properties": {
        "crashes": 12,
        "injury": 1,
        "fatal": 0,
        "pedestrian": 1,
        "density": 3.0
      },
      "geometry": {
        "type": "Point",
        "coordinates": [
          -74.069,
          40.765
        ]
      }
    },
    {
      "type": "Feature",
      "properties": {
        "crashes": 12,
        "injury": 3,
        "fatal": 0,
        "pedestrian": 0,
        "density": 3.0
      },
      "geometry": {
        "type": "Point",
        "coordinates": [
          -74.139,
          40.815
        ]
      }
    },
    {
      "type": "Feature",
      "properties": {
        "crashes": 12,
        "injury": 0,
        "fatal": 0,
        "pedestrian": 0,
        "density": 3.0
      },
      "geometry": {
        "type": "Point",
        "coordinates": [
          -74.135,
          40.833
        ]
      }
    },
    {
      "type": "Feature",
      "properties": {
        "crashes": 12,
        "injury": 1,
        "fatal": 0,
        "pedestrian": 0,
        "density": 3.0
      },
      "geometry": {
        "type": "Point",
        "coordinates": [
          -74.125,
          40.827
        ]
      }
    },
    {
      "type": "Feature",
      "properties": {
        "crashes": 12,
        "injury": 3,
        "fatal": 0,
        "pedestrian": 0,
        "density": 3.0
      },
      "geometry": {
        "type": "Point",
        "coordinates": [
          -74.053,
          40.759
        ]
      }
    },
    {
      "type": "Feature",
      "properties": {
        "crashes": 12,
        "injury": 2,
        "fatal": 0,
        "pedestrian": 0,
        "density": 3.0
      },
      "geometry": {
        "type": "Point",
        "coordinates": [
          -74.081,
          40.737
        ]
      }
    },
    {
      "type": "Feature",
      "properties": {
        "crashes": 12,
        "injury": 0,
        "fatal": 0,
        "pedestrian": 0,
        "density": 3.0
      },
      "geometry": {
        "type": "Point",
        "coordinates": [
          -74.021,
          40.787
        ]
      }
    },
    {
      "type": "Feature",
      "properties": {
        "crashes": 11,
        "injury": 2,
        "fatal": 0,
        "pedestrian": 1,
        "density": 2.8
      },
      "geometry": {
        "type": "Point",
        "coordinates": [
          -74.077,
          40.809
        ]
      }
    },
    {
      "type": "Feature",
      "properties": {
        "crashes": 11,
        "injury": 1,
        "fatal": 0,
        "pedestrian": 0,
        "density": 2.8
      },
      "geometry": {
        "type": "Point",
        "coordinates": [
          -74.073,
          40.803
        ]
      }
    },
    {
      "type": "Feature",
      "properties": {
        "crashes": 11,
        "injury": 3,
        "fatal": 0,
        "pedestrian": 0,
        "density": 2.8
      },
      "geometry": {
        "type": "Point",
        "coordinates": [
          -74.121,
          40.751
        ]
      }
    },
    {
      "type": "Feature",
      "properties": {
        "crashes": 11,
        "injury": 3,
        "fatal": 1,
        "pedestrian": 0,
        "density": 2.8
      },
      "geometry": {
        "type": "Point",
        "coordinates": [
          -74.117,
          40.753
        ]
      }
    },
    {
      "type": "Feature",
      "properties": {
        "crashes": 11,
        "injury": 3,
        "fatal": 0,
        "pedestrian": 0,
        "density": 2.8
      },
      "geometry": {
        "type": "Point",
        "coordinates": [
          -74.051,
          40.787
        ]
      }
    },
    {
      "type": "Feature",
      "properties": {
        "crashes": 11,
        "injury": 1,
        "fatal": 0,
        "pedestrian": 0,
        "density": 2.8
      },
      "geometry": {
        "type": "Point",
        "coordinates": [
          -74.063,
          40.769
        ]
      }
    },
    {
      "type": "Feature",
      "properties": {
        "crashes": 11,
        "injury": 2,
        "fatal": 0,
        "pedestrian": 1,
        "density": 2.8
      },
      "geometry": {
        "type": "Point",
        "coordinates": [
          -74.133,
          40.827
        ]
      }
    },
    {
      "type": "Feature",
      "properties": {
        "crashes": 11,
        "injury": 0,
        "fatal": 0,
        "pedestrian": 0,
        "density": 2.8
      },
      "geometry": {
        "type": "Point",
        "coordinates": [
          -74.131,
          40.831
        ]
      }
    },
    {
      "type": "Feature",
      "properties": {
        "crashes": 11,
        "injury": 2,
        "fatal": 0,
        "pedestrian": 0,
        "density": 2.8
      },
      "geometry": {
        "type": "Point",
        "coordinates": [
          -74.149,
          40.847
        ]
      }
    },
    {
      "type": "Feature",
      "properties": {
        "crashes": 11,
        "injury": 3,
        "fatal": 0,
        "pedestrian": 0,
        "density": 2.8
      },
      "geometry": {
        "type": "Point",
        "coordinates": [
          -74.091,
          40.723
        ]
      }
    },
    {
      "type": "Feature",
      "properties": {
        "crashes": 11,
        "injury": 1,
        "fatal": 0,
        "pedestrian": 0,
        "density": 2.8
      },
      "geometry": {
        "type": "Point",
        "coordinates": [
          -74.069,
          40.725
        ]
      }
    },
    {
      "type": "Feature",
      "properties": {
        "crashes": 11,
        "injury": 2,
        "fatal": 0,
        "pedestrian": 0,
        "density": 2.8
      },
      "geometry": {
        "type": "Point",
        "coordinates": [
          -74.045,
          40.769
        ]
      }
    },
    {
      "type": "Feature",
      "properties": {
        "crashes": 11,
        "injury": 2,
        "fatal": 0,
        "pedestrian": 0,
        "density": 2.8
      },
      "geometry": {
        "type": "Point",
        "coordinates": [
          -73.987,
          40.743
        ]
      }
    },
    {
      "type": "Feature",
      "properties": {
        "crashes": 10,
        "injury": 5,
        "fatal": 0,
        "pedestrian": 1,
        "density": 2.5
      },
      "geometry": {
        "type": "Point",
        "coordinates": [
          -74.029,
          40.815
        ]
      }
    },
    {
      "type": "Feature",
      "properties": {
        "crashes": 10,
        "injury": 1,
        "fatal": 0,
        "pedestrian": 2,
        "density": 2.5
      },
      "geometry": {
        "type": "Point",
        "coordinates": [
          -74.091,
          40.787
        ]
      }
    },
    {
      "type": "Feature",
      "properties": {
        "crashes": 10,
        "injury": 3,
        "fatal": 0,
        "pedestrian": 0,
        "density": 2.5
      },
      "geometry": {
        "type": "Point",
        "coordinates": [
          -74.141,
          40.745
        ]
      }
    },
    {
      "type": "Feature",
      "properties": {
        "crashes": 10,
        "injury": 2,
        "fatal": 0,
        "pedestrian": 0,
        "density": 2.5
      },
      "geometry": {
        "type": "Point",
        "coordinates": [
          -74.055,
          40.789
        ]
      }
    },
    {
      "type": "Feature",
      "properties": {
        "crashes": 10,
        "injury": 1,
        "fatal": 0,
        "pedestrian": 0,
        "density": 2.5
      },
      "geometry": {
        "type": "Point",
        "coordinates": [
          -74.031,
          40.809
        ]
      }
    },
    {
      "type": "Feature",
      "properties": {
        "crashes": 10,
        "injury": 3,
        "fatal": 0,
        "pedestrian": 0,
        "density": 2.5
      },
      "geometry": {
        "type": "Point",
        "coordinates": [
          -74.033,
          40.805
        ]
      }
    },
    {
      "type": "Feature",
      "properties": {
        "crashes": 10,
        "injury": 3,
        "fatal": 0,
        "pedestrian": 2,
        "density": 2.5
      },
      "geometry": {
        "type": "Point",
        "coordinates": [
          -74.091,
          40.757
        ]
      }
    },
    {
      "type": "Feature",
      "properties": {
        "crashes": 10,
        "injury": 3,
        "fatal": 0,
        "pedestrian": 0,
        "density": 2.5
      },
      "geometry": {
        "type": "Point",
        "coordinates": [
          -74.087,
          40.757
        ]
      }
    },
    {
      "type": "Feature",
      "properties": {
        "crashes": 10,
        "injury": 3,
        "fatal": 0,
        "pedestrian": 0,
        "density": 2.5
      },
      "geometry": {
        "type": "Point",
        "coordinates": [
          -74.005,
          40.843
        ]
      }
    },
    {
      "type": "Feature",
      "properties": {
        "crashes": 10,
        "injury": 2,
        "fatal": 0,
        "pedestrian": 0,
        "density": 2.5
      },
      "geometry": {
        "type": "Point",
        "coordinates": [
          -74.127,
          40.827
        ]
      }
    },
    {
      "type": "Feature",
      "properties": {
        "crashes": 10,
        "injury": 1,
        "fatal": 0,
        "pedestrian": 0,
        "density": 2.5
      },
      "geometry": {
        "type": "Point",
        "coordinates": [
          -74.147,
          40.731
        ]
      }
    },
    {
      "type": "Feature",
      "properties": {
        "crashes": 10,
        "injury": 2,
        "fatal": 0,
        "pedestrian": 0,
        "density": 2.5
      },
      "geometry": {
        "type": "Point",
        "coordinates": [
          -74.137,
          40.739
        ]
      }
    },
    {
      "type": "Feature",
      "properties": {
        "crashes": 10,
        "injury": 1,
        "fatal": 0,
        "pedestrian": 0,
        "density": 2.5
      },
      "geometry": {
        "type": "Point",
        "coordinates": [
          -74.011,
          40.795
        ]
      }
    },
    {
      "type": "Feature",
      "properties": {
        "crashes": 10,
        "injury": 0,
        "fatal": 0,
        "pedestrian": 0,
        "density": 2.5
      },
      "geometry": {
        "type": "Point",
        "coordinates": [
          -74.063,
          40.733
        ]
      }
    },
    {
      "type": "Feature",
      "properties": {
        "crashes": 10,
        "injury": 0,
        "fatal": 0,
        "pedestrian": 0,
        "density": 2.5
      },
      "geometry": {
        "type": "Point",
        "coordinates": [
          -74.061,
          40.749
        ]
      }
    },
    {
      "type": "Feature",
      "properties": {
        "crashes": 10,
        "injury": 0,
        "fatal": 0,
        "pedestrian": 0,
        "density": 2.5
      },
      "geometry": {
        "type": "Point",
        "coordinates": [
          -74.063,
          40.735
        ]
      }
    },
    {
      "type": "Feature",
      "properties": {
        "crashes": 10,
        "injury": 2,
        "fatal": 0,
        "pedestrian": 0,
        "density": 2.5
      },
      "geometry": {
        "type": "Point",
        "coordinates": [
          -74.073,
          40.739
        ]
      }
    },
    {
      "type": "Feature",
      "properties": {
        "crashes": 10,
        "injury": 2,
        "fatal": 0,
        "pedestrian": 0,
        "density": 2.5
      },
      "geometry": {
        "type": "Point",
        "coordinates": [
          -74.021,
          40.793
        ]
      }
    },
    {
      "type": "Feature",
      "properties": {
        "crashes": 10,
        "injury": 1,
        "fatal": 0,
        "pedestrian": 0,
        "density": 2.5
      },
      "geometry": {
        "type": "Point",
        "coordinates": [
          -74.011,
          40.777
        ]
      }
    },
    {
      "type": "Feature",
      "properties": {
        "crashes": 10,
        "injury": 0,
        "fatal": 0,
        "pedestrian": 0,
        "density": 2.5
      },
      "geometry": {
        "type": "Point",
        "coordinates": [
          -74.005,
          40.789
        ]
      }
    },
    {
      "type": "Feature",
      "properties": {
        "crashes": 10,
        "injury": 2,
        "fatal": 0,
        "pedestrian": 0,
        "density": 2.5
      },
      "geometry": {
        "type": "Point",
        "coordinates": [
          -74.015,
          40.785
        ]
      }
    },
    {
      "type": "Feature",
      "properties": {
        "crashes": 10,
        "injury": 2,
        "fatal": 0,
        "pedestrian": 0,
        "density": 2.5
      },
      "geometry": {
        "type": "Point",
        "coordinates": [
          -74.017,
          40.783
        ]
      }
    },
    {
      "type": "Feature",
      "properties": {
        "crashes": 10,
        "injury": 2,
        "fatal": 0,
        "pedestrian": 0,
        "density": 2.5
      },
      "geometry": {
        "type": "Point",
        "coordinates": [
          -74.005,
          40.791
        ]
      }
    },
    {
      "type": "Feature",
      "properties": {
        "crashes": 10,
        "injury": 1,
        "fatal": 0,
        "pedestrian": 0,
        "density": 2.5
      },
      "geometry": {
        "type": "Point",
        "coordinates": [
          -74.013,
          40.797
        ]
      }
    },
    {
      "type": "Feature",
      "properties": {
        "crashes": 10,
        "injury": 1,
        "fatal": 0,
        "pedestrian": 0,
        "density": 2.5
      },
      "geometry": {
        "type": "Point",
        "coordinates": [
          -74.085,
          40.723
        ]
      }
    }
  ]
}